<?xml version="1.0" encoding="UTF-8"?>
<kml xmlns="http://www.opengis.net/kml/2.2" xmlns:gx="http://www.google.com/kml/ext/2.2" xmlns:kml="http://www.opengis.net/kml/2.2" xmlns:atom="http://www.w3.org/2005/Atom">
<Document>
	<name>Detected Garbage Locations.kml</name>
	<StyleMap id="m_ylw-pushpin">
		<Pair>
			<key>normal</key>
			<styleUrl>#s_ylw-pushpin</styleUrl>
		</Pair>
		<Pair>
			<key>highlight</key>
			<styleUrl>#s_ylw-pushpin_hl</styleUrl>
		</Pair>
	</StyleMap>
	<Style id="s_ylw-pushpin">
		<IconStyle>
			<scale>1.1</scale>
			<Icon>
				<href>http://maps.google.com/mapfiles/kml/pushpin/ylw-pushpin.png</href>
			</Icon>
			<hotSpot x="20" y="2" xunits="pixels" yunits="pixels"/>
		</IconStyle>
	</Style>
	<Style id="s_ylw-pushpin_hl">
		<IconStyle>
			<scale>1.3</scale>
			<Icon>
				<href>http://maps.google.com/mapfiles/kml/pushpin/ylw-pushpin.png</href>
			</Icon>
			<hotSpot x="20" y="2" xunits="pixels" yunits="pixels"/>
		</IconStyle>
	</Style>
	<Folder>
		<name>Temporary Places</name>
		<open>1</open>
		<Placemark>
			<name>1</name>
			<LookAt>
				<longitude>73.85474775708239</longitude>
				<latitude>18.53230387211954</latitude>
				<altitude>0</altitude>
				<heading>110.9223697960067</heading>
				<tilt>45.03087428114588</tilt>
				<range>343.5883455343543</range>
				<gx:altitudeMode>relativeToSeaFloor</gx:altitudeMode>
			</LookAt>
			<styleUrl>#m_ylw-pushpin</styleUrl>
			<Point>
				<gx:drawOrder>1</gx:drawOrder>
				<coordinates>73.85486143519311,18.53221752951927,0</coordinates>
			</Point>
		</Placemark>
		<Placemark>
			<name>2</name>
			<LookAt>
				<longitude>73.85474775708239</longitude>
				<latitude>18.53230387211954</latitude>
				<altitude>0</altitude>
				<heading>110.9223697960067</heading>
				<tilt>45.03087428114588</tilt>
				<range>343.5883455343543</range>
				<gx:altitudeMode>relativeToSeaFloor</gx:altitudeMode>
			</LookAt>
			<styleUrl>#m_ylw-pushpin</styleUrl>
			<Point>
				<gx:drawOrder>1</gx:drawOrder>
				<coordinates>73.85507191767501,18.53227516886001,0</coordinates>
			</Point>
		</Placemark>
		<Placemark>
			<name>3</name>
			<LookAt>
				<longitude>73.8564750592116</longitude>
				<latitude>18.53275313013465</latitude>
				<altitude>0</altitude>
				<heading>143.9229104218715</heading>
				<tilt>31.526381529422</tilt>
				<range>95.77437869145912</range>
				<gx:altitudeMode>relativeToSeaFloor</gx:altitudeMode>
			</LookAt>
			<styleUrl>#m_ylw-pushpin</styleUrl>
			<Point>
				<gx:drawOrder>1</gx:drawOrder>
				<coordinates>73.85664177570555,18.53261197492856,0</coordinates>
			</Point>
		</Placemark>
		<Placemark>
			<name>4</name>
			<LookAt>
				<longitude>73.85594414718705</longitude>
				<latitude>18.53164503718217</latitude>
				<altitude>0</altitude>
				<heading>143.9228510322903</heading>
				<tilt>27.97743808648724</tilt>
				<range>170.4120133294505</range>
				<gx:altitudeMode>relativeToSeaFloor</gx:altitudeMode>
			</LookAt>
			<styleUrl>#m_ylw-pushpin</styleUrl>
			<Point>
				<gx:drawOrder>1</gx:drawOrder>
				<coordinates>73.856012557496,18.53160180503676,0</coordinates>
			</Point>
		</Placemark>
		<Placemark>
			<name>5</name>
			<LookAt>
				<longitude>73.85614614311299</longitude>
				<latitude>18.53235687189636</latitude>
				<altitude>0</altitude>
				<heading>-0.002736804864932392</heading>
				<tilt>19.72154938486679</tilt>
				<range>347.4908018051499</range>
				<gx:altitudeMode>relativeToSeaFloor</gx:altitudeMode>
			</LookAt>
			<styleUrl>#m_ylw-pushpin</styleUrl>
			<Point>
				<gx:drawOrder>1</gx:drawOrder>
				<coordinates>73.85664827751073,18.53259819654938,0</coordinates>
			</Point>
		</Placemark>
		<Placemark>
			<name>6</name>
			<LookAt>
				<longitude>73.86039834347093</longitude>
				<latitude>18.52929702800541</latitude>
				<altitude>0</altitude>
				<heading>-0.001389959391752492</heading>
				<tilt>26.86580756130254</tilt>
				<range>237.2950111883251</range>
				<gx:altitudeMode>relativeToSeaFloor</gx:altitudeMode>
			</LookAt>
			<styleUrl>#m_ylw-pushpin</styleUrl>
			<Point>
				<gx:drawOrder>1</gx:drawOrder>
				<coordinates>73.86081601744719,18.53000758632252,0</coordinates>
			</Point>
		</Placemark>
		<Placemark>
			<name>7</name>
			<LookAt>
				<longitude>73.86009208691117</longitude>
				<latitude>18.5262026628227</latitude>
				<altitude>0</altitude>
				<heading>-0.0009381684740905196</heading>
				<tilt>21.52631034467847</tilt>
				<range>342.8683517256453</range>
				<gx:altitudeMode>relativeToSeaFloor</gx:altitudeMode>
			</LookAt>
			<styleUrl>#m_ylw-pushpin</styleUrl>
			<Point>
				<gx:drawOrder>1</gx:drawOrder>
				<coordinates>73.85985597061186,18.52671351044563,0</coordinates>
			</Point>
		</Placemark>
		<Placemark>
			<name>8</name>
			<LookAt>
				<longitude>73.86094825700162</longitude>
				<latitude>18.5288933042338</latitude>
				<altitude>0</altitude>
				<heading>-0.0008746867703746382</heading>
				<tilt>27.23456586277355</tilt>
				<range>341.3391042469714</range>
				<gx:altitudeMode>relativeToSeaFloor</gx:altitudeMode>
			</LookAt>
			<styleUrl>#m_ylw-pushpin</styleUrl>
			<Point>
				<gx:drawOrder>1</gx:drawOrder>
				<coordinates>73.86125981330835,18.5283185599883,0</coordinates>
			</Point>
		</Placemark>
		<Placemark>
			<name>9</name>
			<LookAt>
				<longitude>73.86405066603993</longitude>
				<latitude>18.53517136004825</latitude>
				<altitude>0</altitude>
				<heading>0.0002559111928559963</heading>
				<tilt>30.00125524550808</tilt>
				<range>279.4461537500271</range>
				<gx:altitudeMode>relativeToSeaFloor</gx:altitudeMode>
			</LookAt>
			<styleUrl>#m_ylw-pushpin</styleUrl>
			<Point>
				<gx:drawOrder>1</gx:drawOrder>
				<coordinates>73.86382072776631,18.53526001100222,0</coordinates>
			</Point>
		</Placemark>
		<Placemark>
			<name>10</name>
			<LookAt>
				<longitude>73.86468620860654</longitude>
				<latitude>18.53696785154383</latitude>
				<altitude>0</altitude>
				<heading>0.0004579505542450412</heading>
				<tilt>30.00169375430074</tilt>
				<range>377.0702392759098</range>
				<gx:altitudeMode>relativeToSeaFloor</gx:altitudeMode>
			</LookAt>
			<styleUrl>#m_ylw-pushpin</styleUrl>
			<Point>
				<gx:drawOrder>1</gx:drawOrder>
				<coordinates>73.86485710993371,18.53656266367812,0</coordinates>
			</Point>
		</Placemark>
		<Placemark>
			<name>11</name>
			<LookAt>
				<longitude>73.86554801229222</longitude>
				<latitude>18.53817220330609</latitude>
				<altitude>0</altitude>
				<heading>0.000681071372953938</heading>
				<tilt>29.04547095269148</tilt>
				<range>167.8036372033298</range>
				<gx:altitudeMode>relativeToSeaFloor</gx:altitudeMode>
			</LookAt>
			<styleUrl>#m_ylw-pushpin</styleUrl>
			<Point>
				<gx:drawOrder>1</gx:drawOrder>
				<coordinates>73.8654967177057,18.53840143589662,0</coordinates>
			</Point>
		</Placemark>
		<Placemark>
			<name>13</name>
			<LookAt>
				<longitude>73.86934883122406</longitude>
				<latitude>18.53986284119554</latitude>
				<altitude>0</altitude>
				<heading>0.001940079308985508</heading>
				<tilt>30.0007252971531</tilt>
				<range>161.5173274676872</range>
				<gx:altitudeMode>relativeToSeaFloor</gx:altitudeMode>
			</LookAt>
			<styleUrl>#m_ylw-pushpin</styleUrl>
			<Point>
				<gx:drawOrder>1</gx:drawOrder>
				<coordinates>73.86934883122406,18.53986284119554,0</coordinates>
			</Point>
		</Placemark>
		<Placemark>
			<name>14</name>
			<LookAt>
				<longitude>73.87026195504073</longitude>
				<latitude>18.53942038053375</latitude>
				<altitude>0</altitude>
				<heading>0.002207228098250922</heading>
				<tilt>30.00135076101433</tilt>
				<range>300.793966347539</range>
				<gx:altitudeMode>relativeToSeaFloor</gx:altitudeMode>
			</LookAt>
			<styleUrl>#m_ylw-pushpin</styleUrl>
			<Point>
				<gx:drawOrder>1</gx:drawOrder>
				<coordinates>73.87057155101689,18.53919398603649,0</coordinates>
			</Point>
		</Placemark>
		<Placemark>
			<name>15</name>
			<LookAt>
				<longitude>73.86964064575724</longitude>
				<latitude>18.53843300996403</latitude>
				<altitude>0</altitude>
				<heading>0.001920757938534729</heading>
				<tilt>28.31342249801908</tilt>
				<range>145.5247406890564</range>
				<gx:altitudeMode>relativeToSeaFloor</gx:altitudeMode>
			</LookAt>
			<styleUrl>#m_ylw-pushpin</styleUrl>
			<Point>
				<gx:drawOrder>1</gx:drawOrder>
				<coordinates>73.8697654819876,18.53842056525858,0</coordinates>
			</Point>
		</Placemark>
		<Placemark>
			<name>16</name>
			<LookAt>
				<longitude>73.86733360837684</longitude>
				<latitude>18.53497314511514</latitude>
				<altitude>0</altitude>
				<heading>0.001188876437229238</heading>
				<tilt>28.31044429221377</tilt>
				<range>162.096178468857</range>
				<gx:altitudeMode>relativeToSeaFloor</gx:altitudeMode>
			</LookAt>
			<styleUrl>#m_ylw-pushpin</styleUrl>
			<Point>
				<gx:drawOrder>1</gx:drawOrder>
				<coordinates>73.867571493412,18.53503464652754,0</coordinates>
			</Point>
		</Placemark>
		<Placemark>
			<name>17</name>
			<LookAt>
				<longitude>73.88429168861954</longitude>
				<latitude>18.54309859585979</latitude>
				<altitude>0</altitude>
				<heading>0.003928583106467141</heading>
				<tilt>25.76745988134472</tilt>
				<range>397.1201930357267</range>
				<gx:altitudeMode>relativeToSeaFloor</gx:altitudeMode>
			</LookAt>
			<styleUrl>#m_ylw-pushpin</styleUrl>
			<Point>
				<gx:drawOrder>1</gx:drawOrder>
				<coordinates>73.88408242364726,18.54263869082147,0</coordinates>
			</Point>
		</Placemark>
		<Placemark>
			<name>18</name>
			<LookAt>
				<longitude>73.88429168861954</longitude>
				<latitude>18.54309859585979</latitude>
				<altitude>0</altitude>
				<heading>0.003928583106467141</heading>
				<tilt>25.76745988134472</tilt>
				<range>397.1201930357267</range>
				<gx:altitudeMode>relativeToSeaFloor</gx:altitudeMode>
			</LookAt>
			<styleUrl>#m_ylw-pushpin</styleUrl>
			<Point>
				<gx:drawOrder>1</gx:drawOrder>
				<coordinates>73.88429682120953,18.5439596440486,0</coordinates>
			</Point>
		</Placemark>
		<Placemark>
			<name>19</name>
			<LookAt>
				<longitude>73.88695560395122</longitude>
				<latitude>18.54360776671671</latitude>
				<altitude>0</altitude>
				<heading>0.004775755656099909</heading>
				<tilt>25.76745988134473</tilt>
				<range>397.1201930371005</range>
				<gx:altitudeMode>relativeToSeaFloor</gx:altitudeMode>
			</LookAt>
			<styleUrl>#m_ylw-pushpin</styleUrl>
			<Point>
				<gx:drawOrder>1</gx:drawOrder>
				<coordinates>73.88787840683607,18.54413638495363,0</coordinates>
			</Point>
		</Placemark>
		<Placemark>
			<name>20</name>
			<LookAt>
				<longitude>73.89092300919195</longitude>
				<latitude>18.54360323557037</latitude>
				<altitude>0</altitude>
				<heading>-0.02951369091799792</heading>
				<tilt>10.72746486515647</tilt>
				<range>339.9953973841898</range>
				<gx:altitudeMode>relativeToSeaFloor</gx:altitudeMode>
			</LookAt>
			<styleUrl>#m_ylw-pushpin</styleUrl>
			<Point>
				<gx:drawOrder>1</gx:drawOrder>
				<coordinates>73.89154001671511,18.54428702697651,0</coordinates>
			</Point>
		</Placemark>
		<Placemark>
			<name>21</name>
			<LookAt>
				<longitude>73.89092300919195</longitude>
				<latitude>18.54360323557037</latitude>
				<altitude>0</altitude>
				<heading>-0.02951369091799792</heading>
				<tilt>10.72746486515647</tilt>
				<range>339.9953973841898</range>
				<gx:altitudeMode>relativeToSeaFloor</gx:altitudeMode>
			</LookAt>
			<styleUrl>#m_ylw-pushpin</styleUrl>
			<Point>
				<gx:drawOrder>1</gx:drawOrder>
				<coordinates>73.89090888677022,18.54353007834789,0</coordinates>
			</Point>
		</Placemark>
		<Placemark>
			<name>22</name>
			<LookAt>
				<longitude>73.89577319297312</longitude>
				<latitude>18.54265904081464</latitude>
				<altitude>0</altitude>
				<heading>-0.02797125949598079</heading>
				<tilt>10.72775677122249</tilt>
				<range>514.5810780518344</range>
				<gx:altitudeMode>relativeToSeaFloor</gx:altitudeMode>
			</LookAt>
			<styleUrl>#m_ylw-pushpin</styleUrl>
			<Point>
				<gx:drawOrder>1</gx:drawOrder>
				<coordinates>73.89510040977069,18.54247373749773,0</coordinates>
			</Point>
		</Placemark>
		<Placemark>
			<name>23</name>
			<LookAt>
				<longitude>73.89746463491956</longitude>
				<latitude>18.54173499682382</latitude>
				<altitude>0</altitude>
				<heading>-0.02355519119310599</heading>
				<tilt>13.17013996622984</tilt>
				<range>411.5224472183003</range>
				<gx:altitudeMode>relativeToSeaFloor</gx:altitudeMode>
			</LookAt>
			<styleUrl>#m_ylw-pushpin</styleUrl>
			<Point>
				<gx:drawOrder>1</gx:drawOrder>
				<coordinates>73.8982426391787,18.54144671470037,0</coordinates>
			</Point>
		</Placemark>
		<Placemark>
			<name>24</name>
			<LookAt>
				<longitude>73.89895552374227</longitude>
				<latitude>18.5415272882019</latitude>
				<altitude>0</altitude>
				<heading>-0.02308109418486337</heading>
				<tilt>13.17013996622987</tilt>
				<range>411.5224472203813</range>
				<gx:altitudeMode>relativeToSeaFloor</gx:altitudeMode>
			</LookAt>
			<styleUrl>#m_ylw-pushpin</styleUrl>
			<Point>
				<gx:drawOrder>1</gx:drawOrder>
				<coordinates>73.89935284777351,18.54201138333174,0</coordinates>
			</Point>
		</Placemark>
		<Placemark>
			<name>25</name>
			<LookAt>
				<longitude>73.89763877168929</longitude>
				<latitude>18.54165010463379</latitude>
				<altitude>0</altitude>
				<heading>-0.02349998730948057</heading>
				<tilt>13.17048338675939</tilt>
				<range>579.2866423654732</range>
				<gx:altitudeMode>relativeToSeaFloor</gx:altitudeMode>
			</LookAt>
			<styleUrl>#m_ylw-pushpin</styleUrl>
			<Point>
				<gx:drawOrder>1</gx:drawOrder>
				<coordinates>73.89718141726118,18.54267243845773,0</coordinates>
			</Point>
		</Placemark>
		<Placemark>
			<name>26</name>
			<LookAt>
				<longitude>73.90316776367457</longitude>
				<latitude>18.5407646104028</latitude>
				<altitude>0</altitude>
				<heading>-0.01447590318720725</heading>
				<tilt>22.41528466877848</tilt>
				<range>334.2554520265974</range>
				<gx:altitudeMode>relativeToSeaFloor</gx:altitudeMode>
			</LookAt>
			<styleUrl>#m_ylw-pushpin</styleUrl>
			<Point>
				<gx:drawOrder>1</gx:drawOrder>
				<coordinates>73.90315117357248,18.54080779036456,0</coordinates>
			</Point>
		</Placemark>
		<Placemark>
			<name>27</name>
			<LookAt>
				<longitude>73.90459891027216</longitude>
				<latitude>18.54144716013568</latitude>
				<altitude>0</altitude>
				<heading>1.928834098375155e-05</heading>
				<tilt>0</tilt>
				<range>139.3109347207053</range>
				<gx:altitudeMode>relativeToSeaFloor</gx:altitudeMode>
			</LookAt>
			<styleUrl>#m_ylw-pushpin</styleUrl>
			<Point>
				<gx:drawOrder>1</gx:drawOrder>
				<coordinates>73.90460155455825,18.54145367841046,0</coordinates>
			</Point>
		</Placemark>
		<Placemark>
			<name>28</name>
			<LookAt>
				<longitude>73.91130124128563</longitude>
				<latitude>18.53986133870502</latitude>
				<altitude>0</altitude>
				<heading>0.002150518227815224</heading>
				<tilt>0</tilt>
				<range>399.1013609188396</range>
				<gx:altitudeMode>relativeToSeaFloor</gx:altitudeMode>
			</LookAt>
			<styleUrl>#m_ylw-pushpin</styleUrl>
			<Point>
				<gx:drawOrder>1</gx:drawOrder>
				<coordinates>73.91106035255979,18.54004664787655,0</coordinates>
			</Point>
		</Placemark>
		<Placemark>
			<name>29</name>
			<LookAt>
				<longitude>73.91791190038818</longitude>
				<latitude>18.53907134608553</latitude>
				<altitude>0</altitude>
				<heading>0.004238205636361757</heading>
				<tilt>18.46503192518822</tilt>
				<range>323.1056617441919</range>
				<gx:altitudeMode>relativeToSeaFloor</gx:altitudeMode>
			</LookAt>
			<styleUrl>#m_ylw-pushpin</styleUrl>
			<Point>
				<gx:drawOrder>1</gx:drawOrder>
				<coordinates>73.91772746062158,18.53879663494764,0</coordinates>
			</Point>
		</Placemark>
		<Placemark>
			<name>30</name>
			<LookAt>
				<longitude>73.933935649557</longitude>
				<latitude>18.53513460935655</latitude>
				<altitude>0</altitude>
				<heading>0.009332601637337934</heading>
				<tilt>18.46562939114362</tilt>
				<range>533.0990773399147</range>
				<gx:altitudeMode>relativeToSeaFloor</gx:altitudeMode>
			</LookAt>
			<styleUrl>#m_ylw-pushpin</styleUrl>
			<Point>
				<gx:drawOrder>1</gx:drawOrder>
				<coordinates>73.93520049625258,18.53485057759077,0</coordinates>
			</Point>
		</Placemark>
		<Placemark>
			<name>32</name>
			<LookAt>
				<longitude>73.93822789511687</longitude>
				<latitude>18.53576572955497</latitude>
				<altitude>0</altitude>
				<heading>0.01085349136328729</heading>
				<tilt>27.03507938099012</tilt>
				<range>434.8504615066555</range>
				<gx:altitudeMode>relativeToSeaFloor</gx:altitudeMode>
			</LookAt>
			<styleUrl>#m_ylw-pushpin</styleUrl>
			<Point>
				<gx:drawOrder>1</gx:drawOrder>
				<coordinates>73.93799726903205,18.53678597605685,0</coordinates>
			</Point>
		</Placemark>
		<Placemark>
			<name>33</name>
			<LookAt>
				<longitude>73.93822789511687</longitude>
				<latitude>18.53576572955497</latitude>
				<altitude>0</altitude>
				<heading>0.01085349136328729</heading>
				<tilt>27.03507938099012</tilt>
				<range>434.8504615066555</range>
				<gx:altitudeMode>relativeToSeaFloor</gx:altitudeMode>
			</LookAt>
			<styleUrl>#m_ylw-pushpin</styleUrl>
			<Point>
				<gx:drawOrder>1</gx:drawOrder>
				<coordinates>73.93890129837671,18.53704321230335,0</coordinates>
			</Point>
		</Placemark>
		<Placemark>
			<name>34</name>
			<LookAt>
				<longitude>73.93737171492447</longitude>
				<latitude>18.53491483507375</latitude>
				<altitude>0</altitude>
				<heading>0.01058133336366917</heading>
				<tilt>27.03507938099014</tilt>
				<range>434.8504615054055</range>
				<gx:altitudeMode>relativeToSeaFloor</gx:altitudeMode>
			</LookAt>
			<styleUrl>#m_ylw-pushpin</styleUrl>
			<Point>
				<gx:drawOrder>1</gx:drawOrder>
				<coordinates>73.93725463090952,18.53466741185657,0</coordinates>
			</Point>
		</Placemark>
		<Placemark>
			<name>35</name>
			<Camera>
				<longitude>73.9372185237915</longitude>
				<latitude>18.53381853337681</latitude>
				<altitude>491.6314774189087</altitude>
				<heading>8.391377316825368</heading>
				<tilt>13.04308172958014</tilt>
				<roll>5.526938956455065</roll>
				<gx:altitudeMode>relativeToSeaFloor</gx:altitudeMode>
			</Camera>
			<styleUrl>#m_ylw-pushpin</styleUrl>
			<Point>
				<gx:drawOrder>1</gx:drawOrder>
				<coordinates>73.9370384187971,18.53466676016553,0</coordinates>
			</Point>
		</Placemark>
		<Placemark>
			<name>36</name>
			<Camera>
				<longitude>73.9372185237915</longitude>
				<latitude>18.53381853337681</latitude>
				<altitude>491.6314774189087</altitude>
				<heading>8.391377316825368</heading>
				<tilt>13.04308172958014</tilt>
				<roll>5.526938956455065</roll>
				<gx:altitudeMode>relativeToSeaFloor</gx:altitudeMode>
			</Camera>
			<styleUrl>#m_ylw-pushpin</styleUrl>
			<Point>
				<gx:drawOrder>1</gx:drawOrder>
				<coordinates>73.93763099303141,18.53482107353453,0</coordinates>
			</Point>
		</Placemark>
		<Placemark>
			<name>37</name>
			<Camera>
				<longitude>73.93849046738313</longitude>
				<latitude>18.53428259658189</latitude>
				<altitude>252.6355647150019</altitude>
				<heading>6.393410280552918</heading>
				<tilt>20.20476780967254</tilt>
				<roll>3.6082641194621</roll>
				<gx:altitudeMode>relativeToSeaFloor</gx:altitudeMode>
			</Camera>
			<styleUrl>#m_ylw-pushpin</styleUrl>
			<Point>
				<gx:drawOrder>1</gx:drawOrder>
				<coordinates>73.93861138769768,18.53510030616057,0</coordinates>
			</Point>
		</Placemark>
		<Placemark>
			<name>38</name>
			<Camera>
				<longitude>73.93929382037648</longitude>
				<latitude>18.53443140827924</latitude>
				<altitude>252.6355647164181</altitude>
				<heading>6.393665660163207</heading>
				<tilt>20.20476780967261</tilt>
				<roll>3.608264119462161</roll>
				<gx:altitudeMode>relativeToSeaFloor</gx:altitudeMode>
			</Camera>
			<styleUrl>#m_ylw-pushpin</styleUrl>
			<Point>
				<gx:drawOrder>1</gx:drawOrder>
				<coordinates>73.93896768021767,18.53528861533809,0</coordinates>
			</Point>
		</Placemark>
		<Placemark>
			<name>39</name>
			<Camera>
				<longitude>73.93929393947273</longitude>
				<latitude>18.53439345247902</latitude>
				<altitude>252.6355647164181</altitude>
				<heading>6.393665697954779</heading>
				<tilt>20.20476780967257</tilt>
				<roll>3.608264119462164</roll>
				<gx:altitudeMode>relativeToSeaFloor</gx:altitudeMode>
			</Camera>
			<styleUrl>#m_ylw-pushpin</styleUrl>
			<Point>
				<gx:drawOrder>1</gx:drawOrder>
				<coordinates>73.9395694602478,18.53565455431037,0</coordinates>
			</Point>
		</Placemark>
		<Placemark>
			<name>40</name>
			<Camera>
				<longitude>73.94075334793351</longitude>
				<latitude>18.53468734250074</latitude>
				<altitude>252.6355647192506</altitude>
				<heading>6.394129623273925</heading>
				<tilt>20.20476780967254</tilt>
				<roll>3.608264119462186</roll>
				<gx:altitudeMode>relativeToSeaFloor</gx:altitudeMode>
			</Camera>
			<styleUrl>#m_ylw-pushpin</styleUrl>
			<Point>
				<gx:drawOrder>1</gx:drawOrder>
				<coordinates>73.94055377429724,18.53574990252727,0</coordinates>
			</Point>
		</Placemark>
		<Placemark>
			<name>40</name>
			<Camera>
				<longitude>73.94059191358613</longitude>
				<latitude>18.53526766876491</latitude>
				<altitude>252.6355647164181</altitude>
				<heading>6.394078300683278</heading>
				<tilt>20.20476780967259</tilt>
				<roll>3.60826411946214</roll>
				<gx:altitudeMode>relativeToSeaFloor</gx:altitudeMode>
			</Camera>
			<styleUrl>#m_ylw-pushpin</styleUrl>
			<Point>
				<gx:drawOrder>1</gx:drawOrder>
				<coordinates>73.94074309718251,18.53611098830038,0</coordinates>
			</Point>
		</Placemark>
		<Placemark>
			<name>42</name>
			<Camera>
				<longitude>73.94159113218531</longitude>
				<latitude>18.53700588587126</latitude>
				<altitude>140.163903073989</altitude>
				<heading>-63.84635766565719</heading>
				<tilt>25.04400803239239</tilt>
				<roll>-27.89773988257951</roll>
				<gx:altitudeMode>relativeToSeaFloor</gx:altitudeMode>
			</Camera>
			<styleUrl>#m_ylw-pushpin</styleUrl>
			<Point>
				<gx:drawOrder>1</gx:drawOrder>
				<coordinates>73.94122089588073,18.53726131838593,0</coordinates>
			</Point>
		</Placemark>
		<Placemark>
			<name>43</name>
			<Camera>
				<longitude>73.94157013038954</longitude>
				<latitude>18.53863584090155</latitude>
				<altitude>213.8019034482488</altitude>
				<heading>-63.84636442974364</heading>
				<tilt>25.04400773932418</tilt>
				<roll>-27.89777114731751</roll>
				<gx:altitudeMode>relativeToSeaFloor</gx:altitudeMode>
			</Camera>
			<styleUrl>#m_ylw-pushpin</styleUrl>
			<Point>
				<gx:drawOrder>1</gx:drawOrder>
				<coordinates>73.94025525289331,18.53897618300417,0</coordinates>
			</Point>
		</Placemark>
		<Placemark>
			<name>44</name>
			<Camera>
				<longitude>73.94364855669967</longitude>
				<latitude>18.537368671202</latitude>
				<altitude>310.1748010959126</altitude>
				<heading>-63.84570364477359</heading>
				<tilt>25.0440077216846</tilt>
				<roll>-27.89791716380854</roll>
				<gx:altitudeMode>relativeToSeaFloor</gx:altitudeMode>
			</Camera>
			<styleUrl>#m_ylw-pushpin</styleUrl>
			<Point>
				<gx:drawOrder>1</gx:drawOrder>
				<coordinates>73.94184142268693,18.53788838230759,0</coordinates>
			</Point>
		</Placemark>
		<Placemark>
			<name>45</name>
			<Camera>
				<longitude>73.94363377200207</longitude>
				<latitude>18.53843384830035</latitude>
				<altitude>307.7629550018268</altitude>
				<heading>-61.27580011434507</heading>
				<tilt>27.29360215668861</tilt>
				<roll>-25.59146299987033</roll>
				<gx:altitudeMode>relativeToSeaFloor</gx:altitudeMode>
			</Camera>
			<styleUrl>#m_ylw-pushpin</styleUrl>
			<Point>
				<gx:drawOrder>1</gx:drawOrder>
				<coordinates>73.94248404607681,18.53860690924439,0</coordinates>
			</Point>
		</Placemark>
		<Placemark>
			<name>46</name>
			<Camera>
				<longitude>73.94367522186603</longitude>
				<latitude>18.5388315075202</latitude>
				<altitude>300.3977007542373</altitude>
				<heading>-61.95997052401925</heading>
				<tilt>26.65438016453608</tilt>
				<roll>-26.20174519482957</roll>
				<gx:altitudeMode>relativeToSeaFloor</gx:altitudeMode>
			</Camera>
			<styleUrl>#m_ylw-pushpin</styleUrl>
			<Point>
				<gx:drawOrder>1</gx:drawOrder>
				<coordinates>73.94256746920317,18.53968722319499,0</coordinates>
			</Point>
		</Placemark>
		<Placemark>
			<name>47</name>
			<LookAt>
				<longitude>73.94256347931866</longitude>
				<latitude>18.54367569508095</latitude>
				<altitude>0</altitude>
				<heading>0.0001059618165379182</heading>
				<tilt>12.13915720262975</tilt>
				<range>326.4463390053218</range>
				<gx:altitudeMode>relativeToSeaFloor</gx:altitudeMode>
			</LookAt>
			<styleUrl>#m_ylw-pushpin</styleUrl>
			<Point>
				<gx:drawOrder>1</gx:drawOrder>
				<coordinates>73.94260357656196,18.54340349497754,0</coordinates>
			</Point>
		</Placemark>
		<Placemark>
			<name>48</name>
			<LookAt>
				<longitude>73.94256347931866</longitude>
				<latitude>18.54367569508095</latitude>
				<altitude>0</altitude>
				<heading>0.0001059618165379182</heading>
				<tilt>12.13915720262975</tilt>
				<range>326.4463390053218</range>
				<gx:altitudeMode>relativeToSeaFloor</gx:altitudeMode>
			</LookAt>
			<styleUrl>#m_ylw-pushpin</styleUrl>
			<Point>
				<gx:drawOrder>1</gx:drawOrder>
				<coordinates>73.9429298262902,18.54389666939195,0</coordinates>
			</Point>
		</Placemark>
		<Placemark>
			<name>49</name>
			<LookAt>
				<longitude>73.94341277277471</longitude>
				<latitude>18.54480343001025</latitude>
				<altitude>0</altitude>
				<heading>0.0003760656402876268</heading>
				<tilt>12.13915720262975</tilt>
				<range>326.4463390046766</range>
				<gx:altitudeMode>relativeToSeaFloor</gx:altitudeMode>
			</LookAt>
			<styleUrl>#m_ylw-pushpin</styleUrl>
			<Point>
				<gx:drawOrder>1</gx:drawOrder>
				<coordinates>73.94355589609262,18.54486256759629,0</coordinates>
			</Point>
		</Placemark>
		<Placemark>
			<name>50</name>
			<LookAt>
				<longitude>73.94466685642952</longitude>
				<latitude>18.54397940855533</latitude>
				<altitude>0</altitude>
				<heading>-22.16796919349565</heading>
				<tilt>13.8825274981862</tilt>
				<range>467.3731656600448</range>
				<gx:altitudeMode>relativeToSeaFloor</gx:altitudeMode>
			</LookAt>
			<styleUrl>#m_ylw-pushpin</styleUrl>
			<Point>
				<gx:drawOrder>1</gx:drawOrder>
				<coordinates>73.94404551730692,18.54384286750262,0</coordinates>
			</Point>
		</Placemark>
		<Placemark>
			<name>51</name>
			<LookAt>
				<longitude>73.94597433349348</longitude>
				<latitude>18.54570969534096</latitude>
				<altitude>0</altitude>
				<heading>-37.56808349500736</heading>
				<tilt>21.31320604061792</tilt>
				<range>314.5740861820516</range>
				<gx:altitudeMode>relativeToSeaFloor</gx:altitudeMode>
			</LookAt>
			<styleUrl>#m_ylw-pushpin</styleUrl>
			<Point>
				<gx:drawOrder>1</gx:drawOrder>
				<coordinates>73.94624468620384,18.54608960490961,0</coordinates>
			</Point>
		</Placemark>
		<Placemark>
			<name>52</name>
			<LookAt>
				<longitude>73.94786353622018</longitude>
				<latitude>18.54530391624781</latitude>
				<altitude>0</altitude>
				<heading>-37.56748249828279</heading>
				<tilt>21.3137584301804</tilt>
				<range>483.7800608253575</range>
				<gx:altitudeMode>relativeToSeaFloor</gx:altitudeMode>
			</LookAt>
			<styleUrl>#m_ylw-pushpin</styleUrl>
			<Point>
				<gx:drawOrder>1</gx:drawOrder>
				<coordinates>73.94731404376328,18.54610759986038,0</coordinates>
			</Point>
		</Placemark>
		<Placemark>
			<name>53</name>
			<Camera>
				<longitude>73.95141136316684</longitude>
				<latitude>18.54642974115728</latitude>
				<altitude>314.3526962096294</altitude>
				<heading>33.19349597258417</heading>
				<tilt>0.03744113841974108</tilt>
				<roll>33.14655002215292</roll>
				<gx:altitudeMode>relativeToSeaFloor</gx:altitudeMode>
			</Camera>
			<styleUrl>#m_ylw-pushpin</styleUrl>
			<Point>
				<gx:drawOrder>1</gx:drawOrder>
				<coordinates>73.95097674316069,18.54627663218821,0</coordinates>
			</Point>
		</Placemark>
		<Placemark>
			<name>54</name>
			<Camera>
				<longitude>73.95179105018902</longitude>
				<latitude>18.54465154486798</latitude>
				<altitude>718.467665530978</altitude>
				<heading>33.19411717936048</heading>
				<tilt>0.03744004682422138</tilt>
				<roll>33.14705048935652</roll>
				<gx:altitudeMode>relativeToSeaFloor</gx:altitudeMode>
			</Camera>
			<styleUrl>#m_ylw-pushpin</styleUrl>
			<Point>
				<gx:drawOrder>1</gx:drawOrder>
				<coordinates>73.95191090813158,18.54481272561989,0</coordinates>
			</Point>
		</Placemark>
		<Placemark>
			<name>55</name>
			<Camera>
				<longitude>73.95573523345605</longitude>
				<latitude>18.54757647019822</latitude>
				<altitude>393.0829505729592</altitude>
				<heading>86.97779815801808</heading>
				<tilt>0.02062381356766088</tilt>
				<roll>87.80589616107984</roll>
				<gx:altitudeMode>relativeToSeaFloor</gx:altitudeMode>
			</Camera>
			<styleUrl>#m_ylw-pushpin</styleUrl>
			<Point>
				<gx:drawOrder>1</gx:drawOrder>
				<coordinates>73.95505200212101,18.54735351538755,0</coordinates>
			</Point>
		</Placemark>
		<Placemark>
			<name>55</name>
			<Camera>
				<longitude>73.95573523345605</longitude>
				<latitude>18.54757647019822</latitude>
				<altitude>393.0829505729592</altitude>
				<heading>86.97779815801808</heading>
				<tilt>0.02062381356766088</tilt>
				<roll>87.80589616107984</roll>
				<gx:altitudeMode>relativeToSeaFloor</gx:altitudeMode>
			</Camera>
			<styleUrl>#m_ylw-pushpin</styleUrl>
			<Point>
				<gx:drawOrder>1</gx:drawOrder>
				<coordinates>73.95615027612654,18.54755815115537,0</coordinates>
			</Point>
		</Placemark>
		<Placemark>
			<name>56</name>
			<LookAt>
				<longitude>73.9602174699846</longitude>
				<latitude>18.54604129873718</latitude>
				<altitude>0</altitude>
				<heading>36.65182118865994</heading>
				<tilt>14.67046848332055</tilt>
				<range>507.9528772881653</range>
				<gx:altitudeMode>relativeToSeaFloor</gx:altitudeMode>
			</LookAt>
			<styleUrl>#m_ylw-pushpin</styleUrl>
			<Point>
				<gx:drawOrder>1</gx:drawOrder>
				<coordinates>73.96122014884629,18.54623433185091,0</coordinates>
			</Point>
		</Placemark>
		<Placemark>
			<name>57</name>
			<LookAt>
				<longitude>73.97232245137482</longitude>
				<latitude>18.5422058819255</latitude>
				<altitude>0</altitude>
				<heading>36.65567089040199</heading>
				<tilt>14.67046848332063</tilt>
				<range>507.9528772885755</range>
				<gx:altitudeMode>relativeToSeaFloor</gx:altitudeMode>
			</LookAt>
			<styleUrl>#m_ylw-pushpin</styleUrl>
			<Point>
				<gx:drawOrder>1</gx:drawOrder>
				<coordinates>73.97200571315913,18.5428481392085,0</coordinates>
			</Point>
		</Placemark>
		<Placemark>
			<name>58</name>
			<LookAt>
				<longitude>73.97396516518697</longitude>
				<latitude>18.54016834780455</latitude>
				<altitude>0</altitude>
				<heading>36.65619324437358</heading>
				<tilt>14.67046848332058</tilt>
				<range>507.952877289245</range>
				<gx:altitudeMode>relativeToSeaFloor</gx:altitudeMode>
			</LookAt>
			<styleUrl>#m_ylw-pushpin</styleUrl>
			<Point>
				<gx:drawOrder>1</gx:drawOrder>
				<coordinates>73.97372652166764,18.53939605462268,0</coordinates>
			</Point>
		</Placemark>
		<Placemark>
			<name>59</name>
			<LookAt>
				<longitude>73.9756411915867</longitude>
				<latitude>18.53380121729616</latitude>
				<altitude>0</altitude>
				<heading>36.62643765108669</heading>
				<tilt>22.42753061602128</tilt>
				<range>307.2926678817446</range>
				<gx:altitudeMode>relativeToSeaFloor</gx:altitudeMode>
			</LookAt>
			<styleUrl>#m_ylw-pushpin</styleUrl>
			<Point>
				<gx:drawOrder>1</gx:drawOrder>
				<coordinates>73.97581206014353,18.53400994626816,0</coordinates>
			</Point>
		</Placemark>
		<Placemark>
			<name>60</name>
			<LookAt>
				<longitude>73.97801667401971</longitude>
				<latitude>18.53209973648819</latitude>
				<altitude>0</altitude>
				<heading>36.62719284462433</heading>
				<tilt>22.42803683131392</tilt>
				<range>454.9866319369054</range>
				<gx:altitudeMode>relativeToSeaFloor</gx:altitudeMode>
			</LookAt>
			<styleUrl>#m_ylw-pushpin</styleUrl>
			<Point>
				<gx:drawOrder>1</gx:drawOrder>
				<coordinates>73.97862972528135,18.53177755822604,0</coordinates>
			</Point>
		</Placemark>
		<Placemark>
			<name>61</name>
			<LookAt>
				<longitude>73.98011152744498</longitude>
				<latitude>18.53054281891706</latitude>
				<altitude>0</altitude>
				<heading>36.62785863802895</heading>
				<tilt>22.42803683131389</tilt>
				<range>454.986631934641</range>
				<gx:altitudeMode>relativeToSeaFloor</gx:altitudeMode>
			</LookAt>
			<styleUrl>#m_ylw-pushpin</styleUrl>
			<Point>
				<gx:drawOrder>1</gx:drawOrder>
				<coordinates>73.97997822755705,18.53089055971633,0</coordinates>
			</Point>
		</Placemark>
		<Placemark>
			<name>62</name>
			<LookAt>
				<longitude>73.98388365382766</longitude>
				<latitude>18.52707710988687</latitude>
				<altitude>0</altitude>
				<heading>36.62905732930979</heading>
				<tilt>22.42803683131394</tilt>
				<range>454.9866319349463</range>
				<gx:altitudeMode>relativeToSeaFloor</gx:altitudeMode>
			</LookAt>
			<styleUrl>#m_ylw-pushpin</styleUrl>
			<Point>
				<gx:drawOrder>1</gx:drawOrder>
				<coordinates>73.98370047976468,18.52700819677245,0</coordinates>
			</Point>
		</Placemark>
		<Placemark>
			<name>63</name>
			<LookAt>
				<longitude>73.9853559803792</longitude>
				<latitude>18.52639961687604</latitude>
				<altitude>0</altitude>
				<heading>36.62952515439626</heading>
				<tilt>22.42803683131389</tilt>
				<range>454.9866319345392</range>
				<gx:altitudeMode>relativeToSeaFloor</gx:altitudeMode>
			</LookAt>
			<styleUrl>#m_ylw-pushpin</styleUrl>
			<Point>
				<gx:drawOrder>1</gx:drawOrder>
				<coordinates>73.98508361799387,18.52631258681527,0</coordinates>
			</Point>
		</Placemark>
		<Placemark>
			<name>64</name>
			<LookAt>
				<longitude>73.98780864326089</longitude>
				<latitude>18.52440072662959</latitude>
				<altitude>0</altitude>
				<heading>-0.0006885096254124689</heading>
				<tilt>9.291534377734591</tilt>
				<range>460.6586343175634</range>
				<gx:altitudeMode>relativeToSeaFloor</gx:altitudeMode>
			</LookAt>
			<styleUrl>#m_ylw-pushpin</styleUrl>
			<Point>
				<gx:drawOrder>1</gx:drawOrder>
				<coordinates>73.98848772423989,18.52396961923471,0</coordinates>
			</Point>
		</Placemark>
		<Placemark>
			<name>64</name>
			<LookAt>
				<longitude>73.98875223435903</longitude>
				<latitude>18.52495924321828</latitude>
				<altitude>0</altitude>
				<heading>-0.0003887169336844074</heading>
				<tilt>9.291534377734553</tilt>
				<range>460.658634317011</range>
				<gx:altitudeMode>relativeToSeaFloor</gx:altitudeMode>
			</LookAt>
			<styleUrl>#m_ylw-pushpin</styleUrl>
			<Point>
				<gx:drawOrder>1</gx:drawOrder>
				<coordinates>73.9900310981529,18.52511305089191,0</coordinates>
			</Point>
		</Placemark>
		<Placemark>
			<name>65</name>
			<LookAt>
				<longitude>73.98830906419307</longitude>
				<latitude>18.5248249406311</latitude>
				<altitude>0</altitude>
				<heading>-0.0005295215400159857</heading>
				<tilt>9.291534377734632</tilt>
				<range>460.6586343185326</range>
				<gx:altitudeMode>relativeToSeaFloor</gx:altitudeMode>
			</LookAt>
			<styleUrl>#m_ylw-pushpin</styleUrl>
			<Point>
				<gx:drawOrder>1</gx:drawOrder>
				<coordinates>73.98991786631272,18.52542501639821,0</coordinates>
			</Point>
		</Placemark>
		<Placemark>
			<name>66</name>
			<LookAt>
				<longitude>73.9885766869896</longitude>
				<latitude>18.52548402190896</latitude>
				<altitude>0</altitude>
				<heading>-0.0004444977800483565</heading>
				<tilt>9.291534377734553</tilt>
				<range>460.6586343155698</range>
				<gx:altitudeMode>relativeToSeaFloor</gx:altitudeMode>
			</LookAt>
			<styleUrl>#m_ylw-pushpin</styleUrl>
			<Point>
				<gx:drawOrder>1</gx:drawOrder>
				<coordinates>73.98911763345563,18.52585039768822,0</coordinates>
			</Point>
		</Placemark>
		<Placemark>
			<name>67</name>
			<LookAt>
				<longitude>73.99006488143212</longitude>
				<latitude>18.52451575925387</latitude>
				<altitude>0</altitude>
				<heading>2.402890129832557e-05</heading>
				<tilt>11.81763286917566</tilt>
				<range>376.0486587308082</range>
				<gx:altitudeMode>relativeToSeaFloor</gx:altitudeMode>
			</LookAt>
			<styleUrl>#m_ylw-pushpin</styleUrl>
			<Point>
				<gx:drawOrder>1</gx:drawOrder>
				<coordinates>73.99043850058565,18.52469043693955,0</coordinates>
			</Point>
		</Placemark>
		<atom:link rel="app" href="https://www.google.com/earth/about/versions/#earth-pro" title="Google Earth Pro 7.3.7.1155"></atom:link>
	</Folder>
</Document>
</kml>
