{"type":"FeatureCollection","name":"Mula-Mutha chainage","source_name":"Mula Mutha River – Chainage Analysis","interval_m":100,"station_count":165,"first":"0+000","last":"16+400","features":[{"type":"Feature","properties":{"kind":"centerline","name":"River Centerline"},"geometry":{"type":"LineString","coordinates":[[73.85617563,18.53227447],[73.85618524,18.532269],[73.85620439,18.53225813],[73.85623292,18.53224199],[73.85627061,18.53222078],[73.85631717,18.53219477],[73.85637225,18.53216427],[73.85643546,18.53212965],[73.85650636,18.53209132],[73.85658449,18.53204973],[73.85666935,18.53200536],[73.85676047,18.5319587],[73.85685732,18.53191027],[73.85695943,18.5318606],[73.85706631,18.53181022],[73.85717749,18.53175967],[73.85729254,18.53170947],[73.85741103,18.53166014],[73.85753257,18.53161219],[73.85765679,18.53156612],[73.85778336,18.53152242],[73.85791194,18.53148155],[73.85804226,18.53144396],[73.85817402,18.53141007],[73.85830698,18.53138029],[73.85844089,18.531355],[73.85857554,18.53133454],[73.8587107,18.53131922],[73.85884619,18.53130934],[73.85898181,18.53130514],[73.85911739,18.53130681],[73.85925278,18.53131451],[73.85938781,18.53132836],[73.85952235,18.53134842],[73.85965627,18.5313747],[73.85978948,18.53140716],[73.85992186,18.53144572],[73.86005334,18.53149024],[73.86018387,18.53154057],[73.86031339,18.53159648],[73.86044189,18.53165774],[73.86056936,18.53172407],[73.86069581,18.53179518],[73.86082128,18.53187076],[73.86094584,18.53195047],[73.86106955,18.53203401],[73.86119251,18.53212102],[73.86131483,18.53221118],[73.86143664,18.53230417],[73.86155806,18.53239965],[73.86167923,18.53249731],[73.86180029,18.53259684],[73.86192138,18.53269794],[73.8620426,18.53280031],[73.86216408,18.53290366],[73.86228588,18.53300771],[73.86240808,18.53311218],[73.86253069,18.5332168],[73.86265371,18.53332132],[73.86277707,18.53342548],[73.8629007,18.53352906],[73.86302446,18.53363184],[73.86314818,18.53373361],[73.86327168,18.5338342],[73.86339471,18.53393346],[73.86351702,18.53403126],[73.86363837,18.53412752],[73.86375847,18.53422216],[73.86387706,18.53431516],[73.86399389,18.53440651],[73.86410873,18.53449626],[73.8642214,18.53458445],[73.86433172,18.53467119],[73.86443958,18.53475658],[73.86454491,18.53484075],[73.86464769,18.53492384],[73.86474794,18.53500601],[73.86484574,18.53508741],[73.86494121,18.53516822],[73.86503449,18.53524856],[73.86512577,18.53532861],[73.86521528,18.5354085],[73.86530323,18.53548835],[73.86538988,18.53556827],[73.86547546,18.53564836],[73.86556024,18.5357287],[73.86564444,18.53580935],[73.86572831,18.53589035],[73.86581204,18.53597174],[73.86589584,18.53605352],[73.86597988,18.53613571],[73.86606432,18.53621828],[73.86614929,18.53630122],[73.86623491,18.53638449],[73.86632128,18.53646806],[73.86640848,18.53655187],[73.86649659,18.53663588],[73.86658566,18.53672002],[73.86667575,18.53680422],[73.8667669,18.53688844],[73.86685915,18.53697259],[73.86695253,18.53705662],[73.86704709,18.53714047],[73.86714285,18.53722407],[73.86723984,18.53730736],[73.86733811,18.53739029],[73.86743767,18.53747282],[73.86753856,18.53755489],[73.86764079,18.53763647],[73.86774439,18.53771752],[73.86784937,18.53779802],[73.86795575,18.53787795],[73.86806351,18.53795727],[73.86817267,18.53803599],[73.86828319,18.53811408],[73.86839507,18.53819155],[73.86850827,18.53826838],[73.86862277,18.53834458],[73.86873851,18.53842014],[73.86885546,18.53849506],[73.86897355,18.53856935],[73.86909273,18.53864299],[73.86921294,18.538716],[73.86933412,18.53878835],[73.8694562,18.53886005],[73.86957911,18.53893108],[73.86970279,18.53900142],[73.86982717,18.53907108],[73.86995217,18.53914001],[73.87007774,18.53920821],[73.87020381,18.53927566],[73.87033031,18.53934232],[73.87045717,18.53940819],[73.87058434,18.53947323],[73.87071176,18.53953744],[73.87083937,18.5396008],[73.87096713,18.5396633],[73.87109497,18.53972493],[73.87122287,18.53978571],[73.87135079,18.53984564],[73.87147869,18.53990473],[73.87160655,18.539963],[73.87173436,18.54002047],[73.8718621,18.54007718],[73.87198977,18.54013316],[73.87211736,18.54018844],[73.87224488,18.54024306],[73.87237234,18.54029705],[73.87249975,18.54035045],[73.87262712,18.5404033],[73.87275447,18.54045562],[73.87288182,18.54050745],[73.87300917,18.5405588],[73.87313655,18.54060971],[73.87326398,18.54066019],[73.87339145,18.54071025],[73.87351898,18.5407599],[73.87364658,18.54080916],[73.87377424,18.54085802],[73.87390199,18.5409065],[73.8740298,18.54095458],[73.8741577,18.54100227],[73.87428566,18.54104956],[73.8744137,18.54109644],[73.87454181,18.54114292],[73.87466999,18.54118897],[73.87479825,18.5412346],[73.87492658,18.54127978],[73.87505499,18.54132452],[73.87518349,18.5413688],[73.87531209,18.5414126],[73.8754408,18.54145592],[73.87556962,18.54149874],[73.87569858,18.54154105],[73.87582768,18.54158284],[73.87595694,18.54162411],[73.87608638,18.54166483],[73.87621601,18.541705],[73.87634585,18.54174462],[73.8764759,18.54178367],[73.87660619,18.54182215],[73.87673671,18.54186005],[73.87686748,18.54189737],[73.87699851,18.54193412],[73.87712979,18.54197027],[73.87726132,18.54200583],[73.87739311,18.5420408],[73.87752515,18.54207518],[73.87765743,18.54210895],[73.87778995,18.54214212],[73.87792269,18.54217468],[73.87805565,18.54220663],[73.8781888,18.54223796],[73.87832215,18.54226867],[73.87845566,18.54229875],[73.87858932,18.54232821],[73.87872313,18.54235703],[73.87885706,18.54238523],[73.87899109,18.54241281],[73.87912522,18.54243976],[73.87925943,18.54246609],[73.8793937,18.54249181],[73.87952803,18.54251694],[73.8796624,18.54254148],[73.87979681,18.54256544],[73.87993124,18.54258885],[73.88006569,18.54261171],[73.88020015,18.54263406],[73.88033462,18.5426559],[73.88046909,18.54267725],[73.88060357,18.54269814],[73.88073805,18.54271858],[73.88087252,18.5427386],[73.881007,18.54275821],[73.88114147,18.54277745],[73.88127593,18.54279633],[73.88141039,18.54281487],[73.88154485,18.5428331],[73.8816793,18.54285105],[73.88181374,18.54286873],[73.88194817,18.54288616],[73.88208259,18.54290338],[73.88221698,18.54292041],[73.88235136,18.54293726],[73.8824857,18.54295396],[73.88262001,18.54297054],[73.88275427,18.54298699],[73.88288848,18.54300335],[73.88302264,18.54301962],[73.88315673,18.54303582],[73.88329075,18.54305195],[73.8834247,18.54306801],[73.88355856,18.543084],[73.88369235,18.54309992],[73.88382605,18.54311577],[73.88395967,18.54313153],[73.88409321,18.54314719],[73.88422669,18.54316274],[73.8843601,18.54317815],[73.88449346,18.54319342],[73.88462677,18.54320852],[73.88476007,18.54322344],[73.88489335,18.54323814],[73.88502665,18.54325261],[73.88515996,18.54326683],[73.88529332,18.54328078],[73.88542675,18.54329444],[73.88556025,18.54330779],[73.88569385,18.54332081],[73.88582757,18.5433335],[73.88596142,18.54334585],[73.88609542,18.54335783],[73.88622956,18.54336945],[73.88636387,18.5433807],[73.88649833,18.54339158],[73.88663297,18.54340209],[73.88676776,18.54341223],[73.88690271,18.54342201],[73.8870378,18.54343142],[73.88717301,18.54344048],[73.88730834,18.54344919],[73.88744376,18.54345755],[73.88757926,18.54346558],[73.88771479,18.54347326],[73.88785035,18.54348059],[73.88798591,18.54348758],[73.88812145,18.54349421],[73.88825694,18.54350046],[73.88839236,18.54350632],[73.88852771,18.54351176],[73.88866296,18.54351674],[73.8887981,18.54352122],[73.88893314,18.54352515],[73.88906807,18.54352849],[73.88920289,18.54353117],[73.88933762,18.54353312],[73.88947225,18.54353428],[73.88960681,18.54353458],[73.8897413,18.54353395],[73.88987575,18.5435323],[73.89001017,18.54352957],[73.89014456,18.54352569],[73.89027894,18.5435206],[73.89041333,18.54351424],[73.89054771,18.54350655],[73.89068209,18.54349751],[73.89081647,18.54348709],[73.89095083,18.54347525],[73.89108516,18.543462],[73.89121945,18.54344733],[73.89135367,18.54343127],[73.8914878,18.54341384],[73.89162183,18.54339507],[73.89175574,18.54337502],[73.8918895,18.54335373],[73.89202312,18.54333126],[73.89215656,18.54330769],[73.89228985,18.54328308],[73.89242297,18.54325751],[73.89255593,18.54323106],[73.89268874,18.5432038],[73.89282142,18.54317582],[73.89295398,18.54314719],[73.89308645,18.54311799],[73.89321885,18.5430883],[73.89335121,18.54305818],[73.89348353,18.54302771],[73.89361586,18.54299694],[73.89374821,18.54296596],[73.89388059,18.5429348],[73.89401303,18.54290353],[73.89414553,18.54287219],[73.8942781,18.54284083],[73.89441076,18.5428095],[73.8945435,18.54277823],[73.89467632,18.54274706],[73.89480923,18.54271601],[73.89494221,18.54268511],[73.89507527,18.54265438],[73.89520839,18.54262384],[73.89534156,18.54259351],[73.89547479,18.54256339],[73.89560805,18.54253349],[73.89574135,18.54250381],[73.89587467,18.54247436],[73.89600801,18.54244513],[73.89614137,18.54241612],[73.89627472,18.54238732],[73.89640808,18.54235873],[73.89654143,18.54233035],[73.89667476,18.54230216],[73.89680809,18.54227416],[73.89694139,18.54224634],[73.89707466,18.5422187],[73.89720791,18.54219123],[73.89734113,18.54216393],[73.8974743,18.54213681],[73.89760744,18.54210986],[73.89774053,18.54208308],[73.89787357,18.5420565],[73.89800656,18.5420301],[73.89813951,18.54200392],[73.89827241,18.54197795],[73.89840526,18.54195223],[73.89853808,18.54192675],[73.89867087,18.54190155],[73.89880364,18.54187665],[73.89893641,18.54185206],[73.8990692,18.54182782],[73.89920202,18.54180393],[73.8993349,18.54178044],[73.89946785,18.54175734],[73.89960091,18.54173468],[73.89973409,18.54171246],[73.89986742,18.5416907],[73.90000091,18.54166942],[73.90013459,18.54164863],[73.90026847,18.54162834],[73.90040256,18.54160856],[73.90053688,18.5415893],[73.90067142,18.54157055],[73.9008062,18.54155232],[73.90094119,18.54153461],[73.90107639,18.54151742],[73.9012118,18.54150074],[73.90134739,18.54148457],[73.90148315,18.54146891],[73.90161904,18.54145375],[73.90175506,18.54143908],[73.90189117,18.54142491],[73.90202734,18.54141123],[73.90216354,18.54139803],[73.90229976,18.54138531],[73.90243596,18.54137306],[73.90257211,18.54136128],[73.90270818,18.54134995],[73.90284415,18.54133908],[73.90298001,18.54132865],[73.90311571,18.54131864],[73.90325125,18.54130904],[73.9033866,18.54129982],[73.90352176,18.54129096],[73.90365671,18.54128242],[73.90379144,18.54127418],[73.90392596,18.5412662],[73.90406025,18.54125842],[73.90419433,18.54125081],[73.90432821,18.54124332],[73.9044619,18.5412359],[73.90459543,18.54122849],[73.90472882,18.54122105],[73.9048621,18.54121353],[73.9049953,18.54120589],[73.90512848,18.54119808],[73.90526166,18.54119006],[73.9053949,18.5411818],[73.90552824,18.54117328],[73.90566173,18.54116448],[73.90579541,18.54115539],[73.90592933,18.54114598],[73.90606353,18.54113627],[73.90619803,18.54112625],[73.90633288,18.54111593],[73.90646808,18.54110531],[73.90660364,18.5410944],[73.90673959,18.5410832],[73.90687589,18.54107172],[73.90701254,18.54105996],[73.9071495,18.54104791],[73.90728675,18.54103557],[73.90742424,18.54102291],[73.9075619,18.54100992],[73.90769969,18.54099657],[73.90783754,18.54098283],[73.90797539,18.54096866],[73.90811317,18.54095402],[73.90825081,18.54093886],[73.90838826,18.54092315],[73.90852545,18.54090683],[73.90866234,18.54088988],[73.90879888,18.54087224],[73.90893505,18.54085389],[73.90907081,18.5408348],[73.90920615,18.54081494],[73.90934107,18.54079431],[73.90947557,18.5407729],[73.90960966,18.5407507],[73.90974338,18.54072774],[73.90987673,18.54070401],[73.91000977,18.54067955],[73.91014253,18.54065439],[73.91027505,18.54062856],[73.91040738,18.5406021],[73.91053956,18.54057506],[73.91067164,18.54054748],[73.91080364,18.54051942],[73.91093563,18.54049092],[73.91106761,18.54046205],[73.91119963,18.54043284],[73.9113317,18.54040337],[73.91146385,18.54037367],[73.91159607,18.54034379],[73.91172839,18.54031379],[73.9118608,18.5402837],[73.9119933,18.54025357],[73.91212587,18.54022343],[73.91225852,18.54019333],[73.91239122,18.54016328],[73.91252396,18.54013333],[73.91265674,18.5401035],[73.91278952,18.54007381],[73.9129223,18.54004429],[73.91305507,18.54001497],[73.91318781,18.53998586],[73.91332051,18.539957],[73.91345318,18.5399284],[73.91358579,18.5399001],[73.91371836,18.53987213],[73.91385088,18.5398445],[73.91398335,18.53981727],[73.9141158,18.53979046],[73.91424821,18.5397641],[73.91438062,18.53973824],[73.91451303,18.53971291],[73.91464546,18.53968814],[73.91477793,18.53966397],[73.91491045,18.53964043],[73.91504306,18.53961754],[73.91517577,18.53959533],[73.91530859,18.53957381],[73.91544156,18.53955301],[73.91557468,18.53953292],[73.91570798,18.53951355],[73.91584146,18.53949489],[73.91597514,18.53947693],[73.91610903,18.53945966],[73.91624312,18.53944305],[73.91637742,18.53942708],[73.91651192,18.53941171],[73.91664662,18.53939692],[73.91678151,18.53938267],[73.91691657,18.53936892],[73.91705179,18.53935563],[73.91718714,18.53934277],[73.91732262,18.53933029],[73.91745819,18.53931816],[73.91759383,18.53930634],[73.91772952,18.53929479],[73.91786522,18.53928347],[73.91800093,18.53927235],[73.9181366,18.53926138],[73.91827223,18.53925053],[73.91840778,18.53923977],[73.91854325,18.53922906],[73.91867861,18.53921836],[73.91881387,18.53920763],[73.91894899,18.53919685],[73.919084,18.53918599],[73.91921887,18.539175],[73.91935362,18.53916385],[73.91948824,18.53915253],[73.91962276,18.539141],[73.91975718,18.53912924],[73.91989151,18.53911722],[73.92002577,18.53910494],[73.92015998,18.53909238],[73.92029415,18.53907953],[73.9204283,18.53906638],[73.92056245,18.53905293],[73.9206966,18.53903918],[73.92083079,18.53902514],[73.92096502,18.5390108],[73.92109929,18.53899618],[73.92123364,18.53898129],[73.92136805,18.53896614],[73.92150255,18.53895074],[73.92163714,18.5389351],[73.92177181,18.53891922],[73.92190659,18.53890313],[73.92204146,18.53888681],[73.92217644,18.53887027],[73.92231153,18.53885351],[73.92244672,18.53883653],[73.92258201,18.5388193],[73.92271741,18.53880183],[73.92285291,18.53878408],[73.92298851,18.53876603],[73.9231242,18.53874766],[73.92325998,18.53872894],[73.92339584,18.53870982],[73.92353176,18.53869028],[73.92366774,18.53867028],[73.92380375,18.53864977],[73.92393978,18.53862872],[73.9240758,18.5386071],[73.92421179,18.53858487],[73.92434771,18.53856201],[73.92448352,18.53853848],[73.92461921,18.53851427],[73.92475472,18.53848935],[73.92489002,18.53846373],[73.92502506,18.53843739],[73.92515981,18.53841033],[73.92529422,18.53838255],[73.92542826,18.53835406],[73.9255619,18.53832487],[73.9256951,18.538295],[73.92582783,18.53826445],[73.92596007,18.53823323],[73.92609182,18.53820137],[73.92622305,18.53816887],[73.92635376,18.53813574],[73.92648396,18.53810201],[73.92661365,18.53806766],[73.92674286,18.53803272],[73.92687159,18.53799719],[73.92699989,18.53796107],[73.92712778,18.53792438],[73.9272553,18.53788711],[73.9273825,18.53784928],[73.9275094,18.5378109],[73.92763607,18.53777198],[73.92776255,18.53773253],[73.92788889,18.53769258],[73.92801514,18.53765216],[73.92814135,18.53761128],[73.92826757,18.53757],[73.92839384,18.53752834],[73.92852022,18.53748637],[73.92864674,18.53744411],[73.92877345,18.53740164],[73.92890039,18.53735901],[73.92902759,18.53731628],[73.92915509,18.53727353],[73.92928292,18.53723081],[73.9294111,18.53718819],[73.92953967,18.53714575],[73.92966864,18.53710354],[73.92979806,18.53706163],[73.92992793,18.53702009],[73.93005828,18.53697897],[73.93018914,18.53693833],[73.93032053,18.53689822],[73.93045246,18.53685869],[73.93058497,18.53681977],[73.93071807,18.5367815],[73.93085179,18.53674391],[73.93098615,18.53670702],[73.93112118,18.53667086],[73.9312569,18.53663543],[73.93139333,18.53660075],[73.93153048,18.5365668],[73.93166838,18.53653361],[73.93180702,18.53650114],[73.93194642,18.53646939],[73.93208658,18.53643834],[73.93222748,18.53640797],[73.9323691,18.53637824],[73.93251143,18.53634913],[73.93265442,18.5363206],[73.93279803,18.53629262],[73.93294221,18.53626515],[73.93308689,18.53623815],[73.933232,18.5362116],[73.93337747,18.53618546],[73.93352321,18.53615973],[73.93366915,18.53613438],[73.93381519,18.53610943],[73.93396126,18.53608488],[73.93410726,18.53606077],[73.93425314,18.53603715],[73.93439881,18.53601408],[73.93454421,18.53599165],[73.93468929,18.53596996],[73.93483401,18.53594912],[73.93497833,18.53592927],[73.93512224,18.53591054],[73.93526571,18.5358931],[73.93540874,18.5358771],[73.93555133,18.5358627],[73.9356935,18.53585007],[73.93583525,18.53583936],[73.93597659,18.53583073],[73.93611753,18.53582433],[73.93625809,18.5358203],[73.93639827,18.53581876],[73.93653806,18.53581982],[73.93667745,18.5358236],[73.93681642,18.53583019],[73.93695493,18.53583968],[73.93709293,18.53585214],[73.93723035,18.53586765],[73.9373671,18.53588628],[73.9375031,18.53590808],[73.93763822,18.53593311],[73.93777235,18.53596144],[73.93790533,18.53599312],[73.93803702,18.5360282],[73.93816726,18.53606672],[73.93829589,18.53610873],[73.93842274,18.53615427],[73.93854766,18.53620338],[73.93867047,18.53625608],[73.93879103,18.53631238],[73.9389092,18.5363723],[73.93902486,18.53643582],[73.9391379,18.53650294],[73.93924823,18.53657362],[73.93935579,18.53664782],[73.93946052,18.53672547],[73.93956242,18.5368065],[73.93966147,18.53689081],[73.9397577,18.53697831],[73.93985114,18.53706887],[73.93994185,18.53716235],[73.94002991,18.53725861],[73.94011539,18.53735749],[73.9401984,18.53745882],[73.94027903,18.53756244],[73.9403574,18.53766815],[73.94043361,18.53777579],[73.94050778,18.53788517],[73.94058003,18.53799611],[73.94065047,18.53810843],[73.94071922,18.53822198],[73.94078639,18.53833657],[73.9408521,18.53845208],[73.94091645,18.53856834],[73.94097955,18.53868523],[73.94104151,18.53880264],[73.94110245,18.53892045],[73.94116247,18.53903857],[73.94122169,18.53915692],[73.94128021,18.53927542],[73.94133814,18.53939401],[73.9413956,18.53951265],[73.9414527,18.53963128],[73.94150955,18.53974988],[73.94156626,18.53986842],[73.94162293,18.53998688],[73.94167967,18.54010524],[73.94173659,18.54022349],[73.94179376,18.54034163],[73.94185128,18.54045964],[73.94190924,18.54057751],[73.9419677,18.54069525],[73.94202673,18.54081283],[73.9420864,18.54093024],[73.94214676,18.54104747],[73.94220785,18.54116449],[73.94226973,18.54128129],[73.94233242,18.54139782],[73.94239598,18.54151406],[73.94246043,18.54162996],[73.9425258,18.54174548],[73.94259216,18.54186056],[73.94265952,18.54197516],[73.94272794,18.5420892],[73.94279747,18.54220262],[73.94286816,18.54231535],[73.94294008,18.54242732],[73.94301327,18.54253844],[73.94308782,18.54264863],[73.94316378,18.5427578],[73.94324122,18.54286585],[73.9433202,18.54297269],[73.94340079,18.54307822],[73.94348304,18.54318233],[73.94356699,18.54328494],[73.94365269,18.54338593],[73.94374016,18.5434852],[73.94382944,18.54358265],[73.94392053,18.54367819],[73.94401344,18.54377171],[73.94410817,18.54386312],[73.94420471,18.54395232],[73.94430304,18.54403922],[73.94440315,18.54412374],[73.94450501,18.54420578],[73.94460861,18.54428525],[73.94471392,18.54436208],[73.94482092,18.54443618],[73.94492961,18.54450747],[73.94503995,18.54457588],[73.94515194,18.54464134],[73.94526558,18.54470379],[73.94538083,18.54476317],[73.9454977,18.54481945],[73.94561617,18.54487259],[73.94573622,18.54492258],[73.94585782,18.54496943],[73.94598095,18.54501314],[73.94610557,18.54505375],[73.94623163,18.54509133],[73.94635907,18.54512594],[73.94648782,18.54515766],[73.94661782,18.54518661],[73.94674897,18.54521291],[73.9468812,18.54523668],[73.94701439,18.54525807],[73.94714844,18.54527721],[73.94728326,18.54529427],[73.94741873,18.5453094],[73.94755474,18.54532275],[73.9476912,18.54533447],[73.94782799,18.5453447],[73.94796503,18.54535361],[73.94810222,18.54536132],[73.94823948,18.54536797],[73.94837674,18.54537369],[73.94851395,18.54537861],[73.94865104,18.54538285],[73.94878798,18.54538655],[73.94892474,18.54538981],[73.94906129,18.54539277],[73.94919763,18.54539555],[73.94933374,18.54539828],[73.94946964,18.54540107],[73.94960534,18.54540407],[73.94974084,18.54540738],[73.94987616,18.54541115],[73.95001131,18.54541548],[73.95014632,18.54542049],[73.9502812,18.54542629],[73.95041596,18.54543298],[73.95055061,18.54544063],[73.95068516,18.54544932],[73.95081962,18.5454591],[73.95095398,18.54547001],[73.95108825,18.54548205],[73.95122244,18.54549523],[73.95135653,18.54550953],[73.95149054,18.5455249],[73.95162446,18.5455413],[73.95175832,18.54555865],[73.95189211,18.54557688],[73.95202586,18.54559591],[73.95215959,18.54561565],[73.95229333,18.54563601],[73.9524271,18.5456569],[73.95256093,18.54567824],[73.95269486,18.54569995],[73.95282891,18.54572197],[73.95296311,18.54574425],[73.95309748,18.54576673],[73.95323205,18.54578939],[73.95336682,18.54581219],[73.95350179,18.54583513],[73.95363698,18.54585819],[73.95377235,18.54588138],[73.9539079,18.54590468],[73.9540436,18.54592812],[73.95417943,18.54595168],[73.95431535,18.54597538],[73.95445134,18.5459992],[73.95458735,18.54602315],[73.95472336,18.5460472],[73.95485933,18.54607135],[73.95499525,18.54609557],[73.95513108,18.54611983],[73.95526682,18.54614409],[73.95540244,18.5461683],[73.95553795,18.54619243],[73.95567333,18.54621641],[73.95580859,18.54624018],[73.95594374,18.54626369],[73.95607877,18.54628686],[73.95621371,18.54630961],[73.95634857,18.54633187],[73.95648335,18.54635354],[73.95661809,18.54637455],[73.9567528,18.54639477],[73.95688751,18.54641412],[73.95702224,18.54643248],[73.95715701,18.54644971],[73.95729185,18.5464657],[73.9574268,18.54648031],[73.95756187,18.54649337],[73.95769708,18.54650474],[73.95783246,18.54651426],[73.957968,18.54652175],[73.95810372,18.54652704],[73.9582396,18.54652997],[73.95837562,18.54653034],[73.95851176,18.546528],[73.95864796,18.54652278],[73.95878416,18.54651453],[73.9589203,18.54650311],[73.95905629,18.5464884],[73.95919204,18.5464703],[73.95932745,18.54644875],[73.95946244,18.5464237],[73.95959688,18.54639512],[73.95973069,18.54636304],[73.95986377,18.5463275],[73.95999605,18.54628859],[73.96012744,18.5462464],[73.96025791,18.54620108],[73.9603874,18.54615279],[73.9605159,18.54610171],[73.96064341,18.54604805],[73.96076993,18.54599202],[73.9608955,18.54593384],[73.96102016,18.54587375],[73.96114398,18.54581199],[73.96126703,18.54574877],[73.96138939,18.54568433],[73.96151114,18.54561888],[73.96163238,18.54555262],[73.96175321,18.54548575],[73.96187371,18.54541844],[73.96199399,18.54535087],[73.96211412,18.54528319],[73.96223421,18.54521553],[73.96235431,18.54514804],[73.96247451,18.54508082],[73.96259486,18.54501399],[73.96271543,18.54494765],[73.96283626,18.5448819],[73.9629574,18.54481683],[73.96307887,18.54475253],[73.9632007,18.54468907],[73.96332293,18.54462653],[73.96344556,18.54456498],[73.96356862,18.54450449],[73.96369212,18.54444512],[73.96381606,18.54438693],[73.96394047,18.54432997],[73.96406534,18.54427428],[73.96419069,18.5442199],[73.96431651,18.54416686],[73.96444282,18.54411517],[73.96456962,18.54406484],[73.9646969,18.54401589],[73.96482467,18.54396829],[73.96495292,18.54392204],[73.96508165,18.5438771],[73.96521085,18.54383344],[73.9653405,18.54379102],[73.9654706,18.54374979],[73.96560112,18.54370969],[73.96573204,18.54367066],[73.96586336,18.54363262],[73.96599503,18.54359552],[73.96612705,18.54355927],[73.96625939,18.5435238],[73.96639201,18.54348904],[73.96652491,18.54345489],[73.96665806,18.54342129],[73.96679142,18.54338816],[73.96692498,18.54335542],[73.9670587,18.543323],[73.96719257,18.54329081],[73.96732654,18.54325879],[73.96746059,18.54322686],[73.96759467,18.54319494],[73.96772876,18.54316298],[73.96786279,18.54313089],[73.96799674,18.5430986],[73.96813055,18.54306606],[73.96826416,18.54303318],[73.96839752,18.54299992],[73.96853057,18.5429662],[73.96866325,18.54293198],[73.96879551,18.54289718],[73.96892727,18.54286177],[73.96905848,18.54282569],[73.96918908,18.54278891],[73.96931901,18.54275138],[73.96944822,18.54271306],[73.96957666,18.54267393],[73.96970428,18.54263395],[73.96983102,18.54259309],[73.96995686,18.54255133],[73.97008175,18.54250863],[73.97020566,18.54246496],[73.97032855,18.54242028],[73.97045039,18.54237455],[73.97057117,18.54232773],[73.97069085,18.54227975],[73.97080942,18.54223054],[73.97092686,18.54218004],[73.97104317,18.54212816],[73.97115832,18.5420748],[73.97127232,18.54201986],[73.97138516,18.54196323],[73.97149684,18.5419048],[73.97160736,18.54184446],[73.97171673,18.54178207],[73.97182494,18.54171754],[73.971932,18.54165076],[73.97203789,18.54158163],[73.97214262,18.54151008],[73.97224616,18.54143603],[73.97234848,18.54135945],[73.97244955,18.54128032],[73.97254933,18.54119864],[73.97264776,18.54111444],[73.97274476,18.54102777],[73.97284027,18.54093872],[73.97293419,18.54084738],[73.97302644,18.54075387],[73.97311692,18.54065832],[73.97320553,18.54056088],[73.97329219,18.54046169],[73.97337681,18.54036091],[73.9734593,18.54025869],[73.97353961,18.54015519],[73.97361767,18.54005053],[73.97369346,18.53994485],[73.97376695,18.53983825],[73.97383815,18.53973084],[73.97390706,18.5396227],[73.97397372,18.53951388],[73.97403819,18.53940445],[73.97410052,18.53929444],[73.9741608,18.53918387],[73.97421912,18.53907275],[73.97427559,18.53896109],[73.97433031,18.53884888],[73.97438341,18.53873611],[73.97443501,18.53862277],[73.97448524,18.53850885],[73.97453424,18.53839432],[73.97458213,18.53827919],[73.97462907,18.53816343],[73.97467518,18.53804705],[73.97472061,18.53793003],[73.97476551,18.53781238],[73.97481001,18.5376941],[73.97485426,18.53757521],[73.97489838,18.53745573],[73.97494253,18.53733569],[73.97498684,18.53721511],[73.97503142,18.53709405],[73.9750764,18.53697255],[73.97512188,18.53685066],[73.97516798,18.53672844],[73.97521478,18.53660597],[73.97526235,18.53648332],[73.97531077,18.53636055],[73.97536007,18.53623775],[73.97541032,18.536115],[73.97546151,18.53599236],[73.97551368,18.53586991],[73.97556682,18.53574772],[73.97562094,18.53562586],[73.97567601,18.53550437],[73.97573202,18.53538332],[73.97578896,18.53526275],[73.9758468,18.53514269],[73.97590554,18.53502319],[73.97596515,18.53490427],[73.97602563,18.53478596],[73.97608698,18.53466829],[73.97614922,18.53455126],[73.97621235,18.53443491],[73.97627642,18.53431925],[73.97634144,18.53420429],[73.97640748,18.53409006],[73.97647458,18.53397657],[73.9765428,18.53386385],[73.97661221,18.5337519],[73.97668287,18.53364076],[73.97675484,18.53353043],[73.97682819,18.53342093],[73.97690298,18.53331229],[73.97697927,18.5332045],[73.9770571,18.53309759],[73.97713651,18.53299157],[73.97721753,18.53288644],[73.97730017,18.53278222],[73.97738445,18.5326789],[73.97747036,18.53257649],[73.97755787,18.532475],[73.97764696,18.53237441],[73.9777376,18.53227474],[73.97782973,18.53217598],[73.9779233,18.53207811],[73.97801826,18.53198115],[73.97811454,18.53188507],[73.97821207,18.53178987],[73.97831077,18.53169554],[73.97841059,18.53160207],[73.97851145,18.53150944],[73.97861328,18.53141763],[73.97871601,18.53132665],[73.97881958,18.53123646],[73.97892393,18.53114705],[73.97902899,18.53105841],[73.97913471,18.53097051],[73.97924104,18.53088334],[73.97934793,18.53079688],[73.97945534,18.53071109],[73.97956322,18.53062597],[73.97967155,18.5305415],[73.9797803,18.53045764],[73.97988943,18.53037438],[73.97999893,18.53029171],[73.98010879,18.53020959],[73.98021898,18.53012802],[73.9803295,18.53004699],[73.98044033,18.52996647],[73.98055148,18.52988646],[73.98066292,18.52980696],[73.98077465,18.52972796],[73.98088666,18.52964946],[73.98099895,18.52957147],[73.98111148,18.52949398],[73.98122426,18.52941702],[73.98133726,18.52934058],[73.98145045,18.52926467],[73.98156381,18.52918931],[73.98167731,18.52911451],[73.98179093,18.52904026],[73.98190462,18.52896658],[73.98201837,18.52889347],[73.98213212,18.52882092],[73.98224586,18.52874892],[73.98235956,18.52867746],[73.9824732,18.52860651],[73.98258676,18.52853605],[73.98270023,18.52846603],[73.98281362,18.52839643],[73.98292693,18.5283272],[73.98304018,18.52825828],[73.9831534,18.52818962],[73.98326663,18.52812118],[73.98337991,18.5280529],[73.98349329,18.52798474],[73.98360683,18.52791665],[73.98372058,18.52784859],[73.98383461,18.52778053],[73.98394896,18.52771245],[73.98406369,18.52764434],[73.98417885,18.5275762],[73.98429446,18.52750802],[73.98441054,18.52743983],[73.98452712,18.52737163],[73.98464417,18.52730347],[73.98476169,18.52723536],[73.98487965,18.52716733],[73.984998,18.5270994],[73.98511668,18.52703162],[73.98523564,18.52696398],[73.98535479,18.52689652],[73.98547405,18.52682922],[73.98559334,18.5267621],[73.98571258,18.52669513],[73.98583168,18.5266283],[73.98595056,18.52656157],[73.98606914,18.52649491],[73.98618735,18.52642828],[73.98630514,18.52636162],[73.98642246,18.52629488],[73.98653926,18.52622801],[73.98665551,18.52616095],[73.9867712,18.52609364],[73.98688631,18.52602604],[73.98700085,18.52595809],[73.98711481,18.52588976],[73.98722822,18.52582099],[73.98734109,18.52575177],[73.98745345,18.52568207],[73.98756532,18.52561185],[73.98767672,18.52554112],[73.98778769,18.52546985],[73.98789823,18.52539805],[73.98800839,18.5253257],[73.98811817,18.52525279],[73.9882276,18.52517933],[73.98833668,18.52510532],[73.98844543,18.52503073],[73.98855386,18.52495557],[73.98866196,18.52487984],[73.98876974,18.5248035],[73.9888772,18.52472656],[73.98898432,18.52464899],[73.98909111,18.52457079],[73.98919755,18.52449192],[73.98930364,18.52441239],[73.98940936,18.52433217],[73.9895147,18.52425126],[73.98961965,18.52416964],[73.9897242,18.52408733],[73.98982834,18.52400433],[73.98993205,18.52392066],[73.99003531,18.52383637],[73.99013812,18.52375149],[73.99024044,18.5236661],[73.99034226,18.52358026],[73.99044354,18.52349409],[73.99054425,18.5234077],[73.99064432,18.52332124],[73.99074371,18.52323487],[73.99084232,18.52314877],[73.99094007,18.52306315],[73.99103684,18.52297823],[73.99113247,18.52289427],[73.9912268,18.52281153],[73.99131961,18.52273029],[73.99141066,18.52265087],[73.99149967,18.52257357],[73.99158632,18.52249873],[73.99167025,18.52242669],[73.99175106,18.52235781],[73.99182832,18.52229242],[73.99190156,18.52223091],[73.99197031,18.5221736],[73.99203405,18.52212086],[73.9920923,18.522073],[73.99214456,18.52203036],[73.99219036,18.52199321],[73.99222927,18.52196182],[73.99226089,18.52193643],[73.99228491,18.52191721],[73.99230107,18.52190431],[73.99230919,18.52189784]]}},{"type":"Feature","properties":{"kind":"station","name":"0+000","chainage_m":0,"km":0,"major":true},"geometry":{"type":"Point","coordinates":[73.85617563,18.53227447]}},{"type":"Feature","properties":{"kind":"station","name":"0+100","chainage_m":100,"km":0.1,"major":false},"geometry":{"type":"Point","coordinates":[73.85700538,18.53183894]}},{"type":"Feature","properties":{"kind":"station","name":"0+200","chainage_m":200,"km":0.2,"major":false},"geometry":{"type":"Point","coordinates":[73.85787918,18.53149197]}},{"type":"Feature","properties":{"kind":"station","name":"0+300","chainage_m":300,"km":0.3,"major":false},"geometry":{"type":"Point","coordinates":[73.85880507,18.53131234]}},{"type":"Feature","properties":{"kind":"station","name":"0+400","chainage_m":400,"km":0.4,"major":false},"geometry":{"type":"Point","coordinates":[73.85974392,18.53139606]}},{"type":"Feature","properties":{"kind":"station","name":"0+500","chainage_m":500,"km":0.5,"major":false},"geometry":{"type":"Point","coordinates":[73.86061292,18.53174857]}},{"type":"Feature","properties":{"kind":"station","name":"0+600","chainage_m":600,"km":0.6,"major":false},"geometry":{"type":"Point","coordinates":[73.8613878,18.53226689]}},{"type":"Feature","properties":{"kind":"station","name":"0+700","chainage_m":700,"km":0.7,"major":false},"geometry":{"type":"Point","coordinates":[73.86210689,18.53285501]}},{"type":"Feature","properties":{"kind":"station","name":"0+800","chainage_m":800,"km":0.8,"major":false},"geometry":{"type":"Point","coordinates":[73.86281397,18.5334564]}},{"type":"Feature","properties":{"kind":"station","name":"0+900","chainage_m":900,"km":0.9,"major":false},"geometry":{"type":"Point","coordinates":[73.86353341,18.53404426]}},{"type":"Feature","properties":{"kind":"station","name":"1+000","chainage_m":1000,"km":1,"major":true},"geometry":{"type":"Point","coordinates":[73.86426481,18.53461859]}},{"type":"Feature","properties":{"kind":"station","name":"1+100","chainage_m":1100,"km":1.1,"major":false},"geometry":{"type":"Point","coordinates":[73.8649848,18.53520576]}},{"type":"Feature","properties":{"kind":"station","name":"1+200","chainage_m":1200,"km":1.2,"major":false},"geometry":{"type":"Point","coordinates":[73.86566774,18.53583185]}},{"type":"Feature","properties":{"kind":"station","name":"1+300","chainage_m":1300,"km":1.3,"major":false},"geometry":{"type":"Point","coordinates":[73.86633083,18.53647724]}},{"type":"Feature","properties":{"kind":"station","name":"1+400","chainage_m":1400,"km":1.4,"major":false},"geometry":{"type":"Point","coordinates":[73.86700976,18.53710737]}},{"type":"Feature","properties":{"kind":"station","name":"1+500","chainage_m":1500,"km":1.5,"major":false},"geometry":{"type":"Point","coordinates":[73.86772359,18.53770124]}},{"type":"Feature","properties":{"kind":"station","name":"1+600","chainage_m":1600,"km":1.6,"major":false},"geometry":{"type":"Point","coordinates":[73.86847785,18.53824773]}},{"type":"Feature","properties":{"kind":"station","name":"1+700","chainage_m":1700,"km":1.7,"major":false},"geometry":{"type":"Point","coordinates":[73.86926661,18.53874804]}},{"type":"Feature","properties":{"kind":"station","name":"1+800","chainage_m":1800,"km":1.8,"major":false},"geometry":{"type":"Point","coordinates":[73.87008083,18.53920986]}},{"type":"Feature","properties":{"kind":"station","name":"1+900","chainage_m":1900,"km":1.9,"major":false},"geometry":{"type":"Point","coordinates":[73.87091513,18.53963786]}},{"type":"Feature","properties":{"kind":"station","name":"2+000","chainage_m":2000,"km":2,"major":true},"geometry":{"type":"Point","coordinates":[73.87176624,18.54003463]}},{"type":"Feature","properties":{"kind":"station","name":"2+100","chainage_m":2100,"km":2.1,"major":false},"geometry":{"type":"Point","coordinates":[73.87263051,18.54040469]}},{"type":"Feature","properties":{"kind":"station","name":"2+200","chainage_m":2200,"km":2.2,"major":false},"geometry":{"type":"Point","coordinates":[73.87350417,18.54075413]}},{"type":"Feature","properties":{"kind":"station","name":"2+300","chainage_m":2300,"km":2.3,"major":false},"geometry":{"type":"Point","coordinates":[73.87438531,18.54108605]}},{"type":"Feature","properties":{"kind":"station","name":"2+400","chainage_m":2400,"km":2.4,"major":false},"geometry":{"type":"Point","coordinates":[73.87527383,18.54139957]}},{"type":"Feature","properties":{"kind":"station","name":"2+500","chainage_m":2500,"km":2.5,"major":false},"geometry":{"type":"Point","coordinates":[73.87617059,18.54169093]}},{"type":"Feature","properties":{"kind":"station","name":"2+600","chainage_m":2600,"km":2.6,"major":false},"geometry":{"type":"Point","coordinates":[73.8770764,18.54195557]}},{"type":"Feature","properties":{"kind":"station","name":"2+700","chainage_m":2700,"km":2.7,"major":false},"geometry":{"type":"Point","coordinates":[73.877991,18.54219109]}},{"type":"Feature","properties":{"kind":"station","name":"2+800","chainage_m":2800,"km":2.8,"major":false},"geometry":{"type":"Point","coordinates":[73.87891346,18.54239684]}},{"type":"Feature","properties":{"kind":"station","name":"2+900","chainage_m":2900,"km":2.9,"major":false},"geometry":{"type":"Point","coordinates":[73.87984256,18.54257341]}},{"type":"Feature","properties":{"kind":"station","name":"3+000","chainage_m":3000,"km":3,"major":true},"geometry":{"type":"Point","coordinates":[73.88077662,18.54272432]}},{"type":"Feature","properties":{"kind":"station","name":"3+100","chainage_m":3100,"km":3.1,"major":false},"geometry":{"type":"Point","coordinates":[73.88171396,18.5428556]}},{"type":"Feature","properties":{"kind":"station","name":"3+200","chainage_m":3200,"km":3.2,"major":false},"geometry":{"type":"Point","coordinates":[73.8826531,18.54297459]}},{"type":"Feature","properties":{"kind":"station","name":"3+300","chainage_m":3300,"km":3.3,"major":false},"geometry":{"type":"Point","coordinates":[73.883593,18.5430881]}},{"type":"Feature","properties":{"kind":"station","name":"3+400","chainage_m":3400,"km":3.4,"major":false},"geometry":{"type":"Point","coordinates":[73.88453337,18.54319794]}},{"type":"Feature","properties":{"kind":"station","name":"3+500","chainage_m":3500,"km":3.5,"major":false},"geometry":{"type":"Point","coordinates":[73.8854748,18.54329924]}},{"type":"Feature","properties":{"kind":"station","name":"3+600","chainage_m":3600,"km":3.6,"major":false},"geometry":{"type":"Point","coordinates":[73.8864179,18.54338507]}},{"type":"Feature","properties":{"kind":"station","name":"3+700","chainage_m":3700,"km":3.7,"major":false},"geometry":{"type":"Point","coordinates":[73.88736264,18.54345254]}},{"type":"Feature","properties":{"kind":"station","name":"3+800","chainage_m":3800,"km":3.8,"major":false},"geometry":{"type":"Point","coordinates":[73.88830857,18.5435027]}},{"type":"Feature","properties":{"kind":"station","name":"3+900","chainage_m":3900,"km":3.9,"major":false},"geometry":{"type":"Point","coordinates":[73.88925545,18.54353193]}},{"type":"Feature","properties":{"kind":"station","name":"4+000","chainage_m":4000,"km":4,"major":true},"geometry":{"type":"Point","coordinates":[73.89020268,18.54352349]}},{"type":"Feature","properties":{"kind":"station","name":"4+100","chainage_m":4100,"km":4.1,"major":false},"geometry":{"type":"Point","coordinates":[73.89114715,18.54345523]}},{"type":"Feature","properties":{"kind":"station","name":"4+200","chainage_m":4200,"km":4.2,"major":false},"geometry":{"type":"Point","coordinates":[73.89208377,18.54332054]}},{"type":"Feature","properties":{"kind":"station","name":"4+300","chainage_m":4300,"km":4.3,"major":false},"geometry":{"type":"Point","coordinates":[73.89301084,18.54313466]}},{"type":"Feature","properties":{"kind":"station","name":"4+400","chainage_m":4400,"km":4.4,"major":false},"geometry":{"type":"Point","coordinates":[73.8939318,18.54292271]}},{"type":"Feature","properties":{"kind":"station","name":"4+500","chainage_m":4500,"km":4.5,"major":false},"geometry":{"type":"Point","coordinates":[73.8948516,18.54270616]}},{"type":"Feature","properties":{"kind":"station","name":"4+600","chainage_m":4600,"km":4.6,"major":false},"geometry":{"type":"Point","coordinates":[73.89577321,18.54249677]}},{"type":"Feature","properties":{"kind":"station","name":"4+700","chainage_m":4700,"km":4.7,"major":false},"geometry":{"type":"Point","coordinates":[73.89669727,18.54229743]}},{"type":"Feature","properties":{"kind":"station","name":"4+800","chainage_m":4800,"km":4.8,"major":false},"geometry":{"type":"Point","coordinates":[73.89762331,18.54210666]}},{"type":"Feature","properties":{"kind":"station","name":"4+900","chainage_m":4900,"km":4.9,"major":false},"geometry":{"type":"Point","coordinates":[73.89855121,18.54192426]}},{"type":"Feature","properties":{"kind":"station","name":"5+000","chainage_m":5000,"km":5,"major":true},"geometry":{"type":"Point","coordinates":[73.89948182,18.54175497]}},{"type":"Feature","properties":{"kind":"station","name":"5+100","chainage_m":5100,"km":5.1,"major":false},"geometry":{"type":"Point","coordinates":[73.90041633,18.54160659]}},{"type":"Feature","properties":{"kind":"station","name":"5+200","chainage_m":5200,"km":5.2,"major":false},"geometry":{"type":"Point","coordinates":[73.90135489,18.5414837]}},{"type":"Feature","properties":{"kind":"station","name":"5+300","chainage_m":5300,"km":5.3,"major":false},"geometry":{"type":"Point","coordinates":[73.90229666,18.5413856]}},{"type":"Feature","properties":{"kind":"station","name":"5+400","chainage_m":5400,"km":5.4,"major":false},"geometry":{"type":"Point","coordinates":[73.90324069,18.54130979]}},{"type":"Feature","properties":{"kind":"station","name":"5+500","chainage_m":5500,"km":5.5,"major":false},"geometry":{"type":"Point","coordinates":[73.9041861,18.54125128]}},{"type":"Feature","properties":{"kind":"station","name":"5+600","chainage_m":5600,"km":5.6,"major":false},"geometry":{"type":"Point","coordinates":[73.90513184,18.54119787]}},{"type":"Feature","properties":{"kind":"station","name":"5+700","chainage_m":5700,"km":5.7,"major":false},"geometry":{"type":"Point","coordinates":[73.90607695,18.54113527]}},{"type":"Feature","properties":{"kind":"station","name":"5+800","chainage_m":5800,"km":5.8,"major":false},"geometry":{"type":"Point","coordinates":[73.90702097,18.54105922]}},{"type":"Feature","properties":{"kind":"station","name":"5+900","chainage_m":5900,"km":5.9,"major":false},"geometry":{"type":"Point","coordinates":[73.90796372,18.54096986]}},{"type":"Feature","properties":{"kind":"station","name":"6+000","chainage_m":6000,"km":6,"major":true},"geometry":{"type":"Point","coordinates":[73.90890379,18.5408581]}},{"type":"Feature","properties":{"kind":"station","name":"6+100","chainage_m":6100,"km":6.1,"major":false},"geometry":{"type":"Point","coordinates":[73.90983844,18.54071082]}},{"type":"Feature","properties":{"kind":"station","name":"6+200","chainage_m":6200,"km":6.2,"major":false},"geometry":{"type":"Point","coordinates":[73.91076607,18.54052741]}},{"type":"Feature","properties":{"kind":"station","name":"6+300","chainage_m":6300,"km":6.3,"major":false},"geometry":{"type":"Point","coordinates":[73.91168884,18.54032276]}},{"type":"Feature","properties":{"kind":"station","name":"6+400","chainage_m":6400,"km":6.4,"major":false},"geometry":{"type":"Point","coordinates":[73.91261057,18.54011387]}},{"type":"Feature","properties":{"kind":"station","name":"6+500","chainage_m":6500,"km":6.5,"major":false},"geometry":{"type":"Point","coordinates":[73.91353383,18.53991119]}},{"type":"Feature","properties":{"kind":"station","name":"6+600","chainage_m":6600,"km":6.6,"major":false},"geometry":{"type":"Point","coordinates":[73.91446042,18.53972298]}},{"type":"Feature","properties":{"kind":"station","name":"6+700","chainage_m":6700,"km":6.7,"major":false},"geometry":{"type":"Point","coordinates":[73.91539236,18.53956071]}},{"type":"Feature","properties":{"kind":"station","name":"6+800","chainage_m":6800,"km":6.8,"major":false},"geometry":{"type":"Point","coordinates":[73.91633013,18.5394327]}},{"type":"Feature","properties":{"kind":"station","name":"6+900","chainage_m":6900,"km":6.9,"major":false},"geometry":{"type":"Point","coordinates":[73.91727193,18.53933496]}},{"type":"Feature","properties":{"kind":"station","name":"7+000","chainage_m":7000,"km":7,"major":true},"geometry":{"type":"Point","coordinates":[73.91821561,18.53925506]}},{"type":"Feature","properties":{"kind":"station","name":"7+100","chainage_m":7100,"km":7.1,"major":false},"geometry":{"type":"Point","coordinates":[73.91915971,18.53917982]}},{"type":"Feature","properties":{"kind":"station","name":"7+200","chainage_m":7200,"km":7.2,"major":false},"geometry":{"type":"Point","coordinates":[73.92010317,18.5390977]}},{"type":"Feature","properties":{"kind":"station","name":"7+300","chainage_m":7300,"km":7.3,"major":false},"geometry":{"type":"Point","coordinates":[73.92104523,18.53900207]}},{"type":"Feature","properties":{"kind":"station","name":"7+400","chainage_m":7400,"km":7.4,"major":false},"geometry":{"type":"Point","coordinates":[73.92198575,18.53889355]}},{"type":"Feature","properties":{"kind":"station","name":"7+500","chainage_m":7500,"km":7.5,"major":false},"geometry":{"type":"Point","coordinates":[73.92292488,18.5387745]}},{"type":"Feature","properties":{"kind":"station","name":"7+600","chainage_m":7600,"km":7.6,"major":false},"geometry":{"type":"Point","coordinates":[73.92386182,18.53864079]}},{"type":"Feature","properties":{"kind":"station","name":"7+700","chainage_m":7700,"km":7.7,"major":false},"geometry":{"type":"Point","coordinates":[73.92479439,18.53848184]}},{"type":"Feature","properties":{"kind":"station","name":"7+800","chainage_m":7800,"km":7.8,"major":false},"geometry":{"type":"Point","coordinates":[73.92571995,18.53828928]}},{"type":"Feature","properties":{"kind":"station","name":"7+900","chainage_m":7900,"km":7.9,"major":false},"geometry":{"type":"Point","coordinates":[73.92663666,18.53806144]}},{"type":"Feature","properties":{"kind":"station","name":"8+000","chainage_m":8000,"km":8,"major":true},"geometry":{"type":"Point","coordinates":[73.9275436,18.53780039]}},{"type":"Feature","properties":{"kind":"station","name":"8+100","chainage_m":8100,"km":8.1,"major":false},"geometry":{"type":"Point","coordinates":[73.92844159,18.53751248]}},{"type":"Feature","properties":{"kind":"station","name":"8+200","chainage_m":8200,"km":8.2,"major":false},"geometry":{"type":"Point","coordinates":[73.92933555,18.53721331]}},{"type":"Feature","properties":{"kind":"station","name":"8+300","chainage_m":8300,"km":8.3,"major":false},"geometry":{"type":"Point","coordinates":[73.93023334,18.53692484]}},{"type":"Feature","properties":{"kind":"station","name":"8+400","chainage_m":8400,"km":8.4,"major":false},"geometry":{"type":"Point","coordinates":[73.93114086,18.53666572]}},{"type":"Feature","properties":{"kind":"station","name":"8+500","chainage_m":8500,"km":8.5,"major":false},"geometry":{"type":"Point","coordinates":[73.9320593,18.53644438]}},{"type":"Feature","properties":{"kind":"station","name":"8+600","chainage_m":8600,"km":8.6,"major":false},"geometry":{"type":"Point","coordinates":[73.93298604,18.53625697]}},{"type":"Feature","properties":{"kind":"station","name":"8+700","chainage_m":8700,"km":8.7,"major":false},"geometry":{"type":"Point","coordinates":[73.93391752,18.53609223]}},{"type":"Feature","properties":{"kind":"station","name":"8+800","chainage_m":8800,"km":8.8,"major":false},"geometry":{"type":"Point","coordinates":[73.93485248,18.53594658]}},{"type":"Feature","properties":{"kind":"station","name":"8+900","chainage_m":8900,"km":8.9,"major":false},"geometry":{"type":"Point","coordinates":[73.93579336,18.53584252]}},{"type":"Feature","properties":{"kind":"station","name":"9+000","chainage_m":9000,"km":9,"major":true},"geometry":{"type":"Point","coordinates":[73.93673994,18.53582657]}},{"type":"Feature","properties":{"kind":"station","name":"9+100","chainage_m":9100,"km":9.1,"major":false},"geometry":{"type":"Point","coordinates":[73.9376785,18.53594162]}},{"type":"Feature","properties":{"kind":"station","name":"9+200","chainage_m":9200,"km":9.2,"major":false},"geometry":{"type":"Point","coordinates":[73.93857911,18.53621688]}},{"type":"Feature","properties":{"kind":"station","name":"9+300","chainage_m":9300,"km":9.3,"major":false},"geometry":{"type":"Point","coordinates":[73.93939281,18.53667527]}},{"type":"Feature","properties":{"kind":"station","name":"9+400","chainage_m":9400,"km":9.4,"major":false},"geometry":{"type":"Point","coordinates":[73.94006972,18.53730466]}},{"type":"Feature","properties":{"kind":"station","name":"9+500","chainage_m":9500,"km":9.5,"major":false},"geometry":{"type":"Point","coordinates":[73.94061089,18.53804531]}},{"type":"Feature","properties":{"kind":"station","name":"9+600","chainage_m":9600,"km":9.6,"major":false},"geometry":{"type":"Point","coordinates":[73.94106095,18.53884021]}},{"type":"Feature","properties":{"kind":"station","name":"9+700","chainage_m":9700,"km":9.7,"major":false},"geometry":{"type":"Point","coordinates":[73.94146524,18.53965743]}},{"type":"Feature","properties":{"kind":"station","name":"9+800","chainage_m":9800,"km":9.8,"major":false},"geometry":{"type":"Point","coordinates":[73.94186063,18.54047864]}},{"type":"Feature","properties":{"kind":"station","name":"9+900","chainage_m":9900,"km":9.9,"major":false},"geometry":{"type":"Point","coordinates":[73.94227507,18.54129122]}},{"type":"Feature","properties":{"kind":"station","name":"10+000","chainage_m":10000,"km":10,"major":true},"geometry":{"type":"Point","coordinates":[73.94272595,18.54208588]}},{"type":"Feature","properties":{"kind":"station","name":"10+100","chainage_m":10100,"km":10.1,"major":false},"geometry":{"type":"Point","coordinates":[73.94323028,18.54285058]}},{"type":"Feature","properties":{"kind":"station","name":"10+200","chainage_m":10200,"km":10.2,"major":false},"geometry":{"type":"Point","coordinates":[73.94381175,18.54356335]}},{"type":"Feature","properties":{"kind":"station","name":"10+300","chainage_m":10300,"km":10.3,"major":false},"geometry":{"type":"Point","coordinates":[73.94448962,18.54419338]}},{"type":"Feature","properties":{"kind":"station","name":"10+400","chainage_m":10400,"km":10.4,"major":false},"geometry":{"type":"Point","coordinates":[73.94526868,18.54470538]}},{"type":"Feature","properties":{"kind":"station","name":"10+500","chainage_m":10500,"km":10.5,"major":false},"geometry":{"type":"Point","coordinates":[73.94613698,18.54506312]}},{"type":"Feature","properties":{"kind":"station","name":"10+600","chainage_m":10600,"km":10.6,"major":false},"geometry":{"type":"Point","coordinates":[73.94705954,18.54526451]}},{"type":"Feature","properties":{"kind":"station","name":"10+700","chainage_m":10700,"km":10.7,"major":false},"geometry":{"type":"Point","coordinates":[73.9480018,18.54535568]}},{"type":"Feature","properties":{"kind":"station","name":"10+800","chainage_m":10800,"km":10.8,"major":false},"geometry":{"type":"Point","coordinates":[73.94894847,18.54539033]}},{"type":"Feature","properties":{"kind":"station","name":"10+900","chainage_m":10900,"km":10.9,"major":false},"geometry":{"type":"Point","coordinates":[73.94989564,18.54541177]}},{"type":"Feature","properties":{"kind":"station","name":"11+000","chainage_m":11000,"km":11,"major":true},"geometry":{"type":"Point","coordinates":[73.95084156,18.54546089]}},{"type":"Feature","properties":{"kind":"station","name":"11+100","chainage_m":11100,"km":11.1,"major":false},"geometry":{"type":"Point","coordinates":[73.95178291,18.545562]}},{"type":"Feature","properties":{"kind":"station","name":"11+200","chainage_m":11200,"km":11.2,"major":false},"geometry":{"type":"Point","coordinates":[73.95271856,18.54570385]}},{"type":"Feature","properties":{"kind":"station","name":"11+300","chainage_m":11300,"km":11.3,"major":false},"geometry":{"type":"Point","coordinates":[73.95365161,18.5458607]}},{"type":"Feature","properties":{"kind":"station","name":"11+400","chainage_m":11400,"km":11.4,"major":false},"geometry":{"type":"Point","coordinates":[73.95458374,18.54602251]}},{"type":"Feature","properties":{"kind":"station","name":"11+500","chainage_m":11500,"km":11.5,"major":false},"geometry":{"type":"Point","coordinates":[73.95551508,18.54618836]}},{"type":"Feature","properties":{"kind":"station","name":"11+600","chainage_m":11600,"km":11.6,"major":false},"geometry":{"type":"Point","coordinates":[73.95644764,18.5463478]}},{"type":"Feature","properties":{"kind":"station","name":"11+700","chainage_m":11700,"km":11.7,"major":false},"geometry":{"type":"Point","coordinates":[73.9573854,18.54647583]}},{"type":"Feature","properties":{"kind":"station","name":"11+800","chainage_m":11800,"km":11.8,"major":false},"geometry":{"type":"Point","coordinates":[73.95833062,18.54653022]}},{"type":"Feature","properties":{"kind":"station","name":"11+900","chainage_m":11900,"km":11.9,"major":false},"geometry":{"type":"Point","coordinates":[73.95927381,18.54645729]}},{"type":"Feature","properties":{"kind":"station","name":"12+000","chainage_m":12000,"km":12,"major":true},"geometry":{"type":"Point","coordinates":[73.9601881,18.54622533]}},{"type":"Feature","properties":{"kind":"station","name":"12+100","chainage_m":12100,"km":12.1,"major":false},"geometry":{"type":"Point","coordinates":[73.96105274,18.54585751]}},{"type":"Feature","properties":{"kind":"station","name":"12+200","chainage_m":12200,"km":12.2,"major":false},"geometry":{"type":"Point","coordinates":[73.96187897,18.54541549]}},{"type":"Feature","properties":{"kind":"station","name":"12+300","chainage_m":12300,"km":12.3,"major":false},"geometry":{"type":"Point","coordinates":[73.96269617,18.54495825]}},{"type":"Feature","properties":{"kind":"station","name":"12+400","chainage_m":12400,"km":12.4,"major":false},"geometry":{"type":"Point","coordinates":[73.96352738,18.54452476]}},{"type":"Feature","properties":{"kind":"station","name":"12+500","chainage_m":12500,"km":12.5,"major":false},"geometry":{"type":"Point","coordinates":[73.96438404,18.54413922]}},{"type":"Feature","properties":{"kind":"station","name":"12+600","chainage_m":12600,"km":12.6,"major":false},"geometry":{"type":"Point","coordinates":[73.96526804,18.54381473]}},{"type":"Feature","properties":{"kind":"station","name":"12+700","chainage_m":12700,"km":12.7,"major":false},"geometry":{"type":"Point","coordinates":[73.9661728,18.54354701]}},{"type":"Feature","properties":{"kind":"station","name":"12+800","chainage_m":12800,"km":12.8,"major":false},"geometry":{"type":"Point","coordinates":[73.96708865,18.5433158]}},{"type":"Feature","properties":{"kind":"station","name":"12+900","chainage_m":12900,"km":12.9,"major":false},"geometry":{"type":"Point","coordinates":[73.96800761,18.54309596]}},{"type":"Feature","properties":{"kind":"station","name":"13+000","chainage_m":13000,"km":13,"major":true},"geometry":{"type":"Point","coordinates":[73.96892296,18.54286293]}},{"type":"Feature","properties":{"kind":"station","name":"13+100","chainage_m":13100,"km":13.1,"major":false},"geometry":{"type":"Point","coordinates":[73.96982743,18.54259425]}},{"type":"Feature","properties":{"kind":"station","name":"13+200","chainage_m":13200,"km":13.2,"major":false},"geometry":{"type":"Point","coordinates":[73.97071192,18.542271]}},{"type":"Feature","properties":{"kind":"station","name":"13+300","chainage_m":13300,"km":13.3,"major":false},"geometry":{"type":"Point","coordinates":[73.9715604,18.54187009]}},{"type":"Feature","properties":{"kind":"station","name":"13+400","chainage_m":13400,"km":13.4,"major":false},"geometry":{"type":"Point","coordinates":[73.97234355,18.54136314]}},{"type":"Feature","properties":{"kind":"station","name":"13+500","chainage_m":13500,"km":13.5,"major":false},"geometry":{"type":"Point","coordinates":[73.97303413,18.54074575]}},{"type":"Feature","properties":{"kind":"station","name":"13+600","chainage_m":13600,"km":13.6,"major":false},"geometry":{"type":"Point","coordinates":[73.97362504,18.54004027]}},{"type":"Feature","properties":{"kind":"station","name":"13+700","chainage_m":13700,"km":13.7,"major":false},"geometry":{"type":"Point","coordinates":[73.97411516,18.53926759]}},{"type":"Feature","properties":{"kind":"station","name":"13+800","chainage_m":13800,"km":13.8,"major":false},"geometry":{"type":"Point","coordinates":[73.9745116,18.53844724]}},{"type":"Feature","properties":{"kind":"station","name":"13+900","chainage_m":13900,"km":13.9,"major":false},"geometry":{"type":"Point","coordinates":[73.97484455,18.53760129]}},{"type":"Feature","properties":{"kind":"station","name":"14+000","chainage_m":14000,"km":14,"major":true},"geometry":{"type":"Point","coordinates":[73.97516014,18.53674922]}},{"type":"Feature","properties":{"kind":"station","name":"14+100","chainage_m":14100,"km":14.1,"major":false},"geometry":{"type":"Point","coordinates":[73.97549862,18.53590526]}},{"type":"Feature","properties":{"kind":"station","name":"14+200","chainage_m":14200,"km":14.2,"major":false},"geometry":{"type":"Point","coordinates":[73.97587878,18.53507763]}},{"type":"Feature","properties":{"kind":"station","name":"14+300","chainage_m":14300,"km":14.3,"major":false},"geometry":{"type":"Point","coordinates":[73.97630412,18.53427028]}},{"type":"Feature","properties":{"kind":"station","name":"14+400","chainage_m":14400,"km":14.4,"major":false},"geometry":{"type":"Point","coordinates":[73.97678183,18.53349014]}},{"type":"Feature","properties":{"kind":"station","name":"14+500","chainage_m":14500,"km":14.5,"major":false},"geometry":{"type":"Point","coordinates":[73.97732587,18.53275072]}},{"type":"Feature","properties":{"kind":"station","name":"14+600","chainage_m":14600,"km":14.6,"major":false},"geometry":{"type":"Point","coordinates":[73.97793893,18.53206216]}},{"type":"Feature","properties":{"kind":"station","name":"14+700","chainage_m":14700,"km":14.7,"major":false},"geometry":{"type":"Point","coordinates":[73.97860787,18.53142252]}},{"type":"Feature","properties":{"kind":"station","name":"14+800","chainage_m":14800,"km":14.8,"major":false},"geometry":{"type":"Point","coordinates":[73.97931618,18.53082256]}},{"type":"Feature","properties":{"kind":"station","name":"14+900","chainage_m":14900,"km":14.9,"major":false},"geometry":{"type":"Point","coordinates":[73.98005127,18.53025259]}},{"type":"Feature","properties":{"kind":"station","name":"15+000","chainage_m":15000,"km":15,"major":true},"geometry":{"type":"Point","coordinates":[73.98080577,18.52970615]}},{"type":"Feature","properties":{"kind":"station","name":"15+100","chainage_m":15100,"km":15.1,"major":false},"geometry":{"type":"Point","coordinates":[73.9815766,18.52918088]}},{"type":"Feature","properties":{"kind":"station","name":"15+200","chainage_m":15200,"km":15.2,"major":false},"geometry":{"type":"Point","coordinates":[73.98236217,18.52867583]}},{"type":"Feature","properties":{"kind":"station","name":"15+300","chainage_m":15300,"km":15.3,"major":false},"geometry":{"type":"Point","coordinates":[73.98315859,18.52818649]}},{"type":"Feature","properties":{"kind":"station","name":"15+400","chainage_m":15400,"km":15.4,"major":false},"geometry":{"type":"Point","coordinates":[73.98396062,18.52770553]}},{"type":"Feature","properties":{"kind":"station","name":"15+500","chainage_m":15500,"km":15.5,"major":false},"geometry":{"type":"Point","coordinates":[73.98476749,18.52723201]}},{"type":"Feature","properties":{"kind":"station","name":"15+600","chainage_m":15600,"km":15.6,"major":false},"geometry":{"type":"Point","coordinates":[73.98558104,18.52676902]}},{"type":"Feature","properties":{"kind":"station","name":"15+700","chainage_m":15700,"km":15.7,"major":false},"geometry":{"type":"Point","coordinates":[73.98639676,18.5263095]}},{"type":"Feature","properties":{"kind":"station","name":"15+800","chainage_m":15800,"km":15.8,"major":false},"geometry":{"type":"Point","coordinates":[73.98720357,18.52583594]}},{"type":"Feature","properties":{"kind":"station","name":"15+900","chainage_m":15900,"km":15.9,"major":false},"geometry":{"type":"Point","coordinates":[73.98799267,18.52533602]}},{"type":"Feature","properties":{"kind":"station","name":"16+000","chainage_m":16000,"km":16,"major":true},"geometry":{"type":"Point","coordinates":[73.9887621,18.52480892]}},{"type":"Feature","properties":{"kind":"station","name":"16+100","chainage_m":16100,"km":16.1,"major":false},"geometry":{"type":"Point","coordinates":[73.98951025,18.52425467]}},{"type":"Feature","properties":{"kind":"station","name":"16+200","chainage_m":16200,"km":16.2,"major":false},"geometry":{"type":"Point","coordinates":[73.99023389,18.52367156]}},{"type":"Feature","properties":{"kind":"station","name":"16+300","chainage_m":16300,"km":16.3,"major":false},"geometry":{"type":"Point","coordinates":[73.99093694,18.5230659]}},{"type":"Feature","properties":{"kind":"station","name":"16+400","chainage_m":16400,"km":16.4,"major":false},"geometry":{"type":"Point","coordinates":[73.99163603,18.52245607]}}]}