{"type":"FeatureCollection","name":"Mula-Mutha NDWI — Water Detection class","source_name":"1786697404249_NDWI_Class_2026-05-01_2026-05-31","period":{"start":"2026-05-01","end":"2026-05-31"},"legend":[{"class":1,"label":"Land / Non-water","range":"NDWI < 0"},{"class":2,"label":"Water","range":"NDWI ≥ 0"}],"features":[{"type":"Feature","properties":{"class":1,"label":"Land / Non-water","name":"Class 1 - 1","parameter":"NDWI — Water Detection"},"geometry":{"type":"Polygon","coordinates":[[[73.9506616616452,18.5455393775907],[73.9506616616452,18.545269883005464],[73.95093115623044,18.545269883005464],[73.95093115623044,18.5455393775907],[73.9506616616452,18.5455393775907]]]}},{"type":"Feature","properties":{"class":1,"label":"Land / Non-water","name":"Class 1 - 2","parameter":"NDWI — Water Detection"},"geometry":{"type":"Polygon","coordinates":[[[73.95712953169087,18.54742583968735],[73.95712953169087,18.547156345102113],[73.95578205876468,18.547156345102113],[73.95578205876468,18.546886850516877],[73.9544345858385,18.546886850516877],[73.9544345858385,18.54661735593164],[73.95120065081566,18.54661735593164],[73.95120065081566,18.546347861346405],[73.94554126452572,18.546347861346405],[73.94554126452572,18.54607836676117],[73.94500227535525,18.54607836676117],[73.94500227535525,18.545808872175936],[73.94446328618477,18.545808872175936],[73.94446328618477,18.5455393775907],[73.94419379159955,18.5455393775907],[73.94419379159955,18.545269883005464],[73.94365480242907,18.545269883005464],[73.94365480242907,18.545000388420227],[73.94338530784383,18.545000388420227],[73.94338530784383,18.54473089383499],[73.94284631867336,18.54473089383499],[73.94284631867336,18.54419190466452],[73.94257682408812,18.54419190466452],[73.94257682408812,18.543922410079283],[73.94230732950288,18.543922410079283],[73.94230732950288,18.54338342090881],[73.94203783491766,18.54338342090881],[73.94203783491766,18.54284443173834],[73.94176834033242,18.54284443173834],[73.94176834033242,18.54230544256787],[73.94149884574718,18.54230544256787],[73.94149884574718,18.541766453397397],[73.94122935116195,18.541766453397397],[73.94122935116195,18.541227464226925],[73.94095985657671,18.541227464226925],[73.94095985657671,18.540688475056452],[73.94069036199147,18.540688475056452],[73.94069036199147,18.54014948588598],[73.94042086740623,18.54014948588598],[73.94042086740623,18.539341002130275],[73.940151372821,18.539341002130275],[73.940151372821,18.538802012959803],[73.93988187823577,18.538802012959803],[73.93988187823577,18.53826302378933],[73.93961238365053,18.53826302378933],[73.93961238365053,18.537993529204094],[73.93934288906529,18.537993529204094],[73.93934288906529,18.537724034618858],[73.93907339448006,18.537724034618858],[73.93907339448006,18.53745454003362],[73.93880389989482,18.53745454003362],[73.93880389989482,18.537185045448386],[73.93853440530958,18.537185045448386],[73.93853440530958,18.53691555086315],[73.93556996487199,18.53691555086315],[73.93556996487199,18.537185045448386],[73.93503097570152,18.537185045448386],[73.93503097570152,18.53745454003362],[73.93449198653104,18.53745454003362],[73.93449198653104,18.537185045448386],[73.9334140081901,18.537185045448386],[73.9334140081901,18.53691555086315],[73.93314451360487,18.53691555086315],[73.93314451360487,18.537185045448386],[73.93179704067869,18.537185045448386],[73.93179704067869,18.53745454003362],[73.93071906233774,18.53745454003362],[73.93071906233774,18.537724034618858],[73.92991057858204,18.537724034618858],[73.92991057858204,18.537993529204094],[73.92937158941157,18.537993529204094],[73.92937158941157,18.53826302378933],[73.9288326002411,18.53826302378933],[73.9288326002411,18.538532518374566],[73.92802411648539,18.538532518374566],[73.92802411648539,18.538802012959803],[73.92694613814444,18.538802012959803],[73.92694613814444,18.53907150754504],[73.92532917063303,18.53907150754504],[73.92532917063303,18.539341002130275],[73.92371220312161,18.539341002130275],[73.92371220312161,18.53961049671551],[73.9220952356102,18.53961049671551],[73.9220952356102,18.539879991300747],[73.92020877351355,18.539879991300747],[73.92020877351355,18.54014948588598],[73.91643584932025,18.54014948588598],[73.91643584932025,18.540418980471216],[73.91481888180883,18.540418980471216],[73.91481888180883,18.540688475056452],[73.91320191429742,18.540688475056452],[73.91320191429742,18.54095796964169],[73.91185444137123,18.54095796964169],[73.91185444137123,18.541227464226925],[73.91104595761553,18.541227464226925],[73.91104595761553,18.54149695881216],[73.90915949551888,18.54149695881216],[73.90915949551888,18.541766453397397],[73.90673404425175,18.541766453397397],[73.90673404425175,18.542035947982633],[73.90296112005845,18.542035947982633],[73.90296112005845,18.54230544256787],[73.90080516337656,18.54230544256787],[73.90080516337656,18.542574937153105],[73.89918819586515,18.542574937153105],[73.89918819586515,18.54284443173834],[73.89784072293897,18.54284443173834],[73.89784072293897,18.543113926323574],[73.8964932500128,18.543113926323574],[73.8964932500128,18.54338342090881],[73.89541527167185,18.54338342090881],[73.89541527167185,18.543652915494047],[73.8943372933309,18.543652915494047],[73.8943372933309,18.543922410079283],[73.8935288095752,18.543922410079283],[73.8935288095752,18.54419190466452],[73.89245083123426,18.54419190466452],[73.89245083123426,18.544461399249755],[73.89083386372285,18.544461399249755],[73.89083386372285,18.54473089383499],[73.88948639079666,18.54473089383499],[73.88948639079666,18.544461399249755],[73.88463548826242,18.544461399249755],[73.88463548826242,18.54419190466452],[73.883018520751,18.54419190466452],[73.883018520751,18.543922410079283],[73.88113205865434,18.543922410079283],[73.88113205865434,18.543652915494047],[73.87978458572817,18.543652915494047],[73.87978458572817,18.54338342090881],[73.87870660738723,18.54338342090881],[73.87870660738723,18.543113926323574],[73.87762862904628,18.543113926323574],[73.87762862904628,18.54284443173834],[73.87655065070534,18.54284443173834],[73.87655065070534,18.542574937153105],[73.87574216694964,18.542574937153105],[73.87574216694964,18.54230544256787],[73.87493368319393,18.54230544256787],[73.87493368319393,18.542035947982633],[73.87412519943821,18.542035947982633],[73.87412519943821,18.541766453397397],[73.8733167156825,18.541766453397397],[73.8733167156825,18.54149695881216],[73.87277772651204,18.54149695881216],[73.87277772651204,18.541227464226925],[73.87196924275634,18.541227464226925],[73.87196924275634,18.54095796964169],[73.87116075900062,18.54095796964169],[73.87116075900062,18.540688475056452],[73.87062176983015,18.540688475056452],[73.87062176983015,18.540418980471216],[73.86981328607445,18.540418980471216],[73.86981328607445,18.54014948588598],[73.86900480231874,18.54014948588598],[73.86900480231874,18.539879991300747],[73.86819631856302,18.539879991300747],[73.86819631856302,18.53961049671551],[73.86738783480732,18.53961049671551],[73.86738783480732,18.539341002130275],[73.86657935105161,18.539341002130275],[73.86657935105161,18.53907150754504],[73.86630985646637,18.53907150754504],[73.86630985646637,18.538802012959803],[73.86577086729591,18.538802012959803],[73.86577086729591,18.538532518374566],[73.86550137271067,18.538532518374566],[73.86550137271067,18.53826302378933],[73.8649623835402,18.53826302378933],[73.8649623835402,18.537993529204094],[73.86469288895496,18.537993529204094],[73.86469288895496,18.537724034618858],[73.86415389978448,18.537724034618858],[73.86415389978448,18.53745454003362],[73.86388440519926,18.53745454003362],[73.86388440519926,18.537185045448386],[73.86361491061402,18.537185045448386],[73.86361491061402,18.53691555086315],[73.86334541602878,18.53691555086315],[73.86334541602878,18.53637656169268],[73.86307592144355,18.53637656169268],[73.86307592144355,18.536107067107444],[73.86280642685831,18.536107067107444],[73.86280642685831,18.535568077936972],[73.86253693227307,18.535568077936972],[73.86253693227307,18.5350290887665],[73.86226743768783,18.5350290887665],[73.86226743768783,18.534490099596027],[73.86199794310261,18.534490099596027],[73.86199794310261,18.533951110425555],[73.86172844851737,18.533951110425555],[73.86172844851737,18.533412121255086],[73.86145895393213,18.533412121255086],[73.86145895393213,18.53314262666985],[73.86118945934689,18.53314262666985],[73.86118945934689,18.532873132084614],[73.86091996476166,18.532873132084614],[73.86091996476166,18.532603637499378],[73.86038097559118,18.532603637499378],[73.86038097559118,18.53233414291414],[73.85984198642072,18.53233414291414],[73.85984198642072,18.532064648328905],[73.85903350266501,18.532064648328905],[73.85903350266501,18.53179515374367],[73.85849451349453,18.53179515374367],[73.85849451349453,18.532064648328905],[73.85768602973883,18.532064648328905],[73.85768602973883,18.53233414291414],[73.85714704056836,18.53233414291414],[73.85714704056836,18.532603637499378],[73.85687754598312,18.532603637499378],[73.85687754598312,18.532873132084614],[73.85660805139788,18.532873132084614],[73.85660805139788,18.53314262666985],[73.85633855681264,18.53314262666985],[73.85633855681264,18.533412121255086],[73.85553007305694,18.533412121255086],[73.85553007305694,18.53314262666985],[73.85579956764218,18.53314262666985],[73.85579956764218,18.532873132084614],[73.85472158930123,18.532873132084614],[73.85472158930123,18.532603637499378],[73.85499108388647,18.532603637499378],[73.85499108388647,18.532064648328905],[73.8552605784717,18.532064648328905],[73.8552605784717,18.53179515374367],[73.85579956764218,18.53179515374367],[73.85579956764218,18.531525659158433],[73.85633855681264,18.531525659158433],[73.85633855681264,18.531256164573197],[73.85660805139788,18.531256164573197],[73.85660805139788,18.53098666998796],[73.85714704056836,18.53098666998796],[73.85714704056836,18.530717175402728],[73.85768602973883,18.530717175402728],[73.85768602973883,18.530447680817492],[73.85795552432407,18.530447680817492],[73.85795552432407,18.530178186232256],[73.85876400807977,18.530178186232256],[73.85876400807977,18.52990869164702],[73.85930299725024,18.52990869164702],[73.85930299725024,18.529639197061783],[73.86118945934689,18.529639197061783],[73.86118945934689,18.530717175402728],[73.86145895393213,18.530717175402728],[73.86145895393213,18.531256164573197],[73.86172844851737,18.531256164573197],[73.86172844851737,18.531525659158433],[73.86199794310261,18.531525659158433],[73.86199794310261,18.53179515374367],[73.86226743768783,18.53179515374367],[73.86226743768783,18.532064648328905],[73.86253693227307,18.532064648328905],[73.86253693227307,18.53233414291414],[73.86280642685831,18.53233414291414],[73.86280642685831,18.532603637499378],[73.86307592144355,18.532603637499378],[73.86307592144355,18.532873132084614],[73.8649623835402,18.532873132084614],[73.8649623835402,18.532603637499378],[73.86550137271067,18.532603637499378],[73.86550137271067,18.532873132084614],[73.86604036188115,18.532873132084614],[73.86604036188115,18.53314262666985],[73.86657935105161,18.53314262666985],[73.86657935105161,18.533412121255086],[73.86684884563685,18.533412121255086],[73.86684884563685,18.533951110425555],[73.86711834022208,18.533951110425555],[73.86711834022208,18.53422060501079],[73.86738783480732,18.53422060501079],[73.86738783480732,18.534490099596027],[73.86765732939256,18.534490099596027],[73.86765732939256,18.534759594181264],[73.8679268239778,18.534759594181264],[73.8679268239778,18.535298583351736],[73.86819631856302,18.535298583351736],[73.86819631856302,18.535568077936972],[73.86846581314826,18.535568077936972],[73.86846581314826,18.536107067107444],[73.8687353077335,18.536107067107444],[73.8687353077335,18.53637656169268],[73.86900480231874,18.53637656169268],[73.86900480231874,18.53691555086315],[73.86927429690397,18.53691555086315],[73.86927429690397,18.537185045448386],[73.8695437914892,18.537185045448386],[73.8695437914892,18.53745454003362],[73.86981328607445,18.53745454003362],[73.86981328607445,18.537724034618858],[73.87008278065967,18.537724034618858],[73.87008278065967,18.537993529204094],[73.87035227524491,18.537993529204094],[73.87035227524491,18.53826302378933],[73.87089126441539,18.53826302378933],[73.87089126441539,18.538532518374566],[73.87116075900062,18.538532518374566],[73.87116075900062,18.538802012959803],[73.87143025358586,18.538802012959803],[73.87143025358586,18.53907150754504],[73.87196924275634,18.53907150754504],[73.87196924275634,18.539341002130275],[73.8725082319268,18.539341002130275],[73.8725082319268,18.53961049671551],[73.8733167156825,18.53961049671551],[73.8733167156825,18.539879991300747],[73.87385570485299,18.539879991300747],[73.87385570485299,18.54014948588598],[73.87439469402345,18.54014948588598],[73.87439469402345,18.540418980471216],[73.87520317777916,18.540418980471216],[73.87520317777916,18.540688475056452],[73.87601166153486,18.540688475056452],[73.87601166153486,18.54095796964169],[73.87682014529058,18.54095796964169],[73.87682014529058,18.541227464226925],[73.87789812363152,18.541227464226925],[73.87789812363152,18.54149695881216],[73.8792455965577,18.54149695881216],[73.8792455965577,18.541766453397397],[73.88167104782482,18.541766453397397],[73.88167104782482,18.542035947982633],[73.88490498284764,18.542035947982633],[73.88490498284764,18.54230544256787],[73.88786942328525,18.54230544256787],[73.88786942328525,18.542574937153105],[73.89164234747855,18.542574937153105],[73.89164234747855,18.54230544256787],[73.89298982040472,18.54230544256787],[73.89298982040472,18.542035947982633],[73.89406779874567,18.542035947982633],[73.89406779874567,18.541766453397397],[73.89541527167185,18.541766453397397],[73.89541527167185,18.54149695881216],[73.89676274459804,18.54149695881216],[73.89676274459804,18.541227464226925],[73.8981102175242,18.541227464226925],[73.8981102175242,18.54095796964169],[73.89918819586515,18.54095796964169],[73.89918819586515,18.540688475056452],[73.9018831417175,18.540688475056452],[73.9018831417175,18.540418980471216],[73.90835101176317,18.540418980471216],[73.90835101176317,18.54014948588598],[73.90942899010412,18.54014948588598],[73.90942899010412,18.539879991300747],[73.91050696844506,18.539879991300747],[73.91050696844506,18.53961049671551],[73.91158494678601,18.53961049671551],[73.91158494678601,18.539341002130275],[73.91266292512694,18.539341002130275],[73.91266292512694,18.53907150754504],[73.91374090346788,18.53907150754504],[73.91374090346788,18.538802012959803],[73.91481888180883,18.538802012959803],[73.91481888180883,18.538532518374566],[73.91778332224642,18.538532518374566],[73.91778332224642,18.53826302378933],[73.9212867518545,18.53826302378933],[73.9212867518545,18.537993529204094],[73.92398169770685,18.537993529204094],[73.92398169770685,18.537724034618858],[73.92532917063303,18.537724034618858],[73.92532917063303,18.53745454003362],[73.92613765438874,18.53745454003362],[73.92613765438874,18.537185045448386],[73.92694613814444,18.537185045448386],[73.92694613814444,18.53691555086315],[73.92775462190015,18.53691555086315],[73.92775462190015,18.536646056277917],[73.92856310565585,18.536646056277917],[73.92856310565585,18.53637656169268],[73.92937158941157,18.53637656169268],[73.92937158941157,18.536107067107444],[73.9304495677525,18.536107067107444],[73.9304495677525,18.535837572522208],[73.93152754609345,18.535837572522208],[73.93152754609345,18.535568077936972],[73.9326055244344,18.535568077936972],[73.9326055244344,18.535298583351736],[73.9334140081901,18.535298583351736],[73.9334140081901,18.5350290887665],[73.93422249194582,18.5350290887665],[73.93422249194582,18.534759594181264],[73.93476148111628,18.534759594181264],[73.93476148111628,18.534490099596027],[73.93556996487199,18.534490099596027],[73.93556996487199,18.53422060501079],[73.93637844862769,18.53422060501079],[73.93637844862769,18.534490099596027],[73.93745642696864,18.534490099596027],[73.93745642696864,18.534759594181264],[73.93880389989482,18.534759594181264],[73.93880389989482,18.5350290887665],[73.93934288906529,18.5350290887665],[73.93934288906529,18.535298583351736],[73.93988187823577,18.535298583351736],[73.93988187823577,18.535568077936972],[73.94042086740623,18.535568077936972],[73.94042086740623,18.535837572522208],[73.94069036199147,18.535837572522208],[73.94069036199147,18.536107067107444],[73.94095985657671,18.536107067107444],[73.94095985657671,18.536646056277917],[73.94122935116195,18.536646056277917],[73.94122935116195,18.537185045448386],[73.94149884574718,18.537185045448386],[73.94149884574718,18.537724034618858],[73.94176834033242,18.537724034618858],[73.94176834033242,18.53826302378933],[73.94203783491766,18.53826302378933],[73.94203783491766,18.538802012959803],[73.94230732950288,18.538802012959803],[73.94230732950288,18.539341002130275],[73.94257682408812,18.539341002130275],[73.94257682408812,18.539879991300747],[73.94284631867336,18.539879991300747],[73.94284631867336,18.540688475056452],[73.9431158132586,18.540688475056452],[73.9431158132586,18.541227464226925],[73.94338530784383,18.541227464226925],[73.94338530784383,18.54149695881216],[73.94365480242907,18.54149695881216],[73.94365480242907,18.542035947982633],[73.9439242970143,18.542035947982633],[73.9439242970143,18.54230544256787],[73.94419379159955,18.54230544256787],[73.94419379159955,18.54284443173834],[73.94446328618477,18.54284443173834],[73.94446328618477,18.543113926323574],[73.94473278077001,18.543113926323574],[73.94473278077001,18.54338342090881],[73.94527176994048,18.54338342090881],[73.94527176994048,18.543652915494047],[73.94554126452572,18.543652915494047],[73.94554126452572,18.543922410079283],[73.94581075911096,18.543922410079283],[73.94581075911096,18.54419190466452],[73.94634974828142,18.54419190466452],[73.94634974828142,18.544461399249755],[73.9498531778895,18.544461399249755],[73.9498531778895,18.54419190466452],[73.9514701454009,18.54419190466452],[73.9514701454009,18.544461399249755],[73.95254812374185,18.544461399249755],[73.95254812374185,18.54473089383499],[73.95335660749755,18.54473089383499],[73.95335660749755,18.545000388420227],[73.9544345858385,18.545000388420227],[73.9544345858385,18.545269883005464],[73.95551256417944,18.545269883005464],[73.95551256417944,18.5455393775907],[73.95686003710563,18.5455393775907],[73.95686003710563,18.545808872175936],[73.95874649920228,18.545808872175936],[73.95874649920228,18.54607836676117],[73.95955498295798,18.54607836676117],[73.95955498295798,18.545808872175936],[73.95982447754322,18.545808872175936],[73.95982447754322,18.5455393775907],[73.96036346671369,18.5455393775907],[73.96036346671369,18.545269883005464],[73.96090245588417,18.545269883005464],[73.96090245588417,18.545000388420227],[73.96117195046939,18.545000388420227],[73.96117195046939,18.54473089383499],[73.96171093963987,18.54473089383499],[73.96171093963987,18.544461399249755],[73.96198043422511,18.544461399249755],[73.96198043422511,18.54419190466452],[73.96251942339558,18.54419190466452],[73.96251942339558,18.543922410079283],[73.96305841256606,18.543922410079283],[73.96305841256606,18.543652915494047],[73.96332790715128,18.543652915494047],[73.96332790715128,18.54338342090881],[73.96386689632176,18.54338342090881],[73.96386689632176,18.543113926323574],[73.96440588549223,18.543113926323574],[73.96440588549223,18.54284443173834],[73.96548386383317,18.54284443173834],[73.96548386383317,18.542574937153105],[73.96683133675936,18.542574937153105],[73.96683133675936,18.54230544256787],[73.96817880968553,18.54230544256787],[73.96817880968553,18.542035947982633],[73.96925678802647,18.542035947982633],[73.96925678802647,18.541766453397397],[73.96979577719695,18.541766453397397],[73.96979577719695,18.54149695881216],[73.97060426095265,18.54149695881216],[73.97060426095265,18.541227464226925],[73.97114325012312,18.541227464226925],[73.97114325012312,18.54095796964169],[73.9716822392936,18.54095796964169],[73.9716822392936,18.540688475056452],[73.9724907230493,18.540688475056452],[73.9724907230493,18.540418980471216],[73.97276021763454,18.540418980471216],[73.97276021763454,18.54014948588598],[73.97302971221977,18.54014948588598],[73.97302971221977,18.53961049671551],[73.97329920680501,18.53961049671551],[73.97329920680501,18.538802012959803],[73.97356870139025,18.538802012959803],[73.97356870139025,18.537993529204094],[73.97383819597549,18.537993529204094],[73.97383819597549,18.53745454003362],[73.97410769056071,18.53745454003362],[73.97410769056071,18.536646056277917],[73.97437718514595,18.536646056277917],[73.97437718514595,18.536107067107444],[73.9746466797312,18.536107067107444],[73.9746466797312,18.535568077936972],[73.97491617431643,18.535568077936972],[73.97491617431643,18.534759594181264],[73.97518566890166,18.534759594181264],[73.97518566890166,18.53422060501079],[73.9754551634869,18.53422060501079],[73.9754551634869,18.533681615840322],[73.97572465807214,18.533681615840322],[73.97572465807214,18.532873132084614],[73.97599415265736,18.532873132084614],[73.97599415265736,18.53233414291414],[73.9762636472426,18.53233414291414],[73.9762636472426,18.532064648328905],[73.97680263641308,18.532064648328905],[73.97680263641308,18.53179515374367],[73.97707213099831,18.53179515374367],[73.97707213099831,18.531525659158433],[73.97734162558355,18.531525659158433],[73.97734162558355,18.531256164573197],[73.97761112016879,18.531256164573197],[73.97761112016879,18.53098666998796],[73.97788061475403,18.53098666998796],[73.97788061475403,18.530717175402728],[73.97815010933925,18.530717175402728],[73.97815010933925,18.530447680817492],[73.9784196039245,18.530447680817492],[73.9784196039245,18.530178186232256],[73.97868909850973,18.530178186232256],[73.97868909850973,18.52990869164702],[73.97895859309496,18.52990869164702],[73.97895859309496,18.529639197061783],[73.97949758226544,18.529639197061783],[73.97949758226544,18.529369702476547],[73.97976707685068,18.529369702476547],[73.97976707685068,18.52910020789131],[73.98030606602114,18.52910020789131],[73.98030606602114,18.528830713306075],[73.98057556060638,18.528830713306075],[73.98057556060638,18.52856121872084],[73.98084505519162,18.52856121872084],[73.98084505519162,18.528291724135602],[73.98138404436209,18.528291724135602],[73.98138404436209,18.528022229550366],[73.98165353894733,18.528022229550366],[73.98165353894733,18.527752734965134],[73.98219252811779,18.527752734965134],[73.98219252811779,18.527483240379897],[73.98246202270303,18.527483240379897],[73.98246202270303,18.52721374579466],[73.9830010118735,18.52721374579466],[73.9830010118735,18.526944251209425],[73.98354000104398,18.526944251209425],[73.98354000104398,18.52667475662419],[73.98380949562922,18.52667475662419],[73.98380949562922,18.526405262038953],[73.98434848479968,18.526405262038953],[73.98434848479968,18.526135767453717],[73.98488747397015,18.526135767453717],[73.98488747397015,18.52586627286848],[73.98515696855539,18.52586627286848],[73.98515696855539,18.525596778283244],[73.98569595772587,18.525596778283244],[73.98569595772587,18.525327283698008],[73.98623494689633,18.525327283698008],[73.98623494689633,18.525057789112772],[73.98650444148157,18.525057789112772],[73.98650444148157,18.52478829452754],[73.98677393606681,18.52478829452754],[73.98677393606681,18.524518799942303],[73.98731292523728,18.524518799942303],[73.98731292523728,18.524249305357067],[73.98758241982252,18.524249305357067],[73.98758241982252,18.52397981077183],[73.98785191440774,18.52397981077183],[73.98785191440774,18.523710316186595],[73.98839090357822,18.523710316186595],[73.98839090357822,18.52344082160136],[73.98866039816346,18.52344082160136],[73.98866039816346,18.523171327016122],[73.98892989274869,18.523171327016122],[73.98892989274869,18.522901832430886],[73.98946888191917,18.522901832430886],[73.98946888191917,18.52263233784565],[73.9897383765044,18.52263233784565],[73.9897383765044,18.522362843260414],[73.99000787108963,18.522362843260414],[73.99000787108963,18.522093348675178],[73.99027736567487,18.522093348675178],[73.99027736567487,18.52182385408994],[73.99054686026011,18.52182385408994],[73.99054686026011,18.521284864919473],[73.99081635484534,18.521284864919473],[73.99081635484534,18.520745875749],[73.99189433318628,18.520745875749],[73.99189433318628,18.521015370334236],[73.99162483860106,18.521015370334236],[73.99162483860106,18.52155435950471],[73.99108584943058,18.52155435950471],[73.99108584943058,18.522362843260414],[73.99081635484534,18.522362843260414],[73.99081635484534,18.52263233784565],[73.99054686026011,18.52263233784565],[73.99054686026011,18.523171327016122],[73.99027736567487,18.523171327016122],[73.99027736567487,18.52344082160136],[73.99000787108963,18.52344082160136],[73.99000787108963,18.523171327016122],[73.9897383765044,18.523171327016122],[73.9897383765044,18.523710316186595],[73.98919938733393,18.523710316186595],[73.98919938733393,18.52397981077183],[73.98946888191917,18.52397981077183],[73.98946888191917,18.524249305357067],[73.99054686026011,18.524249305357067],[73.99054686026011,18.523710316186595],[73.99108584943058,18.523710316186595],[73.99108584943058,18.523171327016122],[73.99162483860106,18.523171327016122],[73.99162483860106,18.52263233784565],[73.99189433318628,18.52263233784565],[73.99189433318628,18.522093348675178],[73.99216382777152,18.522093348675178],[73.99216382777152,18.52182385408994],[73.99243332235676,18.52182385408994],[73.99243332235676,18.520745875749],[73.99297231152723,18.520745875749],[73.99297231152723,18.521015370334236],[73.9935113006977,18.521015370334236],[73.9935113006977,18.522362843260414],[73.99324180611247,18.522362843260414],[73.99324180611247,18.522901832430886],[73.99297231152723,18.522901832430886],[73.99297231152723,18.523171327016122],[73.992702816942,18.523171327016122],[73.992702816942,18.52344082160136],[73.99243332235676,18.52344082160136],[73.99243332235676,18.523710316186595],[73.99216382777152,18.523710316186595],[73.99216382777152,18.52397981077183],[73.99189433318628,18.52397981077183],[73.99189433318628,18.524249305357067],[73.99135534401582,18.524249305357067],[73.99135534401582,18.524518799942303],[73.99108584943058,18.524518799942303],[73.99108584943058,18.52478829452754],[73.99081635484534,18.52478829452754],[73.99081635484534,18.525057789112772],[73.99054686026011,18.525057789112772],[73.99054686026011,18.525327283698008],[73.99000787108963,18.525327283698008],[73.99000787108963,18.525596778283244],[73.9897383765044,18.525596778283244],[73.9897383765044,18.52586627286848],[73.98919938733393,18.52586627286848],[73.98919938733393,18.526135767453717],[73.98892989274869,18.526135767453717],[73.98892989274869,18.526405262038953],[73.98839090357822,18.526405262038953],[73.98839090357822,18.52667475662419],[73.98812140899298,18.52667475662419],[73.98812140899298,18.526944251209425],[73.98758241982252,18.526944251209425],[73.98758241982252,18.52721374579466],[73.98677393606681,18.52721374579466],[73.98677393606681,18.527483240379897],[73.98623494689633,18.527483240379897],[73.98623494689633,18.527752734965134],[73.98569595772587,18.527752734965134],[73.98569595772587,18.528022229550366],[73.98515696855539,18.528022229550366],[73.98515696855539,18.528291724135602],[73.98488747397015,18.528291724135602],[73.98488747397015,18.52856121872084],[73.98434848479968,18.52856121872084],[73.98434848479968,18.528830713306075],[73.98407899021444,18.528830713306075],[73.98407899021444,18.52910020789131],[73.98327050645874,18.52910020789131],[73.98327050645874,18.529369702476547],[73.98273151728827,18.529369702476547],[73.98273151728827,18.529639197061783],[73.98246202270303,18.529639197061783],[73.98246202270303,18.52990869164702],[73.98192303353255,18.52990869164702],[73.98192303353255,18.530178186232256],[73.98165353894733,18.530178186232256],[73.98165353894733,18.530447680817492],[73.98111454977685,18.530447680817492],[73.98111454977685,18.530717175402728],[73.98084505519162,18.530717175402728],[73.98084505519162,18.53098666998796],[73.98057556060638,18.53098666998796],[73.98057556060638,18.531256164573197],[73.98030606602114,18.531256164573197],[73.98030606602114,18.531525659158433],[73.97949758226544,18.531525659158433],[73.97949758226544,18.53179515374367],[73.9792280876802,18.53179515374367],[73.9792280876802,18.532064648328905],[73.97895859309496,18.532064648328905],[73.97895859309496,18.53233414291414],[73.97868909850973,18.53233414291414],[73.97868909850973,18.532603637499378],[73.9784196039245,18.532603637499378],[73.9784196039245,18.532873132084614],[73.97815010933925,18.532873132084614],[73.97815010933925,18.53314262666985],[73.97788061475403,18.53314262666985],[73.97788061475403,18.533681615840322],[73.97761112016879,18.533681615840322],[73.97761112016879,18.533951110425555],[73.97734162558355,18.533951110425555],[73.97734162558355,18.534490099596027],[73.97707213099831,18.534490099596027],[73.97707213099831,18.534759594181264],[73.97680263641308,18.534759594181264],[73.97680263641308,18.535298583351736],[73.97653314182784,18.535298583351736],[73.97653314182784,18.535837572522208],[73.9762636472426,18.535837572522208],[73.9762636472426,18.536107067107444],[73.97599415265736,18.536107067107444],[73.97599415265736,18.537185045448386],[73.97572465807214,18.537185045448386],[73.97572465807214,18.53826302378933],[73.9754551634869,18.53826302378933],[73.9754551634869,18.539341002130275],[73.97518566890166,18.539341002130275],[73.97518566890166,18.53961049671551],[73.97491617431643,18.53961049671551],[73.97491617431643,18.54014948588598],[73.9746466797312,18.54014948588598],[73.9746466797312,18.540418980471216],[73.97437718514595,18.540418980471216],[73.97437718514595,18.540688475056452],[73.97410769056071,18.540688475056452],[73.97410769056071,18.54095796964169],[73.97356870139025,18.54095796964169],[73.97356870139025,18.54149695881216],[73.97329920680501,18.54149695881216],[73.97329920680501,18.542035947982633],[73.97302971221977,18.542035947982633],[73.97302971221977,18.54230544256787],[73.97276021763454,18.54230544256787],[73.97276021763454,18.542574937153105],[73.97222122846406,18.542574937153105],[73.97222122846406,18.54284443173834],[73.9716822392936,18.54284443173834],[73.9716822392936,18.543113926323574],[73.97114325012312,18.543113926323574],[73.97114325012312,18.54338342090881],[73.97033476636742,18.54338342090881],[73.97033476636742,18.543652915494047],[73.96898729344124,18.543652915494047],[73.96898729344124,18.543922410079283],[73.96763982051506,18.543922410079283],[73.96763982051506,18.54419190466452],[73.96656184217412,18.54419190466452],[73.96656184217412,18.544461399249755],[73.96575335841841,18.544461399249755],[73.96575335841841,18.54473089383499],[73.9649448746627,18.54473089383499],[73.9649448746627,18.545000388420227],[73.96413639090699,18.545000388420227],[73.96413639090699,18.545269883005464],[73.96332790715128,18.545269883005464],[73.96332790715128,18.5455393775907],[73.96305841256606,18.5455393775907],[73.96305841256606,18.545808872175936],[73.96251942339558,18.545808872175936],[73.96251942339558,18.54607836676117],[73.96198043422511,18.54607836676117],[73.96198043422511,18.546347861346405],[73.96171093963987,18.546347861346405],[73.96171093963987,18.54661735593164],[73.96144144505463,18.54661735593164],[73.96144144505463,18.546886850516877],[73.96090245588417,18.546886850516877],[73.96090245588417,18.547156345102113],[73.96063296129893,18.547156345102113],[73.96063296129893,18.54742583968735],[73.95712953169087,18.54742583968735]]]}},{"type":"Feature","properties":{"class":2,"label":"Water","name":"Class 2 - 1","parameter":"NDWI — Water Detection"},"geometry":{"type":"Polygon","coordinates":[[[73.9582075100318,18.546886850516877],[73.9582075100318,18.54661735593164],[73.95847700461704,18.54661735593164],[73.95847700461704,18.546886850516877],[73.9582075100318,18.546886850516877]]]}},{"type":"Feature","properties":{"class":2,"label":"Water","name":"Class 2 - 2","parameter":"NDWI — Water Detection"},"geometry":{"type":"Polygon","coordinates":[[[73.96036346671369,18.546886850516877],[73.96036346671369,18.54661735593164],[73.96063296129893,18.54661735593164],[73.96063296129893,18.546886850516877],[73.96036346671369,18.546886850516877]]]}},{"type":"Feature","properties":{"class":2,"label":"Water","name":"Class 2 - 3","parameter":"NDWI — Water Detection"},"geometry":{"type":"Polygon","coordinates":[[[73.95928548837274,18.54661735593164],[73.95928548837274,18.546347861346405],[73.96009397212846,18.546347861346405],[73.96009397212846,18.54607836676117],[73.96036346671369,18.54607836676117],[73.96036346671369,18.545808872175936],[73.96063296129893,18.545808872175936],[73.96063296129893,18.546347861346405],[73.96036346671369,18.546347861346405],[73.96036346671369,18.54661735593164],[73.95928548837274,18.54661735593164]]]}},{"type":"Feature","properties":{"class":2,"label":"Water","name":"Class 2 - 4","parameter":"NDWI — Water Detection"},"geometry":{"type":"Polygon","coordinates":[[[73.95497357500898,18.54607836676117],[73.95497357500898,18.545808872175936],[73.95551256417944,18.545808872175936],[73.95551256417944,18.54607836676117],[73.95497357500898,18.54607836676117]]]}},{"type":"Feature","properties":{"class":2,"label":"Water","name":"Class 2 - 5","parameter":"NDWI — Water Detection"},"geometry":{"type":"Polygon","coordinates":[[[73.95389559666803,18.545808872175936],[73.95389559666803,18.5455393775907],[73.95416509125327,18.5455393775907],[73.95416509125327,18.545808872175936],[73.95389559666803,18.545808872175936]]]}},{"type":"Feature","properties":{"class":2,"label":"Water","name":"Class 2 - 6","parameter":"NDWI — Water Detection"},"geometry":{"type":"Polygon","coordinates":[[[73.96144144505463,18.545808872175936],[73.96144144505463,18.5455393775907],[73.96171093963987,18.5455393775907],[73.96171093963987,18.545808872175936],[73.96144144505463,18.545808872175936]]]}},{"type":"Feature","properties":{"class":2,"label":"Water","name":"Class 2 - 7","parameter":"NDWI — Water Detection"},"geometry":{"type":"Polygon","coordinates":[[[73.95227862915661,18.54607836676117],[73.95227862915661,18.545808872175936],[73.95173963998614,18.545808872175936],[73.95173963998614,18.5455393775907],[73.95200913457138,18.5455393775907],[73.95200913457138,18.545269883005464],[73.95227862915661,18.545269883005464],[73.95227862915661,18.5455393775907],[73.95254812374185,18.5455393775907],[73.95254812374185,18.545269883005464],[73.95308711291233,18.545269883005464],[73.95308711291233,18.5455393775907],[73.95335660749755,18.5455393775907],[73.95335660749755,18.545808872175936],[73.95254812374185,18.545808872175936],[73.95254812374185,18.54607836676117],[73.95227862915661,18.54607836676117]]]}},{"type":"Feature","properties":{"class":2,"label":"Water","name":"Class 2 - 8","parameter":"NDWI — Water Detection"},"geometry":{"type":"Polygon","coordinates":[[[73.95335660749755,18.5455393775907],[73.95335660749755,18.545269883005464],[73.9536261020828,18.545269883005464],[73.9536261020828,18.5455393775907],[73.95335660749755,18.5455393775907]]]}},{"type":"Feature","properties":{"class":2,"label":"Water","name":"Class 2 - 9","parameter":"NDWI — Water Detection"},"geometry":{"type":"Polygon","coordinates":[[[73.9460802536962,18.5455393775907],[73.9460802536962,18.545000388420227],[73.94634974828142,18.545000388420227],[73.94634974828142,18.5455393775907],[73.9460802536962,18.5455393775907]]]}},{"type":"Feature","properties":{"class":2,"label":"Water","name":"Class 2 - 10","parameter":"NDWI — Water Detection"},"geometry":{"type":"Polygon","coordinates":[[[73.9498531778895,18.54607836676117],[73.9498531778895,18.545808872175936],[73.94634974828142,18.545808872175936],[73.94634974828142,18.5455393775907],[73.9468887374519,18.5455393775907],[73.9468887374519,18.545269883005464],[73.94661924286666,18.545269883005464],[73.94661924286666,18.545000388420227],[73.94958368330425,18.545000388420227],[73.94958368330425,18.54473089383499],[73.9506616616452,18.54473089383499],[73.9506616616452,18.545000388420227],[73.95093115623044,18.545000388420227],[73.95093115623044,18.545269883005464],[73.95120065081566,18.545269883005464],[73.95120065081566,18.54607836676117],[73.95093115623044,18.54607836676117],[73.95093115623044,18.545808872175936],[73.9506616616452,18.545808872175936],[73.9506616616452,18.54607836676117],[73.9498531778895,18.54607836676117]]]}},{"type":"Feature","properties":{"class":2,"label":"Water","name":"Class 2 - 11","parameter":"NDWI — Water Detection"},"geometry":{"type":"Polygon","coordinates":[[[73.96171093963987,18.545269883005464],[73.96171093963987,18.545000388420227],[73.96198043422511,18.545000388420227],[73.96198043422511,18.54473089383499],[73.96224992881034,18.54473089383499],[73.96224992881034,18.545000388420227],[73.96251942339558,18.545000388420227],[73.96251942339558,18.545269883005464],[73.96171093963987,18.545269883005464]]]}},{"type":"Feature","properties":{"class":2,"label":"Water","name":"Class 2 - 12","parameter":"NDWI — Water Detection"},"geometry":{"type":"Polygon","coordinates":[[[73.96251942339558,18.54473089383499],[73.96251942339558,18.544461399249755],[73.96305841256606,18.544461399249755],[73.96305841256606,18.54473089383499],[73.96251942339558,18.54473089383499]]]}},{"type":"Feature","properties":{"class":2,"label":"Water","name":"Class 2 - 13","parameter":"NDWI — Water Detection"},"geometry":{"type":"Polygon","coordinates":[[[73.96332790715128,18.54473089383499],[73.96332790715128,18.544461399249755],[73.96359740173652,18.544461399249755],[73.96359740173652,18.54473089383499],[73.96332790715128,18.54473089383499]]]}},{"type":"Feature","properties":{"class":2,"label":"Water","name":"Class 2 - 14","parameter":"NDWI — Water Detection"},"geometry":{"type":"Polygon","coordinates":[[[73.96305841256606,18.544461399249755],[73.96305841256606,18.54419190466452],[73.96332790715128,18.54419190466452],[73.96332790715128,18.544461399249755],[73.96305841256606,18.544461399249755]]]}},{"type":"Feature","properties":{"class":2,"label":"Water","name":"Class 2 - 15","parameter":"NDWI — Water Detection"},"geometry":{"type":"Polygon","coordinates":[[[73.88813891787048,18.54419190466452],[73.88813891787048,18.543922410079283],[73.88840841245572,18.543922410079283],[73.88840841245572,18.54419190466452],[73.88813891787048,18.54419190466452]]]}},{"type":"Feature","properties":{"class":2,"label":"Water","name":"Class 2 - 16","parameter":"NDWI — Water Detection"},"geometry":{"type":"Polygon","coordinates":[[[73.89029487455237,18.54419190466452],[73.89029487455237,18.543922410079283],[73.8905643691376,18.543922410079283],[73.8905643691376,18.54419190466452],[73.89029487455237,18.54419190466452]]]}},{"type":"Feature","properties":{"class":2,"label":"Water","name":"Class 2 - 17","parameter":"NDWI — Water Detection"},"geometry":{"type":"Polygon","coordinates":[[[73.94527176994048,18.5455393775907],[73.94527176994048,18.545269883005464],[73.94500227535525,18.545269883005464],[73.94500227535525,18.545000388420227],[73.94473278077001,18.545000388420227],[73.94473278077001,18.54473089383499],[73.94446328618477,18.54473089383499],[73.94446328618477,18.54419190466452],[73.94419379159955,18.54419190466452],[73.94419379159955,18.543922410079283],[73.94473278077001,18.543922410079283],[73.94473278077001,18.54419190466452],[73.94527176994048,18.54419190466452],[73.94527176994048,18.544461399249755],[73.94554126452572,18.544461399249755],[73.94554126452572,18.545000388420227],[73.94581075911096,18.545000388420227],[73.94581075911096,18.5455393775907],[73.94527176994048,18.5455393775907]]]}},{"type":"Feature","properties":{"class":2,"label":"Water","name":"Class 2 - 18","parameter":"NDWI — Water Detection"},"geometry":{"type":"Polygon","coordinates":[[[73.96359740173652,18.54419190466452],[73.96359740173652,18.543922410079283],[73.96386689632176,18.543922410079283],[73.96386689632176,18.543652915494047],[73.96440588549223,18.543652915494047],[73.96440588549223,18.543922410079283],[73.96413639090699,18.543922410079283],[73.96413639090699,18.54419190466452],[73.96359740173652,18.54419190466452]]]}},{"type":"Feature","properties":{"class":2,"label":"Water","name":"Class 2 - 19","parameter":"NDWI — Water Detection"},"geometry":{"type":"Polygon","coordinates":[[[73.88517447743288,18.543922410079283],[73.88517447743288,18.54338342090881],[73.88706093952953,18.54338342090881],[73.88706093952953,18.543652915494047],[73.88759992870001,18.543652915494047],[73.88759992870001,18.543922410079283],[73.88598296118859,18.543922410079283],[73.88598296118859,18.543652915494047],[73.88571346660336,18.543652915494047],[73.88571346660336,18.543922410079283],[73.88517447743288,18.543922410079283]]]}},{"type":"Feature","properties":{"class":2,"label":"Water","name":"Class 2 - 20","parameter":"NDWI — Water Detection"},"geometry":{"type":"Polygon","coordinates":[[[73.88948639079666,18.54419190466452],[73.88948639079666,18.543922410079283],[73.88867790704096,18.543922410079283],[73.88867790704096,18.543652915494047],[73.88948639079666,18.543652915494047],[73.88948639079666,18.54338342090881],[73.8897558853819,18.54338342090881],[73.8897558853819,18.54419190466452],[73.88948639079666,18.54419190466452]]]}},{"type":"Feature","properties":{"class":2,"label":"Water","name":"Class 2 - 21","parameter":"NDWI — Water Detection"},"geometry":{"type":"Polygon","coordinates":[[[73.88840841245572,18.543652915494047],[73.88840841245572,18.54338342090881],[73.88867790704096,18.54338342090881],[73.88867790704096,18.543652915494047],[73.88840841245572,18.543652915494047]]]}},{"type":"Feature","properties":{"class":2,"label":"Water","name":"Class 2 - 22","parameter":"NDWI — Water Detection"},"geometry":{"type":"Polygon","coordinates":[[[73.96467538007747,18.543652915494047],[73.96467538007747,18.54338342090881],[73.96521436924793,18.54338342090881],[73.96521436924793,18.543652915494047],[73.96467538007747,18.543652915494047]]]}},{"type":"Feature","properties":{"class":2,"label":"Water","name":"Class 2 - 23","parameter":"NDWI — Water Detection"},"geometry":{"type":"Polygon","coordinates":[[[73.96575335841841,18.543922410079283],[73.96575335841841,18.543652915494047],[73.96548386383317,18.543652915494047],[73.96548386383317,18.54338342090881],[73.96602285300365,18.54338342090881],[73.96602285300365,18.543922410079283],[73.96575335841841,18.543922410079283]]]}},{"type":"Feature","properties":{"class":2,"label":"Water","name":"Class 2 - 24","parameter":"NDWI — Water Detection"},"geometry":{"type":"Polygon","coordinates":[[[73.96656184217412,18.543652915494047],[73.96656184217412,18.54338342090881],[73.96710083134458,18.54338342090881],[73.96710083134458,18.543652915494047],[73.96656184217412,18.543652915494047]]]}},{"type":"Feature","properties":{"class":2,"label":"Water","name":"Class 2 - 25","parameter":"NDWI — Water Detection"},"geometry":{"type":"Polygon","coordinates":[[[73.88463548826242,18.54338342090881],[73.88463548826242,18.543113926323574],[73.88490498284764,18.543113926323574],[73.88490498284764,18.54338342090881],[73.88463548826242,18.54338342090881]]]}},{"type":"Feature","properties":{"class":2,"label":"Water","name":"Class 2 - 26","parameter":"NDWI — Water Detection"},"geometry":{"type":"Polygon","coordinates":[[[73.96521436924793,18.54338342090881],[73.96521436924793,18.543113926323574],[73.96548386383317,18.543113926323574],[73.96548386383317,18.54338342090881],[73.96521436924793,18.54338342090881]]]}},{"type":"Feature","properties":{"class":2,"label":"Water","name":"Class 2 - 27","parameter":"NDWI — Water Detection"},"geometry":{"type":"Polygon","coordinates":[[[73.96602285300365,18.54338342090881],[73.96602285300365,18.543113926323574],[73.96656184217412,18.543113926323574],[73.96656184217412,18.54338342090881],[73.96602285300365,18.54338342090881]]]}},{"type":"Feature","properties":{"class":2,"label":"Water","name":"Class 2 - 28","parameter":"NDWI — Water Detection"},"geometry":{"type":"Polygon","coordinates":[[[73.96763982051506,18.543113926323574],[73.96763982051506,18.54284443173834],[73.96817880968553,18.54284443173834],[73.96817880968553,18.543113926323574],[73.96763982051506,18.543113926323574]]]}},{"type":"Feature","properties":{"class":2,"label":"Water","name":"Class 2 - 29","parameter":"NDWI — Water Detection"},"geometry":{"type":"Polygon","coordinates":[[[73.96844830427077,18.543113926323574],[73.96844830427077,18.54284443173834],[73.968717798856,18.54284443173834],[73.968717798856,18.543113926323574],[73.96844830427077,18.543113926323574]]]}},{"type":"Feature","properties":{"class":2,"label":"Water","name":"Class 2 - 30","parameter":"NDWI — Water Detection"},"geometry":{"type":"Polygon","coordinates":[[[73.89245083123426,18.543652915494047],[73.89245083123426,18.54338342090881],[73.89218133664902,18.54338342090881],[73.89218133664902,18.543113926323574],[73.89298982040472,18.543113926323574],[73.89298982040472,18.54284443173834],[73.89379830416044,18.54284443173834],[73.89379830416044,18.542574937153105],[73.8943372933309,18.542574937153105],[73.8943372933309,18.54284443173834],[73.89460678791615,18.54284443173834],[73.89460678791615,18.543113926323574],[73.89406779874567,18.543113926323574],[73.89406779874567,18.54338342090881],[73.89325931498996,18.54338342090881],[73.89325931498996,18.543652915494047],[73.89245083123426,18.543652915494047]]]}},{"type":"Feature","properties":{"class":2,"label":"Water","name":"Class 2 - 31","parameter":"NDWI — Water Detection"},"geometry":{"type":"Polygon","coordinates":[[[73.96898729344124,18.54284443173834],[73.96898729344124,18.542574937153105],[73.96925678802647,18.542574937153105],[73.96925678802647,18.54284443173834],[73.96898729344124,18.54284443173834]]]}},{"type":"Feature","properties":{"class":2,"label":"Water","name":"Class 2 - 32","parameter":"NDWI — Water Detection"},"geometry":{"type":"Polygon","coordinates":[[[73.89837971210945,18.542035947982633],[73.89837971210945,18.541766453397397],[73.89864920669469,18.541766453397397],[73.89864920669469,18.542035947982633],[73.89837971210945,18.542035947982633]]]}},{"type":"Feature","properties":{"class":2,"label":"Water","name":"Class 2 - 33","parameter":"NDWI — Water Detection"},"geometry":{"type":"Polygon","coordinates":[[[73.9708737555379,18.542035947982633],[73.9708737555379,18.541766453397397],[73.97141274470836,18.541766453397397],[73.97141274470836,18.542035947982633],[73.9708737555379,18.542035947982633]]]}},{"type":"Feature","properties":{"class":2,"label":"Water","name":"Class 2 - 34","parameter":"NDWI — Water Detection"},"geometry":{"type":"Polygon","coordinates":[[[73.89622375542756,18.542574937153105],[73.89622375542756,18.542035947982633],[73.8973017337685,18.542035947982633],[73.8973017337685,18.541766453397397],[73.89757122835374,18.541766453397397],[73.89757122835374,18.54149695881216],[73.8981102175242,18.54149695881216],[73.8981102175242,18.541766453397397],[73.89784072293897,18.541766453397397],[73.89784072293897,18.54230544256787],[73.89757122835374,18.54230544256787],[73.89757122835374,18.542574937153105],[73.89622375542756,18.542574937153105]]]}},{"type":"Feature","properties":{"class":2,"label":"Water","name":"Class 2 - 35","parameter":"NDWI — Water Detection"},"geometry":{"type":"Polygon","coordinates":[[[73.97141274470836,18.541766453397397],[73.97141274470836,18.54149695881216],[73.9716822392936,18.54149695881216],[73.9716822392936,18.541766453397397],[73.97141274470836,18.541766453397397]]]}},{"type":"Feature","properties":{"class":2,"label":"Water","name":"Class 2 - 36","parameter":"NDWI — Water Detection"},"geometry":{"type":"Polygon","coordinates":[[[73.97195173387884,18.541766453397397],[73.97195173387884,18.54149695881216],[73.97222122846406,18.54149695881216],[73.97222122846406,18.541766453397397],[73.97195173387884,18.541766453397397]]]}},{"type":"Feature","properties":{"class":2,"label":"Water","name":"Class 2 - 37","parameter":"NDWI — Water Detection"},"geometry":{"type":"Polygon","coordinates":[[[73.88086256406912,18.54338342090881],[73.88086256406912,18.543113926323574],[73.8800540803134,18.543113926323574],[73.8800540803134,18.54284443173834],[73.87789812363152,18.54284443173834],[73.87789812363152,18.542574937153105],[73.87735913446105,18.542574937153105],[73.87735913446105,18.54230544256787],[73.87682014529058,18.54230544256787],[73.87682014529058,18.542035947982633],[73.87520317777916,18.542035947982633],[73.87520317777916,18.541766453397397],[73.87493368319393,18.541766453397397],[73.87493368319393,18.54149695881216],[73.87466418860869,18.54149695881216],[73.87466418860869,18.541227464226925],[73.87493368319393,18.541227464226925],[73.87493368319393,18.54095796964169],[73.87520317777916,18.54095796964169],[73.87520317777916,18.541227464226925],[73.87601166153486,18.541227464226925],[73.87601166153486,18.54149695881216],[73.8770896398758,18.54149695881216],[73.8770896398758,18.541766453397397],[73.87789812363152,18.541766453397397],[73.87789812363152,18.542035947982633],[73.87843711280199,18.542035947982633],[73.87843711280199,18.54230544256787],[73.88032357489864,18.54230544256787],[73.88032357489864,18.542574937153105],[73.88086256406912,18.542574937153105],[73.88086256406912,18.54230544256787],[73.88113205865434,18.54230544256787],[73.88113205865434,18.54284443173834],[73.88274902616577,18.54284443173834],[73.88274902616577,18.54338342090881],[73.88086256406912,18.54338342090881]]]}},{"type":"Feature","properties":{"class":2,"label":"Water","name":"Class 2 - 38","parameter":"NDWI — Water Detection"},"geometry":{"type":"Polygon","coordinates":[[[73.90053566879133,18.54149695881216],[73.90053566879133,18.541227464226925],[73.90134415254704,18.541227464226925],[73.90134415254704,18.54095796964169],[73.90376960381415,18.54095796964169],[73.90376960381415,18.541227464226925],[73.9040390983994,18.541227464226925],[73.9040390983994,18.54149695881216],[73.90053566879133,18.54149695881216]]]}},{"type":"Feature","properties":{"class":2,"label":"Water","name":"Class 2 - 39","parameter":"NDWI — Water Detection"},"geometry":{"type":"Polygon","coordinates":[[[73.87385570485299,18.541227464226925],[73.87385570485299,18.54095796964169],[73.87466418860869,18.54095796964169],[73.87466418860869,18.541227464226925],[73.87385570485299,18.541227464226925]]]}},{"type":"Feature","properties":{"class":2,"label":"Water","name":"Class 2 - 40","parameter":"NDWI — Water Detection"},"geometry":{"type":"Polygon","coordinates":[[[73.9724907230493,18.541227464226925],[73.9724907230493,18.54095796964169],[73.97302971221977,18.54095796964169],[73.97302971221977,18.541227464226925],[73.9724907230493,18.541227464226925]]]}},{"type":"Feature","properties":{"class":2,"label":"Water","name":"Class 2 - 41","parameter":"NDWI — Water Detection"},"geometry":{"type":"Polygon","coordinates":[[[73.94203783491766,18.541766453397397],[73.94203783491766,18.54149695881216],[73.94176834033242,18.54149695881216],[73.94176834033242,18.541227464226925],[73.94149884574718,18.541227464226925],[73.94149884574718,18.54095796964169],[73.94176834033242,18.54095796964169],[73.94176834033242,18.540688475056452],[73.94257682408812,18.540688475056452],[73.94257682408812,18.541227464226925],[73.94284631867336,18.541227464226925],[73.94284631867336,18.541766453397397],[73.94203783491766,18.541766453397397]]]}},{"type":"Feature","properties":{"class":2,"label":"Water","name":"Class 2 - 42","parameter":"NDWI — Water Detection"},"geometry":{"type":"Polygon","coordinates":[[[73.9048475821551,18.54149695881216],[73.9048475821551,18.54095796964169],[73.90727303342223,18.54095796964169],[73.90727303342223,18.540688475056452],[73.90969848468934,18.540688475056452],[73.90969848468934,18.540418980471216],[73.90996797927458,18.540418980471216],[73.90996797927458,18.54095796964169],[73.90969848468934,18.54095796964169],[73.90969848468934,18.541227464226925],[73.90942899010412,18.541227464226925],[73.90942899010412,18.54095796964169],[73.90862050634841,18.54095796964169],[73.90862050634841,18.541227464226925],[73.90835101176317,18.541227464226925],[73.90835101176317,18.54095796964169],[73.9078120225927,18.54095796964169],[73.9078120225927,18.541227464226925],[73.90592556049604,18.541227464226925],[73.90592556049604,18.54149695881216],[73.9048475821551,18.54149695881216]]]}},{"type":"Feature","properties":{"class":2,"label":"Water","name":"Class 2 - 43","parameter":"NDWI — Water Detection"},"geometry":{"type":"Polygon","coordinates":[[[73.87304722109727,18.54095796964169],[73.87304722109727,18.540688475056452],[73.87277772651204,18.540688475056452],[73.87277772651204,18.540418980471216],[73.87358621026775,18.540418980471216],[73.87358621026775,18.540688475056452],[73.87385570485299,18.540688475056452],[73.87385570485299,18.54095796964169],[73.87304722109727,18.54095796964169]]]}},{"type":"Feature","properties":{"class":2,"label":"Water","name":"Class 2 - 44","parameter":"NDWI — Water Detection"},"geometry":{"type":"Polygon","coordinates":[[[73.91023747385982,18.540688475056452],[73.91023747385982,18.540418980471216],[73.91050696844506,18.540418980471216],[73.91050696844506,18.540688475056452],[73.91023747385982,18.540688475056452]]]}},{"type":"Feature","properties":{"class":2,"label":"Water","name":"Class 2 - 45","parameter":"NDWI — Water Detection"},"geometry":{"type":"Polygon","coordinates":[[[73.8725082319268,18.540418980471216],[73.8725082319268,18.54014948588598],[73.87277772651204,18.54014948588598],[73.87277772651204,18.540418980471216],[73.8725082319268,18.540418980471216]]]}},{"type":"Feature","properties":{"class":2,"label":"Water","name":"Class 2 - 46","parameter":"NDWI — Water Detection"},"geometry":{"type":"Polygon","coordinates":[[[73.94149884574718,18.540418980471216],[73.94149884574718,18.54014948588598],[73.94176834033242,18.54014948588598],[73.94176834033242,18.540418980471216],[73.94149884574718,18.540418980471216]]]}},{"type":"Feature","properties":{"class":2,"label":"Water","name":"Class 2 - 47","parameter":"NDWI — Water Detection"},"geometry":{"type":"Polygon","coordinates":[[[73.94203783491766,18.540418980471216],[73.94203783491766,18.539879991300747],[73.94230732950288,18.539879991300747],[73.94230732950288,18.540418980471216],[73.94203783491766,18.540418980471216]]]}},{"type":"Feature","properties":{"class":2,"label":"Water","name":"Class 2 - 48","parameter":"NDWI — Water Detection"},"geometry":{"type":"Polygon","coordinates":[[[73.87143025358586,18.540418980471216],[73.87143025358586,18.54014948588598],[73.87089126441539,18.54014948588598],[73.87089126441539,18.53961049671551],[73.87143025358586,18.53961049671551],[73.87143025358586,18.539879991300747],[73.87196924275634,18.539879991300747],[73.87196924275634,18.54014948588598],[73.87223873734156,18.54014948588598],[73.87223873734156,18.540418980471216],[73.87143025358586,18.540418980471216]]]}},{"type":"Feature","properties":{"class":2,"label":"Water","name":"Class 2 - 49","parameter":"NDWI — Water Detection"},"geometry":{"type":"Polygon","coordinates":[[[73.91185444137123,18.54014948588598],[73.91185444137123,18.539879991300747],[73.91239343054171,18.539879991300747],[73.91239343054171,18.53961049671551],[73.91427989263836,18.53961049671551],[73.91427989263836,18.539879991300747],[73.91401039805312,18.539879991300747],[73.91401039805312,18.54014948588598],[73.91185444137123,18.54014948588598]]]}},{"type":"Feature","properties":{"class":2,"label":"Water","name":"Class 2 - 50","parameter":"NDWI — Water Detection"},"geometry":{"type":"Polygon","coordinates":[[[73.91508837639407,18.539879991300747],[73.91508837639407,18.53961049671551],[73.91562736556453,18.53961049671551],[73.91562736556453,18.539879991300747],[73.91508837639407,18.539879991300747]]]}},{"type":"Feature","properties":{"class":2,"label":"Water","name":"Class 2 - 51","parameter":"NDWI — Water Detection"},"geometry":{"type":"Polygon","coordinates":[[[73.94149884574718,18.539879991300747],[73.94149884574718,18.539341002130275],[73.94203783491766,18.539341002130275],[73.94203783491766,18.539879991300747],[73.94149884574718,18.539879991300747]]]}},{"type":"Feature","properties":{"class":2,"label":"Water","name":"Class 2 - 52","parameter":"NDWI — Water Detection"},"geometry":{"type":"Polygon","coordinates":[[[73.91562736556453,18.53961049671551],[73.91562736556453,18.539341002130275],[73.91589686014977,18.539341002130275],[73.91589686014977,18.53961049671551],[73.91562736556453,18.53961049671551]]]}},{"type":"Feature","properties":{"class":2,"label":"Water","name":"Class 2 - 53","parameter":"NDWI — Water Detection"},"geometry":{"type":"Polygon","coordinates":[[[73.91724433307596,18.539341002130275],[73.91724433307596,18.53907150754504],[73.9175138276612,18.53907150754504],[73.9175138276612,18.539341002130275],[73.91724433307596,18.539341002130275]]]}},{"type":"Feature","properties":{"class":2,"label":"Water","name":"Class 2 - 54","parameter":"NDWI — Water Detection"},"geometry":{"type":"Polygon","coordinates":[[[73.91859180600213,18.539341002130275],[73.91859180600213,18.53907150754504],[73.91993927892831,18.53907150754504],[73.91993927892831,18.538802012959803],[73.9212867518545,18.538802012959803],[73.9212867518545,18.538532518374566],[73.92155624643972,18.538532518374566],[73.92155624643972,18.538802012959803],[73.92263422478067,18.538802012959803],[73.92263422478067,18.538532518374566],[73.92344270853638,18.538532518374566],[73.92344270853638,18.53907150754504],[73.92074776268402,18.53907150754504],[73.92074776268402,18.539341002130275],[73.91859180600213,18.539341002130275]]]}},{"type":"Feature","properties":{"class":2,"label":"Water","name":"Class 2 - 55","parameter":"NDWI — Water Detection"},"geometry":{"type":"Polygon","coordinates":[[[73.92371220312161,18.53907150754504],[73.92371220312161,18.538532518374566],[73.92425119229209,18.538532518374566],[73.92425119229209,18.53826302378933],[73.9250596760478,18.53826302378933],[73.9250596760478,18.537993529204094],[73.92532917063303,18.537993529204094],[73.92532917063303,18.53826302378933],[73.9258681598035,18.53826302378933],[73.9258681598035,18.537993529204094],[73.92640714897398,18.537993529204094],[73.92640714897398,18.537724034618858],[73.92694613814444,18.537724034618858],[73.92694613814444,18.537993529204094],[73.9266766435592,18.537993529204094],[73.9266766435592,18.53826302378933],[73.92640714897398,18.53826302378933],[73.92640714897398,18.538532518374566],[73.92559866521826,18.538532518374566],[73.92559866521826,18.538802012959803],[73.92452068687732,18.538802012959803],[73.92452068687732,18.53907150754504],[73.92371220312161,18.53907150754504]]]}},{"type":"Feature","properties":{"class":2,"label":"Water","name":"Class 2 - 56","parameter":"NDWI — Water Detection"},"geometry":{"type":"Polygon","coordinates":[[[73.97437718514595,18.53907150754504],[73.97437718514595,18.53826302378933],[73.9746466797312,18.53826302378933],[73.9746466797312,18.537724034618858],[73.97491617431643,18.537724034618858],[73.97491617431643,18.538532518374566],[73.9746466797312,18.538532518374566],[73.9746466797312,18.53907150754504],[73.97437718514595,18.53907150754504]]]}},{"type":"Feature","properties":{"class":2,"label":"Water","name":"Class 2 - 57","parameter":"NDWI — Water Detection"},"geometry":{"type":"Polygon","coordinates":[[[73.92694613814444,18.53826302378933],[73.92694613814444,18.537993529204094],[73.92721563272968,18.537993529204094],[73.92721563272968,18.537724034618858],[73.92748512731491,18.537724034618858],[73.92748512731491,18.53826302378933],[73.92694613814444,18.53826302378933]]]}},{"type":"Feature","properties":{"class":2,"label":"Water","name":"Class 2 - 58","parameter":"NDWI — Water Detection"},"geometry":{"type":"Polygon","coordinates":[[[73.92775462190015,18.537993529204094],[73.92775462190015,18.53745454003362],[73.92829361107063,18.53745454003362],[73.92829361107063,18.537993529204094],[73.92775462190015,18.537993529204094]]]}},{"type":"Feature","properties":{"class":2,"label":"Water","name":"Class 2 - 59","parameter":"NDWI — Water Detection"},"geometry":{"type":"Polygon","coordinates":[[[73.94095985657671,18.539341002130275],[73.94095985657671,18.538532518374566],[73.94069036199147,18.538532518374566],[73.94069036199147,18.53826302378933],[73.94042086740623,18.53826302378933],[73.94042086740623,18.537185045448386],[73.94095985657671,18.537185045448386],[73.94095985657671,18.53826302378933],[73.94149884574718,18.53826302378933],[73.94149884574718,18.539341002130275],[73.94095985657671,18.539341002130275]]]}},{"type":"Feature","properties":{"class":2,"label":"Water","name":"Class 2 - 60","parameter":"NDWI — Water Detection"},"geometry":{"type":"Polygon","coordinates":[[[73.97491617431643,18.53745454003362],[73.97491617431643,18.53691555086315],[73.97518566890166,18.53691555086315],[73.97518566890166,18.53745454003362],[73.97491617431643,18.53745454003362]]]}},{"type":"Feature","properties":{"class":2,"label":"Water","name":"Class 2 - 61","parameter":"NDWI — Water Detection"},"geometry":{"type":"Polygon","coordinates":[[[73.86469288895496,18.537185045448386],[73.86469288895496,18.53691555086315],[73.86523187812543,18.53691555086315],[73.86523187812543,18.537185045448386],[73.86469288895496,18.537185045448386]]]}},{"type":"Feature","properties":{"class":2,"label":"Water","name":"Class 2 - 62","parameter":"NDWI — Water Detection"},"geometry":{"type":"Polygon","coordinates":[[[73.92856310565585,18.537724034618858],[73.92856310565585,18.537185045448386],[73.9296410839968,18.537185045448386],[73.9296410839968,18.53691555086315],[73.92991057858204,18.53691555086315],[73.92991057858204,18.536646056277917],[73.9304495677525,18.536646056277917],[73.9304495677525,18.53637656169268],[73.93098855692298,18.53637656169268],[73.93098855692298,18.536646056277917],[73.93125805150822,18.536646056277917],[73.93125805150822,18.53637656169268],[73.93152754609345,18.53637656169268],[73.93152754609345,18.536107067107444],[73.93368350277534,18.536107067107444],[73.93368350277534,18.536646056277917],[73.93206653526393,18.536646056277917],[73.93206653526393,18.53691555086315],[73.93179704067869,18.53691555086315],[73.93179704067869,18.536646056277917],[73.93152754609345,18.536646056277917],[73.93152754609345,18.53691555086315],[73.93098855692298,18.53691555086315],[73.93098855692298,18.537185045448386],[73.93018007316728,18.537185045448386],[73.93018007316728,18.53745454003362],[73.9296410839968,18.53745454003362],[73.9296410839968,18.537724034618858],[73.92856310565585,18.537724034618858]]]}},{"type":"Feature","properties":{"class":2,"label":"Water","name":"Class 2 - 63","parameter":"NDWI — Water Detection"},"geometry":{"type":"Polygon","coordinates":[[[73.97491617431643,18.536646056277917],[73.97491617431643,18.536107067107444],[73.97518566890166,18.536107067107444],[73.97518566890166,18.536646056277917],[73.97491617431643,18.536646056277917]]]}},{"type":"Feature","properties":{"class":2,"label":"Water","name":"Class 2 - 64","parameter":"NDWI — Water Detection"},"geometry":{"type":"Polygon","coordinates":[[[73.93961238365053,18.537185045448386],[73.93961238365053,18.53691555086315],[73.93934288906529,18.53691555086315],[73.93934288906529,18.536646056277917],[73.93880389989482,18.536646056277917],[73.93880389989482,18.53637656169268],[73.93799541613912,18.53637656169268],[73.93799541613912,18.536107067107444],[73.93556996487199,18.536107067107444],[73.93556996487199,18.53637656169268],[73.93530047028676,18.53637656169268],[73.93530047028676,18.536646056277917],[73.93476148111628,18.536646056277917],[73.93476148111628,18.53637656169268],[73.93395299736058,18.53637656169268],[73.93395299736058,18.535837572522208],[73.93422249194582,18.535837572522208],[73.93422249194582,18.536107067107444],[73.93476148111628,18.536107067107444],[73.93476148111628,18.535568077936972],[73.93530047028676,18.535568077936972],[73.93530047028676,18.535298583351736],[73.93583945945723,18.535298583351736],[73.93583945945723,18.5350290887665],[73.93637844862769,18.5350290887665],[73.93637844862769,18.535298583351736],[73.93745642696864,18.535298583351736],[73.93745642696864,18.535568077936972],[73.93799541613912,18.535568077936972],[73.93799541613912,18.535298583351736],[73.93826491072436,18.535298583351736],[73.93826491072436,18.535568077936972],[73.93907339448006,18.535568077936972],[73.93907339448006,18.535837572522208],[73.93961238365053,18.535837572522208],[73.93961238365053,18.536107067107444],[73.93988187823577,18.536107067107444],[73.93988187823577,18.53637656169268],[73.940151372821,18.53637656169268],[73.940151372821,18.536646056277917],[73.94042086740623,18.536646056277917],[73.94042086740623,18.537185045448386],[73.93961238365053,18.537185045448386]]]}},{"type":"Feature","properties":{"class":2,"label":"Water","name":"Class 2 - 65","parameter":"NDWI — Water Detection"},"geometry":{"type":"Polygon","coordinates":[[[73.9754551634869,18.535298583351736],[73.9754551634869,18.5350290887665],[73.97572465807214,18.5350290887665],[73.97572465807214,18.535298583351736],[73.9754551634869,18.535298583351736]]]}},{"type":"Feature","properties":{"class":2,"label":"Water","name":"Class 2 - 66","parameter":"NDWI — Water Detection"},"geometry":{"type":"Polygon","coordinates":[[[73.97599415265736,18.534759594181264],[73.97599415265736,18.534490099596027],[73.9762636472426,18.534490099596027],[73.9762636472426,18.534759594181264],[73.97599415265736,18.534759594181264]]]}},{"type":"Feature","properties":{"class":2,"label":"Water","name":"Class 2 - 67","parameter":"NDWI — Water Detection"},"geometry":{"type":"Polygon","coordinates":[[[73.86280642685831,18.533951110425555],[73.86280642685831,18.533681615840322],[73.86253693227307,18.533681615840322],[73.86253693227307,18.533412121255086],[73.86307592144355,18.533412121255086],[73.86307592144355,18.533951110425555],[73.86280642685831,18.533951110425555]]]}},{"type":"Feature","properties":{"class":2,"label":"Water","name":"Class 2 - 68","parameter":"NDWI — Water Detection"},"geometry":{"type":"Polygon","coordinates":[[[73.9762636472426,18.53422060501079],[73.9762636472426,18.533412121255086],[73.97653314182784,18.533412121255086],[73.97653314182784,18.532873132084614],[73.97707213099831,18.532873132084614],[73.97707213099831,18.53314262666985],[73.97734162558355,18.53314262666985],[73.97734162558355,18.533412121255086],[73.97680263641308,18.533412121255086],[73.97680263641308,18.533681615840322],[73.97653314182784,18.533681615840322],[73.97653314182784,18.53422060501079],[73.9762636472426,18.53422060501079]]]}},{"type":"Feature","properties":{"class":2,"label":"Water","name":"Class 2 - 69","parameter":"NDWI — Water Detection"},"geometry":{"type":"Polygon","coordinates":[[[73.85499108388647,18.53314262666985],[73.85499108388647,18.532873132084614],[73.85579956764218,18.532873132084614],[73.85579956764218,18.53314262666985],[73.85499108388647,18.53314262666985]]]}},{"type":"Feature","properties":{"class":2,"label":"Water","name":"Class 2 - 70","parameter":"NDWI — Water Detection"},"geometry":{"type":"Polygon","coordinates":[[[73.86145895393213,18.532603637499378],[73.86145895393213,18.532064648328905],[73.86172844851737,18.532064648328905],[73.86172844851737,18.53233414291414],[73.86199794310261,18.53233414291414],[73.86199794310261,18.532603637499378],[73.86145895393213,18.532603637499378]]]}},{"type":"Feature","properties":{"class":2,"label":"Water","name":"Class 2 - 71","parameter":"NDWI — Water Detection"},"geometry":{"type":"Polygon","coordinates":[[[73.85633855681264,18.53233414291414],[73.85633855681264,18.53179515374367],[73.85660805139788,18.53179515374367],[73.85660805139788,18.531525659158433],[73.85687754598312,18.531525659158433],[73.85687754598312,18.531256164573197],[73.8582250189093,18.531256164573197],[73.8582250189093,18.53098666998796],[73.85876400807977,18.53098666998796],[73.85876400807977,18.531256164573197],[73.85903350266501,18.531256164573197],[73.85903350266501,18.53098666998796],[73.85957249183548,18.53098666998796],[73.85957249183548,18.531256164573197],[73.86065047017642,18.531256164573197],[73.86065047017642,18.53098666998796],[73.86091996476166,18.53098666998796],[73.86091996476166,18.531525659158433],[73.86118945934689,18.531525659158433],[73.86118945934689,18.53179515374367],[73.86145895393213,18.53179515374367],[73.86145895393213,18.532064648328905],[73.86065047017642,18.532064648328905],[73.86065047017642,18.53179515374367],[73.86011148100596,18.53179515374367],[73.86011148100596,18.531525659158433],[73.85768602973883,18.531525659158433],[73.85768602973883,18.53179515374367],[73.85687754598312,18.53179515374367],[73.85687754598312,18.532064648328905],[73.85660805139788,18.532064648328905],[73.85660805139788,18.53233414291414],[73.85633855681264,18.53233414291414]]]}},{"type":"Feature","properties":{"class":2,"label":"Water","name":"Class 2 - 72","parameter":"NDWI — Water Detection"},"geometry":{"type":"Polygon","coordinates":[[[73.97868909850973,18.53098666998796],[73.97868909850973,18.530717175402728],[73.97895859309496,18.530717175402728],[73.97895859309496,18.53098666998796],[73.97868909850973,18.53098666998796]]]}},{"type":"Feature","properties":{"class":2,"label":"Water","name":"Class 2 - 73","parameter":"NDWI — Water Detection"},"geometry":{"type":"Polygon","coordinates":[[[73.97976707685068,18.530178186232256],[73.97976707685068,18.52990869164702],[73.9800365714359,18.52990869164702],[73.9800365714359,18.530178186232256],[73.97976707685068,18.530178186232256]]]}},{"type":"Feature","properties":{"class":2,"label":"Water","name":"Class 2 - 74","parameter":"NDWI — Water Detection"},"geometry":{"type":"Polygon","coordinates":[[[73.98030606602114,18.52990869164702],[73.98030606602114,18.529369702476547],[73.98084505519162,18.529369702476547],[73.98084505519162,18.52910020789131],[73.98111454977685,18.52910020789131],[73.98111454977685,18.529369702476547],[73.98138404436209,18.529369702476547],[73.98138404436209,18.529639197061783],[73.98057556060638,18.529639197061783],[73.98057556060638,18.52990869164702],[73.98030606602114,18.52990869164702]]]}},{"type":"Feature","properties":{"class":2,"label":"Water","name":"Class 2 - 75","parameter":"NDWI — Water Detection"},"geometry":{"type":"Polygon","coordinates":[[[73.98138404436209,18.529369702476547],[73.98138404436209,18.52856121872084],[73.98219252811779,18.52856121872084],[73.98219252811779,18.528022229550366],[73.98273151728827,18.528022229550366],[73.98273151728827,18.527752734965134],[73.98327050645874,18.527752734965134],[73.98327050645874,18.527483240379897],[73.98380949562922,18.527483240379897],[73.98380949562922,18.52721374579466],[73.98407899021444,18.52721374579466],[73.98407899021444,18.526944251209425],[73.98515696855539,18.526944251209425],[73.98515696855539,18.52667475662419],[73.98542646314063,18.52667475662419],[73.98542646314063,18.526405262038953],[73.98596545231109,18.526405262038953],[73.98596545231109,18.526944251209425],[73.98569595772587,18.526944251209425],[73.98569595772587,18.52721374579466],[73.98515696855539,18.52721374579466],[73.98515696855539,18.527483240379897],[73.98461797938492,18.527483240379897],[73.98461797938492,18.527752734965134],[73.98434848479968,18.527752734965134],[73.98434848479968,18.528022229550366],[73.98380949562922,18.528022229550366],[73.98380949562922,18.528291724135602],[73.98327050645874,18.528291724135602],[73.98327050645874,18.52856121872084],[73.98273151728827,18.52856121872084],[73.98273151728827,18.528830713306075],[73.98246202270303,18.528830713306075],[73.98246202270303,18.52910020789131],[73.98165353894733,18.52910020789131],[73.98165353894733,18.529369702476547],[73.98138404436209,18.529369702476547]]]}},{"type":"Feature","properties":{"class":2,"label":"Water","name":"Class 2 - 76","parameter":"NDWI — Water Detection"},"geometry":{"type":"Polygon","coordinates":[[[73.98623494689633,18.526944251209425],[73.98623494689633,18.526135767453717],[73.98650444148157,18.526135767453717],[73.98650444148157,18.525596778283244],[73.98731292523728,18.525596778283244],[73.98731292523728,18.52586627286848],[73.98758241982252,18.52586627286848],[73.98758241982252,18.526405262038953],[73.98704343065204,18.526405262038953],[73.98704343065204,18.52667475662419],[73.98650444148157,18.52667475662419],[73.98650444148157,18.526944251209425],[73.98623494689633,18.526944251209425]]]}},{"type":"Feature","properties":{"class":2,"label":"Water","name":"Class 2 - 77","parameter":"NDWI — Water Detection"},"geometry":{"type":"Polygon","coordinates":[[[73.98946888191917,18.524249305357067],[73.98946888191917,18.52397981077183],[73.98919938733393,18.52397981077183],[73.98919938733393,18.523710316186595],[73.9897383765044,18.523710316186595],[73.9897383765044,18.523171327016122],[73.99000787108963,18.523171327016122],[73.99000787108963,18.52344082160136],[73.99027736567487,18.52344082160136],[73.99027736567487,18.523171327016122],[73.99054686026011,18.523171327016122],[73.99054686026011,18.52263233784565],[73.99081635484534,18.52263233784565],[73.99081635484534,18.522362843260414],[73.99108584943058,18.522362843260414],[73.99108584943058,18.52155435950471],[73.99162483860106,18.52155435950471],[73.99162483860106,18.521015370334236],[73.99189433318628,18.521015370334236],[73.99189433318628,18.520745875749],[73.99243332235676,18.520745875749],[73.99243332235676,18.52182385408994],[73.99216382777152,18.52182385408994],[73.99216382777152,18.522093348675178],[73.99189433318628,18.522093348675178],[73.99189433318628,18.52263233784565],[73.99162483860106,18.52263233784565],[73.99162483860106,18.523171327016122],[73.99108584943058,18.523171327016122],[73.99108584943058,18.523710316186595],[73.99054686026011,18.523710316186595],[73.99054686026011,18.524249305357067],[73.98946888191917,18.524249305357067]]]}}]}