<?xml version="1.0" encoding="utf-8" ?>
<kml xmlns="http://www.opengis.net/kml/2.2">
<Document id="root_doc">
<Schema name="clipped" id="clipped">
	<SimpleField name="full_id" type="string"></SimpleField>
	<SimpleField name="osm_id" type="string"></SimpleField>
	<SimpleField name="osm_type" type="string"></SimpleField>
	<SimpleField name="waterway" type="string"></SimpleField>
	<SimpleField name="addr:city" type="string"></SimpleField>
	<SimpleField name="highway" type="string"></SimpleField>
	<SimpleField name="bicycle" type="string"></SimpleField>
	<SimpleField name="wikidata" type="string"></SimpleField>
	<SimpleField name="bridge" type="string"></SimpleField>
	<SimpleField name="name:hi" type="string"></SimpleField>
	<SimpleField name="intermittent" type="string"></SimpleField>
	<SimpleField name="int_name" type="string"></SimpleField>
	<SimpleField name="boat" type="string"></SimpleField>
	<SimpleField name="width" type="string"></SimpleField>
	<SimpleField name="name:gu" type="string"></SimpleField>
	<SimpleField name="name:en" type="string"></SimpleField>
	<SimpleField name="tunnel" type="string"></SimpleField>
	<SimpleField name="name:mr" type="string"></SimpleField>
	<SimpleField name="layer" type="string"></SimpleField>
</Schema>
<Folder><name>clipped</name>
  <Placemark id="clipped.1">
	<name>Mutha</name>
	<Style><LineStyle><color>ff0000ff</color></LineStyle><PolyStyle><fill>0</fill></PolyStyle></Style>
	<ExtendedData><SchemaData schemaUrl="#clipped">
		<SimpleData name="full_id">w23016562</SimpleData>
		<SimpleData name="osm_id">23016562</SimpleData>
		<SimpleData name="osm_type">way</SimpleData>
		<SimpleData name="waterway">river</SimpleData>
		<SimpleData name="width">100</SimpleData>
		<SimpleData name="name:gu">મુઠા</SimpleData>
		<SimpleData name="name:en">Mutha</SimpleData>
		<SimpleData name="name:mr">मुठा</SimpleData>
	</SchemaData></ExtendedData>
      <MultiGeometry><LineString><coordinates>73.850269072724,18.5210029995212 73.851042,18.5211127 73.8513523,18.5211568 73.8527256,18.5214253 73.8528308,18.5214612 73.8541399,18.5219075 73.8542534,18.5219462 73.855245,18.5225088 73.8553005,18.5225403 73.8564335,18.5235169 73.8580299,18.5250225 73.8584002,18.5254505 73.8586095,18.5257474 73.8588198,18.5259963 73.8592573,18.52652 73.8594241,18.5266883 73.8595175,18.5267825 73.8595803,18.5268361 73.8602873,18.5274396 73.8605086,18.5277745 73.8606907,18.52805 73.8607258,18.5287733 73.8607508,18.529287 73.8607131,18.5294997 73.8603474,18.5315656</coordinates></LineString></MultiGeometry>
  </Placemark>
  <Placemark id="clipped.2">
	<name>Mula</name>
	<Style><LineStyle><color>ff0000ff</color></LineStyle><PolyStyle><fill>0</fill></PolyStyle></Style>
	<ExtendedData><SchemaData schemaUrl="#clipped">
		<SimpleData name="full_id">w23018049</SimpleData>
		<SimpleData name="osm_id">23018049</SimpleData>
		<SimpleData name="osm_type">way</SimpleData>
		<SimpleData name="waterway">river</SimpleData>
		<SimpleData name="name:en">Mula</SimpleData>
		<SimpleData name="name:mr">मुळा</SimpleData>
	</SchemaData></ExtendedData>
      <MultiGeometry><LineString><coordinates>73.8730026605794,18.5614825391059 73.873119,18.5595419 73.873222,18.5573612 73.8724752,18.5560431 73.871574,18.5554328 73.8696686,18.5557583 73.8684841,18.5557013 73.8644501,18.5549039 73.8626905,18.5542123 73.8582874,18.5516491 73.8570515,18.5505913 73.8560816,18.5484593 73.8548113,18.544765 73.8543999,18.5435181 73.8541682,18.5411989 73.854425,18.5363833 73.8547855,18.5341861 73.8557812,18.5327538 73.8562069,18.5324113 73.8564558,18.532211 73.8569141,18.5318423 73.8581329,18.531354 73.8593603,18.5312727 73.8603474,18.5315656</coordinates></LineString></MultiGeometry>
  </Placemark>
  <Placemark id="clipped.3">
	<name>Muredha</name>
	<Style><LineStyle><color>ff0000ff</color></LineStyle><PolyStyle><fill>0</fill></PolyStyle></Style>
	<ExtendedData><SchemaData schemaUrl="#clipped">
		<SimpleData name="full_id">w28217394</SimpleData>
		<SimpleData name="osm_id">28217394</SimpleData>
		<SimpleData name="osm_type">way</SimpleData>
		<SimpleData name="waterway">stream</SimpleData>
	</SchemaData></ExtendedData>
      <MultiGeometry><LineString><coordinates>73.8904506,18.531751 73.8906308,18.532044 73.8908197,18.5325078 73.8909189,18.5327156 73.8908567,18.5330032 73.8908092,18.5332767 73.8907939,18.5336634 73.8906738,18.5347295 73.8907338,18.535055 73.890854,18.5354456 73.8909141,18.5360234 73.8909141,18.5364303 73.8910257,18.5368372 73.8912746,18.5371464 73.8914891,18.5374394 73.8916179,18.5377486 73.8918668,18.5383345 73.8917638,18.5386031 73.8920385,18.5388879 73.8922015,18.5393436 73.891884,18.5399539 73.8916436,18.5404096 73.8915557,18.5407972 73.8914165,18.5413384 73.8913607,18.5418025</coordinates></LineString></MultiGeometry>
  </Placemark>
  <Placemark id="clipped.4">
	<name>Mula-Mutha</name>
	<Style><LineStyle><color>ff0000ff</color></LineStyle><PolyStyle><fill>0</fill></PolyStyle></Style>
	<ExtendedData><SchemaData schemaUrl="#clipped">
		<SimpleData name="full_id">w52880515</SimpleData>
		<SimpleData name="osm_id">52880515</SimpleData>
		<SimpleData name="osm_type">way</SimpleData>
		<SimpleData name="waterway">river</SimpleData>
		<SimpleData name="name:mr">मुळा-मुठा</SimpleData>
	</SchemaData></ExtendedData>
      <MultiGeometry><LineString><coordinates>73.8603474,18.5315656 73.8613087,18.5322655 73.8617006,18.5327457 73.8622785,18.5334536 73.8634373,18.5353009 73.8648105,18.5371319 73.865995,18.5380678 73.8682009,18.5391257 73.8695484,18.5395895 73.8713165,18.5400778 73.8719789,18.5402889 73.8793754,18.5426456 73.8833494,18.5431583 73.887701,18.5437604 73.8916921,18.5438093 73.8948249,18.5427107 73.9007043,18.5412866 73.9017429,18.5409774 73.90279,18.5410425 73.9036054,18.5408147 73.9038046,18.5408422 73.9061374,18.5411646 73.9094951,18.5408058 73.9106366,18.539992 73.914911,18.5394956 73.9155118,18.5398455 73.915838,18.539813 73.9177137,18.5391569 73.9224176,18.5391225 73.9236547,18.5390495 73.9250271,18.5384069 73.9303999,18.5365184 73.9335756,18.5361115 73.9348957,18.5359049 73.936995,18.5356738 73.938257,18.5358057 73.9397031,18.5364337 73.9405048,18.5373982 73.943532,18.543354 73.9448195,18.5445747 73.9462786,18.5451443 73.9481669,18.5453884 73.9498021,18.5454901 73.9536432,18.545729 73.9560761,18.5463845 73.9579644,18.5467185 73.9595093,18.546682 73.9606123,18.5463649 73.9618998,18.5452256 73.9649038,18.5438423 73.9672213,18.5431913 73.9695387,18.5430285 73.9715986,18.5419707 73.9734869,18.5409128 73.9745169,18.5391225 73.9758043,18.5347281 73.9770918,18.5331005 73.9786367,18.5311474 73.9846449,18.5271597 73.9899664,18.5243113 73.9917688,18.5221139 73.9922918,18.5200427 73.9923697,18.5173122 73.9915215,18.5130719 73.991867,18.5102009 73.9919924623366,18.5100520000367</coordinates></LineString></MultiGeometry>
  </Placemark>
  <Placemark id="clipped.5">
	<name>Bhairoba Nullah</name>
	<Style><LineStyle><color>ff0000ff</color></LineStyle><PolyStyle><fill>0</fill></PolyStyle></Style>
	<ExtendedData><SchemaData schemaUrl="#clipped">
		<SimpleData name="full_id">w53371521</SimpleData>
		<SimpleData name="osm_id">53371521</SimpleData>
		<SimpleData name="osm_type">way</SimpleData>
		<SimpleData name="waterway">drain</SimpleData>
		<SimpleData name="boat">no</SimpleData>
		<SimpleData name="name:mr">भैरोबा नाला</SimpleData>
	</SchemaData></ExtendedData>
      <MultiGeometry><LineString><coordinates>73.9002386504748,18.5100520000134 73.9001599,18.5102332 73.9001508,18.5104063 73.9001678,18.5105045 73.9002486,18.5106608 73.9003451,18.5108138 73.900361,18.5111047</coordinates></LineString></MultiGeometry>
  </Placemark>
  <Placemark id="clipped.6">
	<name>Muredha Nullah</name>
	<Style><LineStyle><color>ff0000ff</color></LineStyle><PolyStyle><fill>0</fill></PolyStyle></Style>
	<ExtendedData><SchemaData schemaUrl="#clipped">
		<SimpleData name="full_id">w53791113</SimpleData>
		<SimpleData name="osm_id">53791113</SimpleData>
		<SimpleData name="osm_type">way</SimpleData>
		<SimpleData name="waterway">drain</SimpleData>
	</SchemaData></ExtendedData>
      <MultiGeometry><LineString><coordinates>73.886623,18.5102233 73.8865264,18.510793 73.8864191,18.5114238 73.8863869,18.5119223 73.8864191,18.5122988 73.8863762,18.5125633 73.8861724,18.5131635 73.8861402,18.5135094 73.8860758,18.5151575 73.886108,18.5154729 73.885947,18.5158493 73.8860079,18.5159898 73.8861206,18.5160915 73.8862761,18.5161729 73.8863405,18.5162645 73.8863888,18.5163815 73.8863995,18.5165748 73.8864156,18.5167121 73.8865551,18.5169664 73.8866298,18.5171156</coordinates></LineString></MultiGeometry>
  </Placemark>
  <Placemark id="clipped.7">
	<name>Muredha Nullah</name>
	<Style><LineStyle><color>ff0000ff</color></LineStyle><PolyStyle><fill>0</fill></PolyStyle></Style>
	<ExtendedData><SchemaData schemaUrl="#clipped">
		<SimpleData name="full_id">w53791124</SimpleData>
		<SimpleData name="osm_id">53791124</SimpleData>
		<SimpleData name="osm_type">way</SimpleData>
		<SimpleData name="waterway">canal</SimpleData>
	</SchemaData></ExtendedData>
      <MultiGeometry><LineString><coordinates>73.8866298,18.5171156 73.8869448,18.5176297 73.8874705,18.5181892 73.8877709,18.5184842 73.8880499,18.5190234 73.8883825,18.5195728</coordinates></LineString></MultiGeometry>
  </Placemark>
  <Placemark id="clipped.8">
	<Style><LineStyle><color>ff0000ff</color></LineStyle><PolyStyle><fill>0</fill></PolyStyle></Style>
	<ExtendedData><SchemaData schemaUrl="#clipped">
		<SimpleData name="full_id">w53791291</SimpleData>
		<SimpleData name="osm_id">53791291</SimpleData>
		<SimpleData name="osm_type">way</SimpleData>
		<SimpleData name="waterway">canal</SimpleData>
	</SchemaData></ExtendedData>
      <MultiGeometry><LineString><coordinates>73.9004447,18.5109768 73.9015733,18.5109342 73.9021887,18.5110183 73.9026443,18.5112738 73.9030916,18.5117123 73.9062013,18.5151857 73.9065489,18.5153807 73.9070921,18.5156039 73.9075789,18.5155435 73.9081282,18.5154133 73.908599,18.5150986 73.9090723,18.514868 73.9094672,18.514811 73.9099135,18.5149249 73.9101881,18.5151121 73.9104714,18.5154947 73.9109005,18.5175131 73.9112009,18.5180828 73.9116473,18.518506 73.9120593,18.5187746 73.9125571,18.5189618 73.9132437,18.5190187 73.9179644,18.5180828 73.9183421,18.5178305 73.9186253,18.517448 73.9193978,18.5145343 73.9210806449247,18.5100520000187</coordinates></LineString></MultiGeometry>
  </Placemark>
  <Placemark id="clipped.9">
	<Style><LineStyle><color>ff0000ff</color></LineStyle><PolyStyle><fill>0</fill></PolyStyle></Style>
	<ExtendedData><SchemaData schemaUrl="#clipped">
		<SimpleData name="full_id">w53791292</SimpleData>
		<SimpleData name="osm_id">53791292</SimpleData>
		<SimpleData name="osm_type">way</SimpleData>
		<SimpleData name="waterway">canal</SimpleData>
	</SchemaData></ExtendedData>
      <MultiGeometry><LineString><coordinates>73.896077,18.5107048 73.8969337,18.510868 73.8974421,18.5109618 73.8976974,18.5109919 73.8980456,18.5109844 73.8993387,18.5110169 73.900081,18.5109907 73.9001637,18.5109854</coordinates></LineString></MultiGeometry>
  </Placemark>
  <Placemark id="clipped.10">
	<name>Nagzari</name>
	<Style><LineStyle><color>ff0000ff</color></LineStyle><PolyStyle><fill>0</fill></PolyStyle></Style>
	<ExtendedData><SchemaData schemaUrl="#clipped">
		<SimpleData name="full_id">w151724013</SimpleData>
		<SimpleData name="osm_id">151724013</SimpleData>
		<SimpleData name="osm_type">way</SimpleData>
		<SimpleData name="waterway">stream</SimpleData>
		<SimpleData name="intermittent">yes</SimpleData>
		<SimpleData name="boat">no</SimpleData>
		<SimpleData name="name:mr">नागझरी</SimpleData>
	</SchemaData></ExtendedData>
      <MultiGeometry><LineString><coordinates>73.8639183,18.5162184 73.8639405,18.5162964 73.864025,18.5165303 73.8641231,18.5167345 73.8641495,18.5170153 73.8640666,18.5171225 73.8636404,18.5173606 73.8629293,18.517855 73.8624358,18.5179974 73.8621326,18.5181811 73.8620281,18.5184044 73.8620728,18.5188889 73.8623669,18.5193177 73.8620239,18.5196981 73.8619469,18.519838 73.8619793,18.5203048 73.8619965,18.5209324 73.8619249,18.5210347 73.8614273,18.5212122 73.8612352,18.521469 73.8612161,18.5215885 73.8612476,18.5216419 73.8612872,18.5216845 73.8612858,18.5218035 73.8613033,18.521874 73.8613938,18.5219605 73.8614635,18.5220662 73.8614627,18.5223858 73.8612224,18.5227881 73.8609767,18.5232061 73.8609338,18.5237351 73.861084,18.5240403 73.8611309,18.5241879 73.8611698,18.5244269 73.861084,18.5245693 73.8608265,18.5248338 73.860204,18.5256387 73.8601184,18.5257493 73.8597348,18.5263018 73.8595869,18.5265652 73.8595175,18.5267825</coordinates></LineString></MultiGeometry>
  </Placemark>
  <Placemark id="clipped.11">
	<Style><LineStyle><color>ff0000ff</color></LineStyle><PolyStyle><fill>0</fill></PolyStyle></Style>
	<ExtendedData><SchemaData schemaUrl="#clipped">
		<SimpleData name="full_id">w151724015</SimpleData>
		<SimpleData name="osm_id">151724015</SimpleData>
		<SimpleData name="osm_type">way</SimpleData>
		<SimpleData name="waterway">stream</SimpleData>
		<SimpleData name="intermittent">yes</SimpleData>
		<SimpleData name="boat">no</SimpleData>
	</SchemaData></ExtendedData>
      <MultiGeometry><LineString><coordinates>73.8634550973016,18.510052000004 73.8634117,18.5101455 73.8634413,18.5103783 73.8635083,18.5104813 73.8635834,18.5105932 73.8636263,18.5107356 73.8635727,18.5108984 73.8635512,18.5110205 73.8635621,18.511103 73.8635727,18.5111833 73.8635941,18.511346 73.8636263,18.511519 73.8636907,18.5116818 73.8637658,18.5117835 73.8638516,18.5119463 73.8639911,18.5121396 73.8640662,18.5123431 73.8640984,18.5124346 73.8640757,18.5126177 73.8640757,18.5127805 73.8641294,18.5130145 73.8641616,18.5131671 73.864282,18.5134228 73.8643206,18.513603 73.8643387,18.5137451 73.8643654,18.5138894 73.8643156,18.5141016 73.8641723,18.514276 73.8640435,18.5143981 73.8637968,18.5147033 73.8637609,18.5149018 73.8638267,18.5150593 73.8638933,18.5152526 73.8639684,18.5154154 73.8640006,18.5155985 73.8639584,18.5158074 73.8639183,18.5162184</coordinates></LineString></MultiGeometry>
  </Placemark>
  <Placemark id="clipped.12">
	<name>Bhairoba Nullah</name>
	<Style><LineStyle><color>ff0000ff</color></LineStyle><PolyStyle><fill>0</fill></PolyStyle></Style>
	<ExtendedData><SchemaData schemaUrl="#clipped">
		<SimpleData name="full_id">w158258318</SimpleData>
		<SimpleData name="osm_id">158258318</SimpleData>
		<SimpleData name="osm_type">way</SimpleData>
		<SimpleData name="waterway">drain</SimpleData>
		<SimpleData name="boat">no</SimpleData>
		<SimpleData name="name:mr">भैरोबा नाला</SimpleData>
	</SchemaData></ExtendedData>
      <MultiGeometry><LineString><coordinates>73.900361,18.5111047 73.9003395,18.5115524 73.9003717,18.5123052 73.9004553,18.512713 73.9004468,18.512997 73.9003824,18.5132208 73.9000713,18.5137092 73.899728,18.5140551 73.8994919,18.514401 73.8990413,18.5147367 73.8986122,18.5152047 73.8982688,18.5156727 73.8981294,18.5159372 73.8981723,18.5162322 73.8982581,18.5164357 73.898419,18.5166798 73.8985156,18.5169138 73.8985907,18.5172089 73.8986122,18.5175344 73.8985263,18.5177786 73.8984941,18.5180125 73.8984727,18.5183788 73.89858,18.5186636 73.8987302,18.5188061 73.8990628,18.5188976 73.8994061,18.5187857 73.8994919,18.5188569 73.8996421,18.5190095 73.8998352,18.5192842 73.9001249,18.5196199 73.9004468,18.5200472 73.9005219,18.520271 73.9005648,18.5204745 73.9006184,18.5206881 73.900715,18.5211052 73.9006614,18.5213494 73.9005541,18.5215528 73.9005863,18.5221225 73.9006506,18.5224888 73.9008223,18.5227838 73.9008992,18.5228965 73.9009403,18.5229567 73.9011334,18.5233738 73.901348,18.5238418 73.9014338,18.5242894 73.9013587,18.5245946 73.90123,18.5248794 73.9011227,18.5251948 73.9010905,18.5253982 73.9011227,18.5257645 73.9011574,18.5260589 73.9011656,18.5263443 73.9013043,18.5267468 73.9013966,18.5270482 73.9014338,18.5273107 73.9014124,18.527565 73.9014875,18.5279923 73.9016699,18.5285823 73.9016591,18.5290299 73.9015948,18.5291825 73.9015089,18.5293758 73.9013802,18.5296199 73.9012944,18.5298743 73.9009618,18.5302608 73.9008867,18.5304846 73.9008223,18.530861 73.9007365,18.5315019 73.9005541,18.5325395 73.9006803,18.5331388 73.9007446,18.5337005 73.9008029,18.5342097 73.9007686,18.5347469 73.9008438,18.5352758 73.9008867,18.5358048 73.9009081,18.5361506 73.9010394,18.5367522 73.9012599,18.5369002 73.9016642,18.5369932 73.9021894,18.5370727 73.9028394,18.5370962 73.903146,18.5371383 73.9032319,18.537179 73.9032882,18.5372299 73.9033204,18.5373036 73.9033114,18.537412 73.9033177,18.5376546 73.9033552,18.5379979 73.903347,18.5382488 73.9032721,18.5383488 73.9032372,18.5384607 73.9032805,18.5387239 73.903365,18.5389582 73.9034584,18.5393294 73.9036566,18.5395826 73.9037527,18.5398403 73.9038324,18.5400873 73.9037405,18.5403314 73.9036654,18.5405145 73.9037191,18.5406874 73.9038046,18.5408422</coordinates></LineString></MultiGeometry>
  </Placemark>
  <Placemark id="clipped.13">
	<name>Mutha Right Bank Canal</name>
	<Style><LineStyle><color>ff0000ff</color></LineStyle><PolyStyle><fill>0</fill></PolyStyle></Style>
	<ExtendedData><SchemaData schemaUrl="#clipped">
		<SimpleData name="full_id">w158258323</SimpleData>
		<SimpleData name="osm_id">158258323</SimpleData>
		<SimpleData name="osm_type">way</SimpleData>
		<SimpleData name="waterway">canal</SimpleData>
		<SimpleData name="bridge">yes</SimpleData>
		<SimpleData name="name:mr">मुठा उजवा कालवा</SimpleData>
		<SimpleData name="layer">1</SimpleData>
	</SchemaData></ExtendedData>
      <MultiGeometry><LineString><coordinates>73.8999983554488,18.5100520000133 73.900403,18.5101788</coordinates></LineString></MultiGeometry>
  </Placemark>
  <Placemark id="clipped.14">
	<Style><LineStyle><color>ff0000ff</color></LineStyle><PolyStyle><fill>0</fill></PolyStyle></Style>
	<ExtendedData><SchemaData schemaUrl="#clipped">
		<SimpleData name="full_id">w158258324</SimpleData>
		<SimpleData name="osm_id">158258324</SimpleData>
		<SimpleData name="osm_type">way</SimpleData>
		<SimpleData name="waterway">canal</SimpleData>
		<SimpleData name="bridge">aqueduct</SimpleData>
		<SimpleData name="layer">1</SimpleData>
	</SchemaData></ExtendedData>
      <MultiGeometry><LineString><coordinates>73.9001637,18.5109854 73.9004447,18.5109768</coordinates></LineString></MultiGeometry>
  </Placemark>
  <Placemark id="clipped.15">
	<name>Mutha Right Bank Canal</name>
	<Style><LineStyle><color>ff0000ff</color></LineStyle><PolyStyle><fill>0</fill></PolyStyle></Style>
	<ExtendedData><SchemaData schemaUrl="#clipped">
		<SimpleData name="full_id">w158258325</SimpleData>
		<SimpleData name="osm_id">158258325</SimpleData>
		<SimpleData name="osm_type">way</SimpleData>
		<SimpleData name="waterway">canal</SimpleData>
		<SimpleData name="name:mr">मुठा उजवा कालवा</SimpleData>
	</SchemaData></ExtendedData>
      <MultiGeometry><LineString><coordinates>73.900403,18.5101788 73.9008385,18.5102621 73.9023834,18.5103923 73.9033447,18.5104086 73.9050442,18.5101237 73.905748,18.5100668 73.9062365,18.510124 73.9064928,18.5101893 73.9065544,18.5102044 73.9070526,18.5104249 73.9073955,18.5107547 73.9076027,18.5111503 73.9078352,18.512177 73.9080483,18.5126012 73.9106049,18.5146697 73.9110674,18.5149383 73.913627,18.5159036 73.9139189,18.5159543 73.914477,18.5159838 73.9151207,18.5159593 73.915567,18.5159024 73.9166485,18.5156338 73.9177471,18.5150722 73.918408,18.5145839 73.9187513,18.5141281 73.920528,18.51049 73.9206837849127,18.5100520000186</coordinates></LineString></MultiGeometry>
  </Placemark>
  <Placemark id="clipped.16">
	<Style><LineStyle><color>ff0000ff</color></LineStyle><PolyStyle><fill>0</fill></PolyStyle></Style>
	<ExtendedData><SchemaData schemaUrl="#clipped">
		<SimpleData name="full_id">w215075337</SimpleData>
		<SimpleData name="osm_id">215075337</SimpleData>
		<SimpleData name="osm_type">way</SimpleData>
		<SimpleData name="waterway">canal</SimpleData>
	</SchemaData></ExtendedData>
      <MultiGeometry><LineString><coordinates>73.9449905835096,18.5100520000247 73.9451149,18.5101523 73.9453389,18.5102502 73.945587,18.5103151 73.9460443,18.5104524 73.9463152,18.5105961 73.9466129,18.5108085 73.9468449,18.5110921 73.9470555,18.5114227 73.9472848,18.5118017 73.9477622,18.5125952 73.9482477,18.5134346 73.9484221,18.5138542 73.9488083,18.5150242 73.9490645,18.5158686 73.9491624,18.5160644 73.9493555,18.5162704 73.9495781,18.5164103 73.9498249,18.5164739 73.9500368,18.5164879 73.9502929,18.5164599 73.9505973,18.5163417 73.9507958,18.516184 73.9509769,18.5159601 73.9510761,18.5156905 73.9511351,18.5154121 73.9519921,18.5116593 73.9521396,18.5111506 73.9523247,18.5108123 73.9525902,18.5104766 73.9528745,18.5102655 73.9532956,18.5100747 73.9533753938449,18.5100520000269</coordinates></LineString></MultiGeometry>
  </Placemark>
  <Placemark id="clipped.17">
	<Style><LineStyle><color>ff0000ff</color></LineStyle><PolyStyle><fill>0</fill></PolyStyle></Style>
	<ExtendedData><SchemaData schemaUrl="#clipped">
		<SimpleData name="full_id">w387281072</SimpleData>
		<SimpleData name="osm_id">387281072</SimpleData>
		<SimpleData name="osm_type">way</SimpleData>
		<SimpleData name="waterway">stream</SimpleData>
	</SchemaData></ExtendedData>
      <MultiGeometry><LineString><coordinates>73.9333319,18.5193249 73.9332814,18.5209329 73.9332885,18.5213217 73.9333455,18.5215685 73.9334382,18.5217037 73.9338268,18.5219167 73.9339409,18.5220586 73.9342903,18.5225691 73.9347039,18.5229376 73.9348714,18.5232452 73.9350782,18.5241883 73.9352458,18.5244182 73.9355417,18.524523</coordinates></LineString></MultiGeometry>
  </Placemark>
  <Placemark id="clipped.18">
	<Style><LineStyle><color>ff0000ff</color></LineStyle><PolyStyle><fill>0</fill></PolyStyle></Style>
	<ExtendedData><SchemaData schemaUrl="#clipped">
		<SimpleData name="full_id">w910115687</SimpleData>
		<SimpleData name="osm_id">910115687</SimpleData>
		<SimpleData name="osm_type">way</SimpleData>
		<SimpleData name="waterway">river</SimpleData>
	</SchemaData></ExtendedData>
      <MultiGeometry><LineString><coordinates>73.8622785,18.5334536 73.8640344,18.5343655 73.8655364,18.5344876 73.8667488,18.5346503 73.8677037,18.535281 73.870343,18.5388108 73.8719789,18.5402889</coordinates></LineString></MultiGeometry>
  </Placemark>
  <Placemark id="clipped.19">
	<Style><LineStyle><color>ff0000ff</color></LineStyle><PolyStyle><fill>0</fill></PolyStyle></Style>
	<ExtendedData><SchemaData schemaUrl="#clipped">
		<SimpleData name="full_id">w910115691</SimpleData>
		<SimpleData name="osm_id">910115691</SimpleData>
		<SimpleData name="osm_type">way</SimpleData>
		<SimpleData name="waterway">drain</SimpleData>
	</SchemaData></ExtendedData>
      <MultiGeometry><LineString><coordinates>73.957956336383,18.5614828481827 73.95794,18.5613615 73.9579736,18.5612545 73.9579797,18.5610587 73.9579956,18.5609808 73.9580708,18.560872 73.9581709,18.5608099 73.9584177,18.5607189 73.9586829,18.5606812 73.9590669,18.5607212 73.9595318,18.5608472</coordinates></LineString></MultiGeometry>
  </Placemark>
  <Placemark id="clipped.20">
	<Style><LineStyle><color>ff0000ff</color></LineStyle><PolyStyle><fill>0</fill></PolyStyle></Style>
	<ExtendedData><SchemaData schemaUrl="#clipped">
		<SimpleData name="full_id">w981035037</SimpleData>
		<SimpleData name="osm_id">981035037</SimpleData>
		<SimpleData name="osm_type">way</SimpleData>
		<SimpleData name="waterway">ditch</SimpleData>
	</SchemaData></ExtendedData>
      <MultiGeometry><LineString><coordinates>73.94386,18.5564869 73.9438925,18.5564466 73.9447229,18.5561045 73.9459312,18.5558141 73.9462316,18.5557506 73.9464834,18.5556082 73.9465585,18.5552271 73.9463465,18.5549255 73.9458809,18.5545579 73.9458299,18.5537432 73.9457376,18.5534004 73.9456017,18.5528803 73.9455167,18.5521186 73.9453323,18.5518539 73.9452352,18.5515156 73.9452619,18.551152 73.9453784,18.550648 73.9453568,18.5500878 73.9455556,18.5495768 73.945729,18.5494648 73.9459444,18.5493255 73.9465762,18.5490365 73.9466647,18.548999 73.9470393,18.5488405 73.9475146,18.5487889 73.9476063,18.5486776 73.9484395,18.548569 73.9484529,18.5485687</coordinates></LineString></MultiGeometry>
  </Placemark>
  <Placemark id="clipped.21">
	<Style><LineStyle><color>ff0000ff</color></LineStyle><PolyStyle><fill>0</fill></PolyStyle></Style>
	<ExtendedData><SchemaData schemaUrl="#clipped">
		<SimpleData name="full_id">w1181968551</SimpleData>
		<SimpleData name="osm_id">1181968551</SimpleData>
		<SimpleData name="osm_type">way</SimpleData>
		<SimpleData name="waterway">ditch</SimpleData>
	</SchemaData></ExtendedData>
      <MultiGeometry><LineString><coordinates>73.9439149678261,18.5614827970977 73.9439584,18.5608277 73.9441093,18.5604808 73.9441674,18.5603472 73.9451381,18.5597256 73.9455733,18.55937 73.9456792,18.5591149 73.9453872,18.5588434 73.9441073,18.5585964 73.9434201,18.5585964 73.9431137,18.5584634 73.9430364,18.5581757 73.9431194,18.5574753 73.9433399,18.5570682 73.9435718,18.5567723 73.9436138,18.5566973</coordinates></LineString></MultiGeometry>
  </Placemark>
  <Placemark id="clipped.22">
	<Style><LineStyle><color>ff0000ff</color></LineStyle><PolyStyle><fill>0</fill></PolyStyle></Style>
	<ExtendedData><SchemaData schemaUrl="#clipped">
		<SimpleData name="full_id">w1181968552</SimpleData>
		<SimpleData name="osm_id">1181968552</SimpleData>
		<SimpleData name="osm_type">way</SimpleData>
		<SimpleData name="waterway">ditch</SimpleData>
	</SchemaData></ExtendedData>
      <MultiGeometry><LineString><coordinates>73.9436138,18.5566973 73.94386,18.5564869</coordinates></LineString></MultiGeometry>
  </Placemark>
  <Placemark id="clipped.23">
	<Style><LineStyle><color>ff0000ff</color></LineStyle><PolyStyle><fill>0</fill></PolyStyle></Style>
	<ExtendedData><SchemaData schemaUrl="#clipped">
		<SimpleData name="full_id">w1181968553</SimpleData>
		<SimpleData name="osm_id">1181968553</SimpleData>
		<SimpleData name="osm_type">way</SimpleData>
		<SimpleData name="waterway">ditch</SimpleData>
	</SchemaData></ExtendedData>
      <MultiGeometry><LineString><coordinates>73.9487002,18.5485632 73.948806,18.5485609 73.9489492,18.5483926 73.9489406,18.5479257 73.9490064,18.5476868 73.9493787,18.5472796 73.9496363,18.5470841 73.9498597,18.5467177 73.9498021,18.5454901</coordinates></LineString></MultiGeometry>
  </Placemark>
  <Placemark id="clipped.24">
	<Style><LineStyle><color>ff0000ff</color></LineStyle><PolyStyle><fill>0</fill></PolyStyle></Style>
	<ExtendedData><SchemaData schemaUrl="#clipped">
		<SimpleData name="full_id">w1181968554</SimpleData>
		<SimpleData name="osm_id">1181968554</SimpleData>
		<SimpleData name="osm_type">way</SimpleData>
		<SimpleData name="waterway">ditch</SimpleData>
		<SimpleData name="tunnel">culvert</SimpleData>
		<SimpleData name="layer">-1</SimpleData>
	</SchemaData></ExtendedData>
      <MultiGeometry><LineString><coordinates>73.9484529,18.5485687 73.9485982,18.5485655</coordinates></LineString></MultiGeometry>
  </Placemark>
  <Placemark id="clipped.25">
	<Style><LineStyle><color>ff0000ff</color></LineStyle><PolyStyle><fill>0</fill></PolyStyle></Style>
	<ExtendedData><SchemaData schemaUrl="#clipped">
		<SimpleData name="full_id">w1181968555</SimpleData>
		<SimpleData name="osm_id">1181968555</SimpleData>
		<SimpleData name="osm_type">way</SimpleData>
		<SimpleData name="waterway">ditch</SimpleData>
		<SimpleData name="tunnel">culvert</SimpleData>
		<SimpleData name="layer">-1</SimpleData>
	</SchemaData></ExtendedData>
      <MultiGeometry><LineString><coordinates>73.9486194,18.548565 73.9487002,18.5485632</coordinates></LineString></MultiGeometry>
  </Placemark>
  <Placemark id="clipped.26">
	<Style><LineStyle><color>ff0000ff</color></LineStyle><PolyStyle><fill>0</fill></PolyStyle></Style>
	<ExtendedData><SchemaData schemaUrl="#clipped">
		<SimpleData name="full_id">w1181968556</SimpleData>
		<SimpleData name="osm_id">1181968556</SimpleData>
		<SimpleData name="osm_type">way</SimpleData>
		<SimpleData name="waterway">ditch</SimpleData>
		<SimpleData name="tunnel">culvert</SimpleData>
		<SimpleData name="layer">-1</SimpleData>
	</SchemaData></ExtendedData>
      <MultiGeometry><LineString><coordinates>73.9485982,18.5485655 73.9486194,18.548565</coordinates></LineString></MultiGeometry>
  </Placemark>
  <Placemark id="clipped.27">
	<name>Manik</name>
	<Style><LineStyle><color>ff0000ff</color></LineStyle><PolyStyle><fill>0</fill></PolyStyle></Style>
	<ExtendedData><SchemaData schemaUrl="#clipped">
		<SimpleData name="full_id">w1304296304</SimpleData>
		<SimpleData name="osm_id">1304296304</SimpleData>
		<SimpleData name="osm_type">way</SimpleData>
		<SimpleData name="waterway">stream</SimpleData>
	</SchemaData></ExtendedData>
      <MultiGeometry><LineString><coordinates>73.8595803,18.5268361 73.85977,18.5264177 73.8601531,18.5258348 73.8604368,18.525454 73.8609978,18.5257161 73.862659,18.5252294 73.862836,18.5251254 73.8633633,18.5246992 73.8637031,18.5243435 73.8638057,18.5243267 73.8643472,18.5243837 73.8643968,18.5243837 73.8645737,18.5242596 73.8646374,18.5240515 73.8648038,18.5238938 73.8648675,18.5237461 73.8648498,18.5235481 73.8646976,18.5225615 73.864733,18.5224877 73.8650802,18.5224036 73.8658203,18.5222243 73.8658954,18.5222177 73.8661224,18.5223096 73.8662573,18.5223672 73.8663425,18.5223954 73.8667932,18.5225188</coordinates></LineString></MultiGeometry>
  </Placemark>
  <Placemark id="clipped.28">
	<name>Manik</name>
	<Style><LineStyle><color>ff0000ff</color></LineStyle><PolyStyle><fill>0</fill></PolyStyle></Style>
	<ExtendedData><SchemaData schemaUrl="#clipped">
		<SimpleData name="full_id">w1304296305</SimpleData>
		<SimpleData name="osm_id">1304296305</SimpleData>
		<SimpleData name="osm_type">way</SimpleData>
		<SimpleData name="waterway">stream</SimpleData>
	</SchemaData></ExtendedData>
      <MultiGeometry><LineString><coordinates>73.8667932,18.5225188 73.8671002,18.5225708</coordinates></LineString></MultiGeometry>
  </Placemark>
  <Placemark id="clipped.29">
	<name>Manik</name>
	<Style><LineStyle><color>ff0000ff</color></LineStyle><PolyStyle><fill>0</fill></PolyStyle></Style>
	<ExtendedData><SchemaData schemaUrl="#clipped">
		<SimpleData name="full_id">w1304296306</SimpleData>
		<SimpleData name="osm_id">1304296306</SimpleData>
		<SimpleData name="osm_type">way</SimpleData>
		<SimpleData name="waterway">stream</SimpleData>
		<SimpleData name="tunnel">culvert</SimpleData>
		<SimpleData name="layer">-1</SimpleData>
	</SchemaData></ExtendedData>
      <MultiGeometry><LineString><coordinates>73.8671002,18.5225708 73.8673296,18.5226262 73.8674487,18.5226467 73.8675228,18.5226334 73.8675421,18.5226306 73.8675561,18.5226129 73.8675695,18.5225061 73.8675818,18.5224303 73.8676268,18.5223594 73.8676244,18.5219858 73.8675118,18.5209474 73.8675888,18.5205118 73.867667,18.5203966 73.8677678,18.5202887 73.8680333,18.5199606 73.8680709,18.5199288 73.8682653,18.5199504 73.8683243,18.519939 73.8684061,18.5199136 73.8686842,18.5198211 73.8691301,18.5198366 73.8694477,18.5197746 73.8697232,18.5196905 73.8700198,18.5195377 73.8702159,18.519489 73.8705615,18.5195732 73.8707646,18.5196197 73.8709168,18.519331 73.8709805,18.5191465 73.8709947,18.5189887 73.8710053,18.5187706 73.8710088,18.5185927 73.8711221,18.5183243 73.871115,18.5180323 73.8711504,18.5178779 73.8713238,18.5178611 73.871561,18.5179148 73.871883,18.5179585 73.8721768,18.5179887 73.8723962,18.5179752 73.8725201,18.5179014 73.8726616,18.517794 73.8728315,18.5175826 73.8729589,18.5173611 73.8730226,18.5171363 73.873051,18.5170222 73.8732138,18.516653 73.8732173,18.5163912 73.8732562,18.5161764 73.8732138,18.5158039 73.8731288,18.515512 73.8731182,18.5152938 73.8731607,18.5149515 73.8734438,18.5146562 73.8734951,18.5141114 73.8735863,18.5137299 73.8740047,18.5132975 73.8746109,18.5126209 73.8750025,18.512153 73.8752975,18.5113543 73.8755015,18.5110831 73.8759037,18.5107134 73.876188,18.5103369 73.8762238,18.5102339 73.8763156526363,18.5100520000073</coordinates></LineString></MultiGeometry>
  </Placemark>
  <Placemark id="clipped.30">
	<Style><LineStyle><color>ff0000ff</color></LineStyle><PolyStyle><fill>0</fill></PolyStyle></Style>
      <MultiGeometry><LineString><coordinates>73.8544000010402,18.5368520889048 73.8541001169455,18.5368842363367 73.8538877302358,18.5369253434418 73.8536958970787,18.5369801529152 73.8534629568165,18.5370349623887 73.8532916772119,18.5371993908091 73.8531889094491,18.5372747538351 73.8530107786604,18.5373364144928 73.8528943085293,18.537384372782 73.8527093265563,18.5373775215979 73.8525243445834,18.5372953073877 73.8523530649788,18.5371788372566 73.8522228924793,18.5370897718622 73.8520790176115,18.5369116410734 73.8519419939278,18.5367403614688 73.8517775655074,18.5365622306801 73.8516268394554,18.5363772487071 73.8514692622192,18.5361717131816 73.8513664944564,18.5360415406822 73.8513322385355,18.5360278383138 73.8512226195886,18.5359867312087 73.8510718935366,18.5359456241036 73.8507978461692,18.5358702610776 73.8506471201172,18.5358428563408 73.850269170681,18.5357537908175</coordinates></LineString></MultiGeometry>
  </Placemark>
  <Placemark id="clipped.31">
	<Style><LineStyle><color>ff0000ff</color></LineStyle><PolyStyle><fill>0</fill></PolyStyle></Style>
      <MultiGeometry><LineString><coordinates>73.9363141494241,18.5357487509685 73.9361978570116,18.5351508867383 73.9361224939856,18.5349110952919 73.9360197262228,18.5347586564439 73.9359786191177,18.5346918573981 73.9359529271771,18.5346438991088 73.9359186712561,18.5345822384512 73.9358946921115,18.5345068754251 73.9358621489866,18.5344126716426 73.9358296058618,18.5342996271036 73.9358107651052,18.5342122745053 73.9357919243487,18.5341540394397 73.9356805926058,18.5337669475334 73.9356257831323,18.5335871039486 73.9356189319481,18.5335066025344 73.9356240703362,18.5334055475677 73.9356497622769,18.533340461318 73.9356977205662,18.5332736622722 73.9357782219804,18.5332171400027 73.9358964049075,18.5331503409569 73.9360111622426,18.5330938186874 73.9360659717161,18.5330527115823 73.9360899508607,18.5330270196416 73.9362201233602,18.5328437504647 73.9362715072416,18.5327512594782 73.9363143271427,18.5326656196759 73.9363845517806,18.5325508623409 73.9364342228659,18.5323932851046 73.9364804683591,18.5323247732628 73.9365232882603,18.5322374206645 73.9367322493779,18.5318845846791 73.9367870588513,18.5317030282982 73.9368315915485,18.5315660046145 73.9369138057587,18.5311737743201 73.936999445561,18.5308380662951 73.9370337014819,18.5307078937956 73.9370628190147,18.5305914236645 73.9370645318108,18.5305177734345 73.9370628190147,18.5304406976125 73.9370405526661,18.5303653345864 73.9370234247057,18.5299936578445 73.9370045839491,18.5298737621213 73.936999445561,18.5297572919902 73.9370319886859,18.5296493858393 73.9370696701989,18.529563746037 73.9372889080928,18.5289813953814 73.9373163128295,18.5288923299871 73.9373916758555,18.5287279015667 73.9374327829606,18.5286251338039 73.9374670388815,18.528515514857 73.9374875924341,18.5284058959101 73.9374944436182,18.5283442352524 73.9374944436182,18.5282757234106 73.9374327829606,18.5282072115688 73.9373916758555,18.5281524020953 73.9373437175662,18.5280770390693 73.9372546521718,18.5279811224907 73.9371381820407,18.5278440988071 73.9370628190147,18.5277207774918 73.9370011583571,18.5276043073606 73.9369394976994,18.5274467301244 73.9369120929627,18.527316557625 73.936884688226,18.5271726827571 73.9368778370418,18.5270425102576 73.9369326465152,18.5267479093378 73.9369394976994,18.5266108856541 73.9369394976994,18.5265012667072 73.9368983905943,18.5263984989444 73.9368572834892,18.5262683264449 73.9367819204632,18.5261038980245 73.936699706253,18.5259394696042 73.9365832361219,18.525747636447 73.9364599148066,18.5255078450006 73.9363365934913,18.5253023094751 73.9362406769127,18.5250625180287 73.9361516115184,18.5246582981619 73.9361036532291,18.5244870185573 73.9361790162551,18.5241992688216 73.9362269745444,18.5240416915854 73.9362852096099,18.5239320726385 73.9362646560574,18.523877263165 73.9362098465839,18.5237881977707 73.9358946921115,18.5233497219829 73.9356720286256,18.5230859513919 73.9355521329023,18.5229352253399 73.9355076002052,18.5228324575771 73.9354459395475,18.5226988594855 73.9354082580345,18.5221987230402 73.9353431717848,18.5218869941598 73.9352129992853,18.5210340217291 73.9351992969169,18.5207496975855 73.9350417196807,18.5206298018622 73.9349595054705,18.5205338852837 73.9349046959971,18.5204756502181 73.934825907379,18.5203968616 73.9348190561948,18.5202872426531 73.9348361841552,18.5201467933773 73.9348738656682,18.5189992200267 73.9349355263258,18.5180126495043 73.9350931035621,18.5178208163472 73.9351958713248,18.5176700902951 73.9352575319825,18.5175741737166 73.9353054902717,18.517478257138 73.9352917879034,18.5172795727967 73.9351479130355,18.5170123766136 73.935051996457,18.5168479481932 73.9349971869835,18.5166629662202 73.9350656988253,18.5163135558269 73.9350862523779,18.5161902345116 73.9351547642197,18.5160806155647 73.935202722509,18.5155119672775 73.9350999547462,18.5151831104367 73.9349149727733,18.5147720393857 73.9347779490896,18.5144431825449 73.9346614789585,18.5141965399143 73.9344764969856,18.5135936357062 73.9343463244861,18.5132716300496 73.9342641102759,18.5130797968925 73.9342435567234,18.5130523921557 73.9340722771188,18.5129907314981 73.9338735927775,18.5129085172879 73.9337913785673,18.512538553342 73.9338461880407,18.512202845317 73.9339421046193,18.5119836074232 73.9341407889606,18.5116821553191 73.934229854355,18.5113670008467 73.9342435567234,18.511003888085 73.9342778126443,18.5106065194024 73.9342983661969,18.5104283886136 73.9342093008025,18.5101543412463 73.9341407889606,18.510052000022</coordinates></LineString></MultiGeometry>
  </Placemark>
  <Placemark id="clipped.32">
	<Style><LineStyle><color>ff0000ff</color></LineStyle><PolyStyle><fill>0</fill></PolyStyle></Style>
      <MultiGeometry><LineString><coordinates>73.9737605527085,18.5404371490835 73.9742167908397,18.5408819023075 73.9745216685358,18.5412963989506 73.9749532931394,18.5418273657247 73.9756041556368,18.5423857372357 73.9760597593849,18.5427933826946 73.9762070598449,18.542885873681 73.9764537024755,18.543519608218 73.9767551545795,18.544232131373 73.9769880948417,18.5446020953189 73.9772073327356,18.5448213332128 73.977371761156,18.5449446545281 73.9775635943131,18.5450268687383 73.9777143203652,18.5450405711066 73.9778787487855,18.5449720592648 73.9781116890478,18.5448487379495 73.9783172245733,18.5448761426862 73.9786460814141,18.5451775947903 73.9788379145712,18.5453009161056 73.9790708548334,18.5452598090005 73.9792763903589,18.545204999527 73.9795915448313,18.545314618474 73.9799066993037,18.5455612611045 73.9802629608813,18.5456297729464 73.9807699485108,18.5455338563678 73.9811947219302,18.5454379397892 73.9815098764026,18.5455064516311 73.9817839237699,18.5457119871566 73.9821812924525,18.5459997368923 73.9827293871872,18.5460956534708 73.9831267558698,18.5461093558392 73.9836337434994,18.5460956534708 73.9839351956034,18.5461641653127 73.9840482401424,18.5462189747861 73.9843017339572,18.5462977634042 73.9844216296804,18.5463936799828 73.9845689301404,18.5465067245218</coordinates></LineString></MultiGeometry>
  </Placemark>
  <Placemark id="clipped.33">
	<Style><LineStyle><color>ff0000ff</color></LineStyle><PolyStyle><fill>0</fill></PolyStyle></Style>
      <MultiGeometry><LineString><coordinates>73.9610475040802,18.5459797908671 73.9614530347065,18.546475894193 73.9617442100343,18.5468218789942 73.9620388109542,18.5471164799141 73.9622751768085,18.5474179320182 73.9624019237159,18.5476268931357 73.962816420359,18.5483017347778 73.9629020601613,18.5487162314209 73.9628815066087,18.5493602427341 73.9628438250957,18.5496068853647 73.9627753132539,18.5501104474021 73.962778738846,18.5502406199016 73.962593756873,18.5515080889755 73.9625355218075,18.5521007164073 73.9625286706233,18.5521897818017 73.9626656943069,18.5528406442991 73.9627821644381,18.5530598821929 73.9628712298324,18.5531044148901 73.9633610895015,18.5532174594291 73.9636865207502,18.5532791200868 73.9640736126566,18.5533750366654 73.96427572259,18.5534469740993 73.9651047158761,18.553734723835 73.9655740219927,18.553885449887 73.9656939177159,18.5539471105446 73.9660227745567,18.5541218157413 73.9662351612663,18.5542656906092 73.9663447802133,18.5544232678454 73.9663653337658,18.5545876962658 73.9662899707398,18.5550672791586 73.9661940541612,18.5552933682366 73.9661049887669,18.5554920525779 73.9660775840301,18.5556907369192 73.9660775840301,18.5559853378391 73.9659885186357,18.5562388316539 73.9658651973205,18.5565745396789 73.9658240902153,18.5567321169151 73.9657624295577,18.5568759917829 73.9655637452164,18.556992461914 73.9654472750853,18.5570267178349 73.9653034002174,18.5571431879661 73.9651869300863,18.5572939140181 73.9648683500218,18.5577666457267 73.9647724334433,18.5579550532918 73.9647347519303,18.5580441186861 73.9646285585754,18.5587052579598 73.9647176239698,18.5587806209858 73.9648477964693,18.5587943233542 73.9651218438366,18.55878747217 73.9653479329146,18.5587806209858 73.9655808731769,18.5588148769067 73.9658617717284,18.5589107934853 73.9661632238324,18.5590204124322 73.9662659915952,18.5590204124322 73.9664030152788,18.5589724541429 73.9673210739594,18.5590957754582 73.9680472994828,18.5592944597995 73.9683076444817,18.5593766740097 73.968766673822,18.5594451858516 73.9692736614515,18.5594725905883 73.9699313751331,18.5596370190087 73.9702944878948,18.5597329355873 73.9706438982882,18.5598151497975 73.9707672196035,18.5599247687444 73.9708836897346,18.5600275365071 73.9709522015764,18.5600891971648 73.9709590527606,18.560171411375 73.970938499208,18.5602947326903 73.9708699873662,18.5604043516372 73.9707535172351,18.5606783990045 73.9705959399989,18.5609661487402 73.970376702105,18.5612744520285 73.9702807852417,18.5614828930213 73.9702465295451,18.5614828928967</coordinates></LineString></MultiGeometry>
  </Placemark>
  <Placemark id="clipped.34">
	<Style><LineStyle><color>ff0000ff</color></LineStyle><PolyStyle><fill>0</fill></PolyStyle></Style>
      <MultiGeometry><LineString><coordinates>73.9093364623401,18.5408227518398 73.9094645363291,18.5418033865801 73.9096015600128,18.5427077428923 73.9097796908016,18.5438450394667 73.9097796908016,18.5441601939391 73.9099783751429,18.5445027531482 73.9103483390888,18.5451056573563 73.9105127675092,18.5454687701181 73.9106223864561,18.5459415018267 73.9106908982979,18.5462703586675 73.9108005172448,18.546475894193 73.9109032850076,18.5465649595873 73.9110060527703,18.5466403226134 73.9110471598754,18.5467156856394 73.9111088205331,18.5469006676123</coordinates></LineString></MultiGeometry>
  </Placemark>
  <Placemark id="clipped.35">
	<Style><LineStyle><color>ff0000ff</color></LineStyle><PolyStyle><fill>0</fill></PolyStyle></Style>
      <MultiGeometry><LineString><coordinates>73.8913607,18.5418025 73.8913394219516,18.5438049788964</coordinates></LineString></MultiGeometry>
  </Placemark>
  <Placemark id="clipped.36">
	<Style><LineStyle><color>ff0000ff</color></LineStyle><PolyStyle><fill>0</fill></PolyStyle></Style>
      <MultiGeometry><LineString><coordinates>73.8764055012138,18.5416993199392 73.8762568465936,18.5423754604594 73.8762225906727,18.5425330376956 73.8761986115281,18.5426152519058 73.8761438020546,18.5428584689443 73.875934840937,18.5436532063095 73.8759074362003,18.5437285693355 73.8757909660692,18.5438039323616 73.8756402400172,18.543858741835 73.875407299755,18.5439272536769 73.8750921452825,18.5440026167029 73.8746742230474,18.5439957655187 73.8745166458111,18.543968360782 73.8743933244959,18.5439409560452 73.8743042591015,18.5439067001243 73.874174086602,18.5438724442034 73.8740302117342,18.5438450394667 73.8739068904189,18.5439478072294 73.8738589321296,18.5443177711753 73.8738315273928,18.5446192232793 73.8738315273928,18.5447836516997 73.8738315273928,18.544941228936</coordinates></LineString></MultiGeometry>
  </Placemark>
  <Placemark id="clipped.37">
	<Style><LineStyle><color>ff0000ff</color></LineStyle><PolyStyle><fill>0</fill></PolyStyle></Style>
      <MultiGeometry><LineString><coordinates>73.8772447776668,18.5419667332856 73.8771252341889,18.5424867922024 73.8770841270838,18.5426443694386 73.8770464455708,18.5428259258194 73.8770361687945,18.5428704585166 73.877019040834,18.5429560983189 73.8769265498476,18.5432027409495 73.8769094218871,18.5432541248309 73.8769779337289,18.5433363390411 73.8770669991233,18.5433808717383 73.8771012550442,18.543408276475 73.877166341294,18.5434699371326 73.8772280019516,18.5435418745666 73.8772485555042,18.5436377911451 73.8772485555042,18.5436823238423 73.8772656834646,18.5437337077237 73.8772862370172,18.5438124963418 73.8772930882014,18.5438707314073 73.8772588322804,18.5440899693012 73.8772828114251,18.5442406953532 73.8772999393855,18.5443331863397 73.8773102161618,18.5443503143002</coordinates></LineString></MultiGeometry>
  </Placemark>
  <Placemark id="clipped.38">
	<Style><LineStyle><color>ff0000ff</color></LineStyle><PolyStyle><fill>0</fill></PolyStyle></Style>
      <MultiGeometry><LineString><coordinates>73.8780569952378,18.5423155125978 73.8779028435936,18.5428875864771 73.8779028435936,18.5430520148975 73.8778754388569,18.5432301456862 73.8778446085281,18.5434562347643 73.8778309061597,18.5435315977903 73.8778274805676,18.5435624281191 73.8779131203699,18.5436651958819 73.8779884833959,18.5439460944334 73.8780398672773,18.5440968204854 73.878104953527,18.5442167162086 73.8781803165531,18.5443263351555 73.8782830843158,18.5445729777861 73.8783344681972,18.5447613853511 73.8783824264865,18.5449189625874 73.8784372359599,18.5450662630473 73.878478343065,18.54516903081 73.8784920454334,18.545203286731</coordinates></LineString></MultiGeometry>
  </Placemark>
  <Placemark id="clipped.39">
	<Style><LineStyle><color>ff0000ff</color></LineStyle><PolyStyle><fill>0</fill></PolyStyle></Style>
      <MultiGeometry><LineString><coordinates>73.8744018884761,18.5411747904313 73.8741449690692,18.5417194595739 73.873987391833,18.5421510841774 73.8739188799912,18.5423531941108 73.8738949008465,18.5424559618735 73.8738811984781,18.542771116346 73.8736448326238,18.5431342291077 73.8733913388091,18.5433055087122 73.8732132080203,18.5434904906852 73.873165249731,18.5435658537112</coordinates></LineString></MultiGeometry>
  </Placemark>
  <Placemark id="clipped.40">
	<Style><LineStyle><color>ff0000ff</color></LineStyle><PolyStyle><fill>0</fill></PolyStyle></Style>
      <MultiGeometry><LineString><coordinates>73.8729905445343,18.5406712283938 73.8728946279558,18.5411062785895 73.8728569464428,18.5412981117466 73.8727644554563,18.5416166918111 73.8726308573647,18.5420037837174 73.8725828990755,18.5422230216113</coordinates></LineString></MultiGeometry>
  </Placemark>
  <Placemark id="clipped.41">
	<Style><LineStyle><color>ff0000ff</color></LineStyle><PolyStyle><fill>0</fill></PolyStyle></Style>
      <MultiGeometry><LineString><coordinates>73.8637351974939,18.5546229119498 73.8636027094075,18.5551015350795 73.8634930904606,18.5553276241575 73.8634177274346,18.5554509454728 73.8632738525667,18.5556701833667 73.8631847871723,18.555834611787 73.8630751682254,18.5560332961284 73.8629586980943,18.5562114269171 73.8628216744106,18.5563758553375 73.8626777995428,18.5565265813895 73.8625887341484,18.5567047121783 73.8623557938862,18.5571123576372 73.862239323755,18.5573178931627 73.8621160024398,18.5575645357933 73.8620098090849,18.5578248807922 73.8618933389538,18.5580680978307 73.8618042735594,18.5582359518432 73.8617049313888,18.5583626987506 73.861677526652,18.5583901034873 73.8615747588893,18.5584688921054 73.8615268006,18.5585168503947 73.8612253484959,18.558749790657 73.8610951759965,18.5588868143406 73.8609992594179,18.5590306892085 73.8609581523128,18.5591129034187</coordinates></LineString></MultiGeometry>
  </Placemark>
  <Placemark id="clipped.42">
	<Style><LineStyle><color>ff0000ff</color></LineStyle><PolyStyle><fill>0</fill></PolyStyle></Style>
      <MultiGeometry><LineString><coordinates>73.8542319626056,18.5418371314846 73.8537575577363,18.5418222273365 73.8528532014242,18.5418359297049 73.8520447616906,18.5417605666789 73.8517159048498,18.5416783524687 73.8515103693243,18.5416029894427 73.8511678101151,18.5415276264167 73.8509280186687,18.5414933704958 73.8507361855116,18.5414865193116 73.8504347334076,18.5414180074697 73.8502692081139,18.5413906027403 73.8501469836719,18.5414043051014 73.8500099599882,18.5414180074697 73.8498386803836,18.5414043051014 73.8496742519632,18.5413837515488 73.8495440794637,18.5413631979963 73.8494139069643,18.5413631979963 73.8493111392015,18.5414043051014</coordinates></LineString></MultiGeometry>
  </Placemark>
  <Placemark id="clipped.43">
	<Style><LineStyle><color>ff0000ff</color></LineStyle><PolyStyle><fill>0</fill></PolyStyle></Style>
      <MultiGeometry><LineString><coordinates>73.8542657522302,18.5393695677571 73.853781536881,18.5393455242544 73.8535691501713,18.5393386730702 73.8534218497114,18.5393181195176 73.8530929928706,18.5393181195176 73.8527812639902,18.5393146939255 73.852472960702,18.5393592266227 73.852099571164,18.5394037593199 73.8519693986645,18.539444866425 73.8516953512972,18.5395168038589 73.851315110575,18.5395784645166 73.8512054916281,18.5395270806352 73.8511678101151,18.5395031014906 73.8506197153804,18.5397291905686 73.8505237988019,18.5397497441212 73.85045528696,18.5397908512263 73.8503902007103,18.5398251071472 73.8502691983319,18.539917597868 73.8501778140006,18.5399415772783 73.8500647694616,18.5400648985936 73.8500236623565,18.5401025801066</coordinates></LineString></MultiGeometry>
  </Placemark>
  <Placemark id="clipped.44">
	<Style><LineStyle><color>ff0000ff</color></LineStyle><PolyStyle><fill>0</fill></PolyStyle></Style>
      <MultiGeometry><LineString><coordinates>73.8558608712805,18.5318845846789 73.8558197641754,18.5318229240213 73.8557375499652,18.5317133050743 73.8556484845708,18.5316379420483 73.8555388656239,18.5315968349432 73.8553470324667,18.531548876654 73.8549291102316,18.5315009183647 73.8544837832597,18.5314529600754 73.8542508429974,18.5314255553387 73.8541480752347,18.5314255553387 73.8540316051036,18.5314050017861 73.8537164506312,18.5313501923126 73.8535109151057,18.5313227875759 73.853147802344,18.5312816804708 73.8529559691868,18.5312337221815 73.8527983919506,18.5311857638922 73.8526956241879,18.5311789127081 73.8526408147144,18.5311583591555</coordinates></LineString></MultiGeometry>
  </Placemark>
  <Placemark id="clipped.45">
	<Style><LineStyle><color>ff0000ff</color></LineStyle><PolyStyle><fill>0</fill></PolyStyle></Style>
      <MultiGeometry><LineString><coordinates>73.8935217305799,18.543167691166 73.8934978515904,18.5428567561482 73.8934498933011,18.5425450272678 73.8934259141564,18.5423394917423 73.8933642534988,18.5419249950993 73.8933060184332,18.5415310520087 73.8933985094197,18.5405136511575 73.8933505511304,18.540082026554 73.8933197208016,18.5399004701731 73.8933162952095,18.5397702976737</coordinates></LineString></MultiGeometry>
  </Placemark>
  <Placemark id="clipped.46">
	<Style><LineStyle><color>ff0000ff</color></LineStyle><PolyStyle><fill>0</fill></PolyStyle></Style>
      <MultiGeometry><LineString><coordinates>73.9101463353,18.5403415202916 73.9099167144851,18.5399295877059 73.9099235656693,18.5396829450753 73.9099167144851,18.5395733261284 73.9099372680377,18.5394226000764 73.9099715239586,18.5392992787611 73.9100126310637,18.5389841242886 73.9100263334321,18.538771737579 73.9100400358004,18.5386210115269 73.9100400358004,18.5384839878433 73.9100674405372,18.5382990058703 73.9101222500106,18.5379975537663 73.9101016964581,18.5379084883719 73.9100057798795,18.5377166552148 73.909985226327,18.5375248220576 73.90987560738,18.5373672448214 73.9097522860647,18.5372713282429 73.9094782386974,18.5371343045592 73.9093069590928,18.5370246856123 73.9091973401459,18.5369904296914 73.9090671676464,18.5369630249546 73.9089301439628,18.5369424714021 73.9088342273842,18.5369082154812 73.9087588643582,18.5368876619286 73.9086149894903,18.5368876619286 73.9085190729118,18.5368876619286 73.9084848169909,18.5369150666654 73.9082176208077,18.5370589415332 73.9078065497567,18.537202816401 73.9075941630471,18.5371959652169 73.907292710943,18.5371137510067 73.9071625384435,18.5369835785072 73.9070460683124,18.5367300846924 73.9069501517339,18.5364765908776 73.9068473839711,18.5360997757476 73.9067651697609,18.5357092582491 73.9067172114716,18.5354283596976 73.9066418484456,18.5349967350941</coordinates></LineString></MultiGeometry>
  </Placemark>
  <Placemark id="clipped.47">
	<Style><LineStyle><color>ff0000ff</color></LineStyle><PolyStyle><fill>0</fill></PolyStyle></Style>
      <MultiGeometry><LineString><coordinates>73.9251544890783,18.5383621236684 73.9251605992925,18.5381568437985 73.9251605992925,18.538023245707 73.9251571737004,18.5378553916945 73.9251605992925,18.537725219195 73.9252085575818,18.5373929367621 73.9252633670553,18.537125740579 73.9252976229762,18.5368825235405 73.9252941973841,18.5366632856466 73.9252941973841,18.5365057084104 73.9253044741604,18.5362761937403 73.9253353044892,18.535967890452 73.9253387300813,18.5355636705852 73.9253250277129,18.5352245369682 73.9253113253445,18.5349676175613 73.9252359623185,18.5346867190098 73.9252017063976,18.5345188649973 73.9252085575818,18.5343167550639</coordinates></LineString></MultiGeometry>
  </Placemark>
  <Placemark id="clipped.48">
	<Style><LineStyle><color>ff0000ff</color></LineStyle><PolyStyle><fill>0</fill></PolyStyle></Style>
      <MultiGeometry><LineString><coordinates>73.9413930960164,18.5391458590296 73.9417199114631,18.5389721347163 73.9419665540936,18.5388625157694 73.9422063455401,18.5388282598485 73.9425077976441,18.5388351110327 73.9430353388262,18.5387597480066 73.9432682790884,18.5384719982709 73.9433778980354,18.5381431414302 73.9436656477711,18.5376772609057 73.9442068913215,18.537238785118 73.9443918732945,18.5370606543292 73.9446659206618,18.5363892382793 73.9446864742143,18.5362522145956 73.9446111111883,18.5361562980171 73.9445425993465,18.5357315245977 73.9445425993465,18.5355465426248 73.9445425993465,18.5353958165727 73.944563152899,18.5351354715738 73.9445905576358,18.5349778943376 73.9445905576358,18.5349299360483</coordinates></LineString></MultiGeometry>
  </Placemark>
  <Placemark id="clipped.49">
	<Style><LineStyle><color>ff0000ff</color></LineStyle><PolyStyle><fill>0</fill></PolyStyle></Style>
      <MultiGeometry><LineString><coordinates>73.9520004198171,18.5456268260952 73.9521268602372,18.5451107957444 73.9521816697107,18.5448504507454 73.9523255445785,18.5443982725893 73.9524694194464,18.5440557133802 73.9526132943142,18.5436583446976 73.9528462345764,18.5431376546996 73.9538122515462,18.5418907391783 73.9538876145723,18.5417742690472 73.9537779956253,18.542178488914 73.954737161411,18.5417057572054 73.9549426969365,18.5415550311533 73.9551687860145,18.5412946861544 73.9552647025931,18.5410960018131</coordinates></LineString></MultiGeometry>
  </Placemark>
  <Placemark id="clipped.50">
	<Style><LineStyle><color>ff0000ff</color></LineStyle><PolyStyle><fill>0</fill></PolyStyle></Style>
      <MultiGeometry><LineString><coordinates>73.9633378009562,18.5445634206649 73.963157266772,18.5443366119317 73.9630133919041,18.5441310764062 73.9629859871674,18.5440694157485 73.9629106241414,18.5439392432491 73.9628284099312,18.5437474100919 73.9627873028261,18.5434391068037 73.9627530469052,18.5432541248308 73.9626365767741,18.5429800774634 73.9623145711175,18.5429869286476 73.9617596251986,18.5430417381211 73.9612389352007,18.5428978632532 73.9610402508594,18.5423840244395 73.9609648878334,18.541952399836 73.9608347153339,18.5413494956279 73.9606634357293,18.5407876985248 73.9607182452028,18.5404725440524 73.9607182452028,18.5401299848433 73.9605606679666,18.5398079791867 73.9603208765202,18.5395681877402 73.9600742338896,18.5389378787954 73.9600262756003,18.5386295755072 73.9595946509967,18.5380951831409 73.9589985979728,18.5375265348537 73.9586765923162,18.5372045291971 73.9584779079749,18.5369989936716 73.9582997771862,18.536416643016 73.9580805392923,18.5361974051222 73.9576420635046,18.5359096553865 73.9572789507429,18.5350738109161 73.9570117545597,18.5344914602606 73.9567719631133,18.5342174128932 73.956724004824,18.534059835657 73.9566417906138,18.5339159607892 73.9566075346929,18.5338200442106 73.9565801299562,18.533683020527</coordinates></LineString></MultiGeometry>
  </Placemark>
  <Placemark id="clipped.51">
	<Style><LineStyle><color>ff0000ff</color></LineStyle><PolyStyle><fill>0</fill></PolyStyle></Style>
      <MultiGeometry><LineString><coordinates>73.9768253792172,18.5334363778964 73.9761950702724,18.5332582471076 73.9757291897479,18.5332993542127 73.9748933452776,18.5333815684229 73.9740163937022,18.5332445447392 73.9734545965992,18.5331349257923 73.9725091331819,18.5328197713199 73.9720021455523,18.5326553428995 73.9714129437126,18.532449807374 73.970755230031,18.5321620576383 73.9698645760872,18.5320250339547 73.9689739221434,18.532299081322 73.9675214710966,18.5319976292179 73.967014483467,18.5318057960608 73.9665074958375,18.5314495344833 73.9659731034712,18.5310521658007 73.9657949726824,18.5309699515905</coordinates></LineString></MultiGeometry>
  </Placemark>
  <Placemark id="clipped.52">
	<Style><LineStyle><color>ff0000ff</color></LineStyle><PolyStyle><fill>0</fill></PolyStyle></Style>
      <MultiGeometry><LineString><coordinates>73.9681267416523,18.5321232514087 73.9677955184639,18.5325320215842 73.96757628057,18.5329430926352 73.9673570426762,18.5332308423709 73.9670692929405,18.5334911873698</coordinates></LineString></MultiGeometry>
  </Placemark>
  <Placemark id="clipped.53">
	<Style><LineStyle><color>ff0000ff</color></LineStyle><PolyStyle><fill>0</fill></PolyStyle></Style>
      <MultiGeometry><LineString><coordinates>73.9701384650457,18.5320671707175 73.9695357192464,18.5311754871159 73.9692068624056,18.5306273923813 73.9690972434587,18.529791547911 73.9689465174067,18.5291749413345</coordinates></LineString></MultiGeometry>
  </Placemark>
  <Placemark id="clipped.54">
	<Style><LineStyle><color>ff0000ff</color></LineStyle><PolyStyle><fill>0</fill></PolyStyle></Style>
      <MultiGeometry><LineString><coordinates>73.9723721094982,18.532600533426 73.9718240147636,18.5316413676404 73.9717143958166,18.5310110586956 73.9713444318707,18.5300518929099 73.9713307295024,18.5295997147538</coordinates></LineString></MultiGeometry>
  </Placemark>
  <Placemark id="clipped.55">
	<Style><LineStyle><color>ff0000ff</color></LineStyle><PolyStyle><fill>0</fill></PolyStyle></Style>
      <MultiGeometry><LineString><coordinates>73.9923112604451,18.5193605851685 73.9928091919164,18.5193640455843 73.9930832392837,18.5193743223606 73.993429224085,18.5193229384792 73.993768357702,18.5191790636113 73.9940492562535,18.5190694446644 73.9943883898706,18.5190454655198 73.9945802230277,18.5190625934802 73.994778907369,18.519089998217 73.9949501869736,18.51912767973 73.9950118476313,18.5191139773616 73.9953681092088,18.5191482332825 73.9957586267072,18.5191585100588 73.9960099979553,18.5191379565058</coordinates></LineString></MultiGeometry>
  </Placemark>
  <Placemark id="clipped.56">
	<Style><LineStyle><color>ff0000ff</color></LineStyle><PolyStyle><fill>0</fill></PolyStyle></Style>
      <MultiGeometry><LineString><coordinates>73.9917960025338,18.5220061717245 73.9921446270507,18.5223374595197 73.9922885019185,18.5225498462294 73.9923844184971,18.5227451049786 73.9925214421807,18.5229917476092 73.9927338288904,18.523245241424 73.9928263198769,18.5233754139235 73.9931106440205,18.5243414308933 73.9931620279019,18.5244716033928 73.9931791558623,18.5245127104979 73.9934429264534,18.5252012545083 73.9935114382952,18.5253759597049 73.9935730989529,18.5255198345728 73.9936039292817,18.525790456348 73.9936039292817,18.525865819374 73.9936039292817,18.5259446079921</coordinates></LineString></MultiGeometry>
  </Placemark>
  <Placemark id="clipped.57">
	<Style><LineStyle><color>ff0000ff</color></LineStyle><PolyStyle><fill>0</fill></PolyStyle></Style>
      <MultiGeometry><LineString><coordinates>73.9754584042152,18.5359087776735 73.9756983594191,18.5360364022938 73.9758799158,18.5362864705165 73.9761710911278,18.5365570922917 73.9764074569821,18.5367386486726 73.9766164180997,18.5368825235404 73.9768219536251,18.5371051870264 73.9768425071777,18.5372319339338 73.9769178702037,18.5374957045248 73.9770891498083,18.5377526239317 73.9773357924389,18.5379067755758 73.9774933696751,18.5380300968911 73.9775824350695,18.538139715838 73.9776646492797,18.5382356324166 73.9777811194108,18.5384206143896 73.9777948217792,18.53843774235 73.97812367862,18.5388316854405 73.9783805980268,18.5391331375446 73.9784936425658,18.5393044171492 73.9786238150653,18.5396401251741 73.9788019458541,18.5400169403042 73.9790691420372,18.5403423715529 73.9790862699977,18.5403629251055</coordinates></LineString></MultiGeometry>
  </Placemark>
  <Placemark id="clipped.58">
	<Style><LineStyle><color>ff0000ff</color></LineStyle><PolyStyle><fill>0</fill></PolyStyle></Style>
      <MultiGeometry><LineString><coordinates>73.9768253792172,18.5334363778964 73.9773323668468,18.5339570678943 73.9778804615814,18.5345188649973 73.9782367231589,18.5348477218381 73.9785792823681,18.535258792889 73.9787711155252,18.5355465426247 73.9793055078915,18.5359439113074 73.9795658528904,18.5361631492012 73.9796891742057,18.5362727681481 73.9799358168363,18.5364234942002 73.9800591381516,18.536492006042 73.9806620423598,18.5370812078818</coordinates></LineString></MultiGeometry>
  </Placemark>
  <Placemark id="clipped.59">
	<Style><LineStyle><color>ff0000ff</color></LineStyle><PolyStyle><fill>0</fill></PolyStyle></Style>
      <MultiGeometry><LineString><coordinates>73.9226636665955,18.539107979863 73.9227215777233,18.5397634464894 73.9227215777233,18.5398867678047 73.9227763871967,18.5401745175404 73.9227900895651,18.5402978388557 73.9228037919335,18.5405307791179 73.9228586014069,18.5408733383271 73.922899708512,18.5413255164832 73.9229408156171,18.5419010159545 73.9229408156171,18.5421613609535 73.9230504345641,18.5424628130576 73.9230504345641,18.5425039201627 73.9231052440375,18.5431616338442 73.9230367321957,18.5435727048952 73.9229408156171,18.5438878593676 73.922899708512,18.5442441209452 73.9228860061437,18.5443948469972 73.9227626848284,18.5446277872594 73.9225023398294,18.5449703464686 73.9223653161457,18.5452306914675 73.922187185357,18.5456691672552 73.9220090545682,18.5460117264644 73.9218309237795,18.5463679880419 73.9216664953591,18.546669440146 73.9213924479917,18.5471764277755 73.9212691266764,18.5474367727745 73.9212554243081,18.5474504751429</coordinates></LineString></MultiGeometry>
  </Placemark>
  <Placemark id="clipped.60">
	<Style><LineStyle><color>ff0000ff</color></LineStyle><PolyStyle><fill>0</fill></PolyStyle></Style>
      <MultiGeometry><LineString><coordinates>73.9000485268748,18.5414454404442 73.9000510092614,18.5416886292449 73.9001606282083,18.5420585931908 73.9002839495236,18.5424559618734 73.9003045030762,18.5427368604249 73.9003182054445,18.543004056608 73.9003867172864,18.5435384489743 73.9004209732073,18.5443263351554 73.9004894850491,18.5449292393635 73.9005648480751,18.545285500941 73.9006881693904,18.545998024096 73.9007566812323,18.5469023804082 73.9008525978108,18.5474984334321 73.900859448995,18.5478272902729</coordinates></LineString></MultiGeometry>
  </Placemark>
</Folder>
</Document></kml>
