{"type": "FeatureCollection", "name": "Detected Garbage Locations", "crs": {"type": "name", "properties": {"name": "urn:ogc:def:crs:OGC:1.3:CRS84"}}, "features": [{"type": "Feature", "properties": {"id": 1, "name": "Garbage site 1", "label": "1", "kind": "garbage"}, "geometry": {"type": "Point", "coordinates": [73.85486143519311, 18.53221752951927]}}, {"type": "Feature", "properties": {"id": 2, "name": "Garbage site 2", "label": "2", "kind": "garbage"}, "geometry": {"type": "Point", "coordinates": [73.855071917675, 18.53227516886001]}}, {"type": "Feature", "properties": {"id": 3, "name": "Garbage site 3", "label": "3", "kind": "garbage"}, "geometry": {"type": "Point", "coordinates": [73.85664177570555, 18.53261197492856]}}, {"type": "Feature", "properties": {"id": 4, "name": "Garbage site 4", "label": "4", "kind": "garbage"}, "geometry": {"type": "Point", "coordinates": [73.856012557496, 18.53160180503676]}}, {"type": "Feature", "properties": {"id": 5, "name": "Garbage site 5", "label": "5", "kind": "garbage"}, "geometry": {"type": "Point", "coordinates": [73.85664827751073, 18.53259819654938]}}, {"type": "Feature", "properties": {"id": 6, "name": "Garbage site 6", "label": "6", "kind": "garbage"}, "geometry": {"type": "Point", "coordinates": [73.86081601744719, 18.53000758632252]}}, {"type": "Feature", "properties": {"id": 7, "name": "Garbage site 7", "label": "7", "kind": "garbage"}, "geometry": {"type": "Point", "coordinates": [73.85985597061186, 18.52671351044563]}}, {"type": "Feature", "properties": {"id": 8, "name": "Garbage site 8", "label": "8", "kind": "garbage"}, "geometry": {"type": "Point", "coordinates": [73.86125981330835, 18.5283185599883]}}, {"type": "Feature", "properties": {"id": 9, "name": "Garbage site 9", "label": "9", "kind": "garbage"}, "geometry": {"type": "Point", "coordinates": [73.86382072776631, 18.53526001100222]}}, {"type": "Feature", "properties": {"id": 10, "name": "Garbage site 10", "label": "10", "kind": "garbage"}, "geometry": {"type": "Point", "coordinates": [73.86485710993371, 18.53656266367812]}}, {"type": "Feature", "properties": {"id": 11, "name": "Garbage site 11", "label": "11", "kind": "garbage"}, "geometry": {"type": "Point", "coordinates": [73.8654967177057, 18.53840143589662]}}, {"type": "Feature", "properties": {"id": 13, "name": "Garbage site 13", "label": "13", "kind": "garbage"}, "geometry": {"type": "Point", "coordinates": [73.86934883122406, 18.53986284119554]}}, {"type": "Feature", "properties": {"id": 14, "name": "Garbage site 14", "label": "14", "kind": "garbage"}, "geometry": {"type": "Point", "coordinates": [73.8705715510169, 18.53919398603649]}}, {"type": "Feature", "properties": {"id": 15, "name": "Garbage site 15", "label": "15", "kind": "garbage"}, "geometry": {"type": "Point", "coordinates": [73.8697654819876, 18.53842056525858]}}, {"type": "Feature", "properties": {"id": 16, "name": "Garbage site 16", "label": "16", "kind": "garbage"}, "geometry": {"type": "Point", "coordinates": [73.867571493412, 18.53503464652754]}}, {"type": "Feature", "properties": {"id": 17, "name": "Garbage site 17", "label": "17", "kind": "garbage"}, "geometry": {"type": "Point", "coordinates": [73.88408242364726, 18.54263869082147]}}, {"type": "Feature", "properties": {"id": 18, "name": "Garbage site 18", "label": "18", "kind": "garbage"}, "geometry": {"type": "Point", "coordinates": [73.88429682120953, 18.5439596440486]}}, {"type": "Feature", "properties": {"id": 19, "name": "Garbage site 19", "label": "19", "kind": "garbage"}, "geometry": {"type": "Point", "coordinates": [73.88787840683607, 18.54413638495363]}}, {"type": "Feature", "properties": {"id": 20, "name": "Garbage site 20", "label": "20", "kind": "garbage"}, "geometry": {"type": "Point", "coordinates": [73.89154001671511, 18.54428702697651]}}, {"type": "Feature", "properties": {"id": 21, "name": "Garbage site 21", "label": "21", "kind": "garbage"}, "geometry": {"type": "Point", "coordinates": [73.89090888677022, 18.54353007834789]}}, {"type": "Feature", "properties": {"id": 22, "name": "Garbage site 22", "label": "22", "kind": "garbage"}, "geometry": {"type": "Point", "coordinates": [73.89510040977069, 18.54247373749773]}}, {"type": "Feature", "properties": {"id": 23, "name": "Garbage site 23", "label": "23", "kind": "garbage"}, "geometry": {"type": "Point", "coordinates": [73.8982426391787, 18.54144671470037]}}, {"type": "Feature", "properties": {"id": 24, "name": "Garbage site 24", "label": "24", "kind": "garbage"}, "geometry": {"type": "Point", "coordinates": [73.89935284777351, 18.54201138333174]}}, {"type": "Feature", "properties": {"id": 25, "name": "Garbage site 25", "label": "25", "kind": "garbage"}, "geometry": {"type": "Point", "coordinates": [73.89718141726118, 18.54267243845773]}}, {"type": "Feature", "properties": {"id": 26, "name": "Garbage site 26", "label": "26", "kind": "garbage"}, "geometry": {"type": "Point", "coordinates": [73.90315117357248, 18.54080779036456]}}, {"type": "Feature", "properties": {"id": 27, "name": "Garbage site 27", "label": "27", "kind": "garbage"}, "geometry": {"type": "Point", "coordinates": [73.90460155455825, 18.54145367841046]}}, {"type": "Feature", "properties": {"id": 28, "name": "Garbage site 28", "label": "28", "kind": "garbage"}, "geometry": {"type": "Point", "coordinates": [73.91106035255979, 18.54004664787655]}}, {"type": "Feature", "properties": {"id": 29, "name": "Garbage site 29", "label": "29", "kind": "garbage"}, "geometry": {"type": "Point", "coordinates": [73.91772746062158, 18.53879663494764]}}, {"type": "Feature", "properties": {"id": 30, "name": "Garbage site 30", "label": "30", "kind": "garbage"}, "geometry": {"type": "Point", "coordinates": [73.93520049625258, 18.53485057759077]}}, {"type": "Feature", "properties": {"id": 32, "name": "Garbage site 32", "label": "32", "kind": "garbage"}, "geometry": {"type": "Point", "coordinates": [73.93799726903205, 18.53678597605685]}}, {"type": "Feature", "properties": {"id": 33, "name": "Garbage site 33", "label": "33", "kind": "garbage"}, "geometry": {"type": "Point", "coordinates": [73.9389012983767, 18.53704321230335]}}, {"type": "Feature", "properties": {"id": 34, "name": "Garbage site 34", "label": "34", "kind": "garbage"}, "geometry": {"type": "Point", "coordinates": [73.93725463090952, 18.53466741185657]}}, {"type": "Feature", "properties": {"id": 35, "name": "Garbage site 35", "label": "35", "kind": "garbage"}, "geometry": {"type": "Point", "coordinates": [73.9370384187971, 18.53466676016553]}}, {"type": "Feature", "properties": {"id": 36, "name": "Garbage site 36", "label": "36", "kind": "garbage"}, "geometry": {"type": "Point", "coordinates": [73.9376309930314, 18.53482107353453]}}, {"type": "Feature", "properties": {"id": 37, "name": "Garbage site 37", "label": "37", "kind": "garbage"}, "geometry": {"type": "Point", "coordinates": [73.93861138769768, 18.53510030616057]}}, {"type": "Feature", "properties": {"id": 38, "name": "Garbage site 38", "label": "38", "kind": "garbage"}, "geometry": {"type": "Point", "coordinates": [73.93896768021767, 18.53528861533809]}}, {"type": "Feature", "properties": {"id": 39, "name": "Garbage site 39", "label": "39", "kind": "garbage"}, "geometry": {"type": "Point", "coordinates": [73.9395694602478, 18.53565455431037]}}, {"type": "Feature", "properties": {"id": 40, "name": "Garbage site 40", "label": "40", "kind": "garbage"}, "geometry": {"type": "Point", "coordinates": [73.94055377429724, 18.53574990252727]}}, {"type": "Feature", "properties": {"id": 40, "name": "Garbage site 40", "label": "40", "kind": "garbage"}, "geometry": {"type": "Point", "coordinates": [73.9407430971825, 18.53611098830038]}}, {"type": "Feature", "properties": {"id": 42, "name": "Garbage site 42", "label": "42", "kind": "garbage"}, "geometry": {"type": "Point", "coordinates": [73.94122089588073, 18.53726131838593]}}, {"type": "Feature", "properties": {"id": 43, "name": "Garbage site 43", "label": "43", "kind": "garbage"}, "geometry": {"type": "Point", "coordinates": [73.94025525289331, 18.53897618300417]}}, {"type": "Feature", "properties": {"id": 44, "name": "Garbage site 44", "label": "44", "kind": "garbage"}, "geometry": {"type": "Point", "coordinates": [73.94184142268693, 18.53788838230759]}}, {"type": "Feature", "properties": {"id": 45, "name": "Garbage site 45", "label": "45", "kind": "garbage"}, "geometry": {"type": "Point", "coordinates": [73.94248404607681, 18.53860690924439]}}, {"type": "Feature", "properties": {"id": 46, "name": "Garbage site 46", "label": "46", "kind": "garbage"}, "geometry": {"type": "Point", "coordinates": [73.94256746920317, 18.53968722319499]}}, {"type": "Feature", "properties": {"id": 47, "name": "Garbage site 47", "label": "47", "kind": "garbage"}, "geometry": {"type": "Point", "coordinates": [73.94260357656196, 18.54340349497754]}}, {"type": "Feature", "properties": {"id": 48, "name": "Garbage site 48", "label": "48", "kind": "garbage"}, "geometry": {"type": "Point", "coordinates": [73.9429298262902, 18.54389666939195]}}, {"type": "Feature", "properties": {"id": 49, "name": "Garbage site 49", "label": "49", "kind": "garbage"}, "geometry": {"type": "Point", "coordinates": [73.94355589609262, 18.54486256759629]}}, {"type": "Feature", "properties": {"id": 50, "name": "Garbage site 50", "label": "50", "kind": "garbage"}, "geometry": {"type": "Point", "coordinates": [73.94404551730692, 18.54384286750262]}}, {"type": "Feature", "properties": {"id": 51, "name": "Garbage site 51", "label": "51", "kind": "garbage"}, "geometry": {"type": "Point", "coordinates": [73.94624468620384, 18.54608960490961]}}, {"type": "Feature", "properties": {"id": 52, "name": "Garbage site 52", "label": "52", "kind": "garbage"}, "geometry": {"type": "Point", "coordinates": [73.94731404376328, 18.54610759986038]}}, {"type": "Feature", "properties": {"id": 53, "name": "Garbage site 53", "label": "53", "kind": "garbage"}, "geometry": {"type": "Point", "coordinates": [73.9509767431607, 18.54627663218821]}}, {"type": "Feature", "properties": {"id": 54, "name": "Garbage site 54", "label": "54", "kind": "garbage"}, "geometry": {"type": "Point", "coordinates": [73.95191090813158, 18.54481272561989]}}, {"type": "Feature", "properties": {"id": 55, "name": "Garbage site 55", "label": "55", "kind": "garbage"}, "geometry": {"type": "Point", "coordinates": [73.95505200212101, 18.54735351538755]}}, {"type": "Feature", "properties": {"id": 55, "name": "Garbage site 55", "label": "55", "kind": "garbage"}, "geometry": {"type": "Point", "coordinates": [73.95615027612654, 18.54755815115537]}}, {"type": "Feature", "properties": {"id": 56, "name": "Garbage site 56", "label": "56", "kind": "garbage"}, "geometry": {"type": "Point", "coordinates": [73.9612201488463, 18.54623433185091]}}, {"type": "Feature", "properties": {"id": 57, "name": "Garbage site 57", "label": "57", "kind": "garbage"}, "geometry": {"type": "Point", "coordinates": [73.97200571315913, 18.5428481392085]}}, {"type": "Feature", "properties": {"id": 58, "name": "Garbage site 58", "label": "58", "kind": "garbage"}, "geometry": {"type": "Point", "coordinates": [73.97372652166764, 18.53939605462268]}}, {"type": "Feature", "properties": {"id": 59, "name": "Garbage site 59", "label": "59", "kind": "garbage"}, "geometry": {"type": "Point", "coordinates": [73.97581206014353, 18.53400994626816]}}, {"type": "Feature", "properties": {"id": 60, "name": "Garbage site 60", "label": "60", "kind": "garbage"}, "geometry": {"type": "Point", "coordinates": [73.97862972528135, 18.53177755822604]}}, {"type": "Feature", "properties": {"id": 61, "name": "Garbage site 61", "label": "61", "kind": "garbage"}, "geometry": {"type": "Point", "coordinates": [73.97997822755705, 18.53089055971633]}}, {"type": "Feature", "properties": {"id": 62, "name": "Garbage site 62", "label": "62", "kind": "garbage"}, "geometry": {"type": "Point", "coordinates": [73.98370047976468, 18.52700819677245]}}, {"type": "Feature", "properties": {"id": 63, "name": "Garbage site 63", "label": "63", "kind": "garbage"}, "geometry": {"type": "Point", "coordinates": [73.98508361799387, 18.52631258681527]}}, {"type": "Feature", "properties": {"id": 64, "name": "Garbage site 64", "label": "64", "kind": "garbage"}, "geometry": {"type": "Point", "coordinates": [73.98848772423989, 18.52396961923471]}}, {"type": "Feature", "properties": {"id": 64, "name": "Garbage site 64", "label": "64", "kind": "garbage"}, "geometry": {"type": "Point", "coordinates": [73.9900310981529, 18.52511305089191]}}, {"type": "Feature", "properties": {"id": 65, "name": "Garbage site 65", "label": "65", "kind": "garbage"}, "geometry": {"type": "Point", "coordinates": [73.98991786631272, 18.52542501639821]}}, {"type": "Feature", "properties": {"id": 66, "name": "Garbage site 66", "label": "66", "kind": "garbage"}, "geometry": {"type": "Point", "coordinates": [73.98911763345563, 18.52585039768822]}}, {"type": "Feature", "properties": {"id": 67, "name": "Garbage site 67", "label": "67", "kind": "garbage"}, "geometry": {"type": "Point", "coordinates": [73.99043850058565, 18.52469043693955]}}]}