<?xml version="1.0" encoding="UTF-8"?>
<kml xmlns="http://www.opengis.net/kml/2.2" xmlns:gx="http://www.google.com/kml/ext/2.2" xmlns:kml="http://www.opengis.net/kml/2.2" xmlns:atom="http://www.w3.org/2005/Atom">
<Document>
	<name>Mula Mutha River – Chainage Analysis</name>
	<description>Centerline, chainage every 100 m, corridor polygons ±1100 m</description>
	<gx:CascadingStyle kml:id="__managed_style_01623E935E414523055B_highlight">
		<styleUrl>https://earth.google.com/balloon_components/base/1.1.0.0/card_template.kml#main</styleUrl>
		<Style>
			<IconStyle>
				<color>ff0000ff</color>
				<scale>0.84</scale>
				<Icon>
					<href>https://maps.google.com/mapfiles/kml/shapes/placemark_circle.png</href>
				</Icon>
			</IconStyle>
			<LabelStyle>
				<scale>0.8</scale>
			</LabelStyle>
			<LineStyle>
				<width>1.5</width>
			</LineStyle>
			<PolyStyle>
			</PolyStyle>
			<BalloonStyle>
			</BalloonStyle>
		</Style>
	</gx:CascadingStyle>
	<StyleMap id="__managed_style_01623E935E414523055B">
		<Pair>
			<key>normal</key>
			<styleUrl>#__managed_style_01623E935E414523055B_normal</styleUrl>
		</Pair>
		<Pair>
			<key>highlight</key>
			<styleUrl>#__managed_style_01623E935E414523055B_highlight</styleUrl>
		</Pair>
	</StyleMap>
	<gx:CascadingStyle kml:id="__managed_style_0515D8E11F4145230564_highlight">
		<styleUrl>https://earth.google.com/balloon_components/base/1.1.0.0/card_template.kml#main</styleUrl>
		<Style>
			<IconStyle>
				<color>ff00ffff</color>
				<scale>1.2</scale>
				<Icon>
					<href>https://maps.google.com/mapfiles/kml/shapes/placemark_circle.png</href>
				</Icon>
			</IconStyle>
			<LabelStyle>
				<color>ff00ffff</color>
			</LabelStyle>
			<LineStyle>
				<width>1.5</width>
			</LineStyle>
			<PolyStyle>
			</PolyStyle>
			<BalloonStyle>
			</BalloonStyle>
		</Style>
	</gx:CascadingStyle>
	<gx:CascadingStyle kml:id="__managed_style_01623E935E414523055B_normal">
		<styleUrl>https://earth.google.com/balloon_components/base/1.1.0.0/card_template.kml#main</styleUrl>
		<Style>
			<IconStyle>
				<color>ff0000ff</color>
				<scale>0.7</scale>
				<Icon>
					<href>https://maps.google.com/mapfiles/kml/shapes/placemark_circle.png</href>
				</Icon>
			</IconStyle>
			<LabelStyle>
				<scale>0.8</scale>
			</LabelStyle>
			<LineStyle>
			</LineStyle>
			<PolyStyle>
			</PolyStyle>
			<BalloonStyle>
			</BalloonStyle>
		</Style>
	</gx:CascadingStyle>
	<gx:CascadingStyle kml:id="__managed_style_096BB6B4424145244A09_highlight">
		<styleUrl>https://earth.google.com/balloon_components/base/1.1.0.0/card_template.kml#main</styleUrl>
		<Style>
			<IconStyle>
				<scale>1.2</scale>
				<Icon>
					<href>https://maps.google.com/mapfiles/kml/pushpin/ylw-pushpin.png</href>
				</Icon>
			</IconStyle>
			<LabelStyle>
			</LabelStyle>
			<LineStyle>
				<color>ff0000dd</color>
				<width>3</width>
			</LineStyle>
			<PolyStyle>
				<color>330000aa</color>
			</PolyStyle>
			<BalloonStyle>
			</BalloonStyle>
		</Style>
	</gx:CascadingStyle>
	<gx:CascadingStyle kml:id="__managed_style_0515D8E11F4145230564_normal">
		<styleUrl>https://earth.google.com/balloon_components/base/1.1.0.0/card_template.kml#main</styleUrl>
		<Style>
			<IconStyle>
				<color>ff00ffff</color>
				<Icon>
					<href>https://maps.google.com/mapfiles/kml/shapes/placemark_circle.png</href>
				</Icon>
			</IconStyle>
			<LabelStyle>
				<color>ff00ffff</color>
			</LabelStyle>
			<LineStyle>
			</LineStyle>
			<PolyStyle>
			</PolyStyle>
			<BalloonStyle>
			</BalloonStyle>
		</Style>
	</gx:CascadingStyle>
	<StyleMap id="__managed_style_10F631D24B4145230566">
		<Pair>
			<key>normal</key>
			<styleUrl>#__managed_style_10F631D24B4145230566_normal</styleUrl>
		</Pair>
		<Pair>
			<key>highlight</key>
			<styleUrl>#__managed_style_10F631D24B4145230566_highlight</styleUrl>
		</Pair>
	</StyleMap>
	<gx:CascadingStyle kml:id="__managed_style_10F631D24B4145230566_normal">
		<styleUrl>https://earth.google.com/balloon_components/base/1.1.0.0/card_template.kml#main</styleUrl>
		<Style>
			<IconStyle>
				<Icon>
					<href>https://maps.google.com/mapfiles/kml/pushpin/ylw-pushpin.png</href>
				</Icon>
			</IconStyle>
			<LabelStyle>
			</LabelStyle>
			<LineStyle>
				<color>ff00ffff</color>
				<width>3</width>
			</LineStyle>
			<PolyStyle>
			</PolyStyle>
			<BalloonStyle>
			</BalloonStyle>
		</Style>
	</gx:CascadingStyle>
	<StyleMap id="__managed_style_28612797CF4145230560">
		<Pair>
			<key>normal</key>
			<styleUrl>#__managed_style_28612797CF4145230560_normal</styleUrl>
		</Pair>
		<Pair>
			<key>highlight</key>
			<styleUrl>#__managed_style_28612797CF4145230560_highlight</styleUrl>
		</Pair>
	</StyleMap>
	<gx:CascadingStyle kml:id="__managed_style_096BB6B4424145244A09_normal">
		<styleUrl>https://earth.google.com/balloon_components/base/1.1.0.0/card_template.kml#main</styleUrl>
		<Style>
			<IconStyle>
				<Icon>
					<href>https://maps.google.com/mapfiles/kml/pushpin/ylw-pushpin.png</href>
				</Icon>
			</IconStyle>
			<LabelStyle>
			</LabelStyle>
			<LineStyle>
				<color>ff0000dd</color>
				<width>2</width>
			</LineStyle>
			<PolyStyle>
				<color>330000aa</color>
			</PolyStyle>
			<BalloonStyle>
			</BalloonStyle>
		</Style>
	</gx:CascadingStyle>
	<StyleMap id="__managed_style_096BB6B4424145244A09">
		<Pair>
			<key>normal</key>
			<styleUrl>#__managed_style_096BB6B4424145244A09_normal</styleUrl>
		</Pair>
		<Pair>
			<key>highlight</key>
			<styleUrl>#__managed_style_096BB6B4424145244A09_highlight</styleUrl>
		</Pair>
	</StyleMap>
	<gx:CascadingStyle kml:id="__managed_style_28612797CF4145230560_highlight">
		<styleUrl>https://earth.google.com/balloon_components/base/1.1.0.0/card_template.kml#main</styleUrl>
		<Style>
			<IconStyle>
				<scale>1.2</scale>
				<Icon>
					<href>https://maps.google.com/mapfiles/kml/pushpin/ylw-pushpin.png</href>
				</Icon>
			</IconStyle>
			<LabelStyle>
			</LabelStyle>
			<LineStyle>
				<width>1.5</width>
			</LineStyle>
			<PolyStyle>
			</PolyStyle>
			<BalloonStyle>
			</BalloonStyle>
		</Style>
	</gx:CascadingStyle>
	<gx:CascadingStyle kml:id="__managed_style_28612797CF4145230560_normal">
		<styleUrl>https://earth.google.com/balloon_components/base/1.1.0.0/card_template.kml#main</styleUrl>
		<Style>
			<IconStyle>
				<Icon>
					<href>https://maps.google.com/mapfiles/kml/pushpin/ylw-pushpin.png</href>
				</Icon>
			</IconStyle>
			<LabelStyle>
			</LabelStyle>
			<LineStyle>
			</LineStyle>
			<PolyStyle>
			</PolyStyle>
			<BalloonStyle>
			</BalloonStyle>
		</Style>
	</gx:CascadingStyle>
	<StyleMap id="__managed_style_0515D8E11F4145230564">
		<Pair>
			<key>normal</key>
			<styleUrl>#__managed_style_0515D8E11F4145230564_normal</styleUrl>
		</Pair>
		<Pair>
			<key>highlight</key>
			<styleUrl>#__managed_style_0515D8E11F4145230564_highlight</styleUrl>
		</Pair>
	</StyleMap>
	<gx:CascadingStyle kml:id="__managed_style_10F631D24B4145230566_highlight">
		<styleUrl>https://earth.google.com/balloon_components/base/1.1.0.0/card_template.kml#main</styleUrl>
		<Style>
			<IconStyle>
				<scale>1.2</scale>
				<Icon>
					<href>https://maps.google.com/mapfiles/kml/pushpin/ylw-pushpin.png</href>
				</Icon>
			</IconStyle>
			<LabelStyle>
			</LabelStyle>
			<LineStyle>
				<color>ff00ffff</color>
				<width>4.5</width>
			</LineStyle>
			<PolyStyle>
			</PolyStyle>
			<BalloonStyle>
			</BalloonStyle>
		</Style>
	</gx:CascadingStyle>
	<Folder id="0D9B9DCB87414522DDCF">
		<name>River Boundary</name>
		<snippet></snippet>
		<styleUrl>#__managed_style_28612797CF4145230560</styleUrl>
		<Placemark id="1D26A32883414522DDCF">
			<name>Mula Mutha River</name>
			<snippet></snippet>
			<styleUrl>#__managed_style_096BB6B4424145244A09</styleUrl>
			<Polygon>
				<outerBoundaryIs>
					<LinearRing>
						<coordinates>
							73.85531491,18.53203371,0 73.85650833,18.53145365,0 73.85792377999999,18.53055524,0 73.85937418,18.52987164,0 73.86112892,18.52988421,0 73.86115193000001,18.53088277,0 73.86195882,18.53183283,0 73.86309507,18.53292989,0 73.86361655,18.53303253,0 73.86543214,18.53281615,0 73.8664102,18.53341002,0 73.86685377000001,18.53394173,0 73.86752629999999,18.53479905,0 73.86812298,18.53563227,0 73.86894307,18.53683204,0 73.86963824,18.53765593,0 73.87120682,18.53901772,0 73.87410444,18.54031144,0 73.87671082,18.54119469,0 73.87887702,18.54172525,0 73.88113448,18.54198264,0 73.88375168,18.54217866,0 73.88714643,18.54253283,0 73.89110882999999,18.54273362,0 73.89552003999999,18.54174158,0 73.89973904999999,18.54087455,0 73.90383889,18.54048714,0 73.90849858999999,18.54041196,0 73.91529597,18.53872698,0 73.92057859000001,18.53832164,0 73.92472065,18.53792962,0 73.93007673,18.53620237,0 73.93318517,18.53541315,0 73.93589548,18.53439724,0 73.93886915,18.5350862,0 73.94055459,18.53593281,0 73.94192868,18.53861369,0 73.94300444,18.54102917,0 73.94439779,18.54313273,0 73.94624328,18.54448973,0 73.94820693,18.54457846,0 73.95114733,18.54434245,0 73.95327997,18.54501107,0 73.9566786,18.54578872,0 73.95942654,18.5461707,0 73.96439417000001,18.54310149,0 73.96886207999999,18.54219559,0 73.97293179,18.54053104,0 73.97433638,18.53693344,0 73.97621601,18.53258917,0 73.97908416,18.52995905,0 73.98252857999999,18.52752528,0 73.98616531,18.52536272,0 73.98911176,18.52321823,0 73.99041453,18.52203333,0 73.99120173,18.5207626,0 73.99343967999999,18.52107783,0 73.99342036,18.5217327,0 73.99295565,18.52281874,0 73.99078096,18.52477619,0 73.98941496,18.52574391,0 73.9873927,18.52699354,0 73.98579046,18.52758688,0 73.98498866,18.52804632,0 73.98416023999999,18.52870764,0 73.98277206,18.5293121,0 73.98180657,18.52991957,0 73.98074007,18.53062752,0 73.98001815000001,18.5313231,0 73.97951188,18.53142686,0 73.97908397,18.53185417,0 73.97864865,18.53232551,0 73.9782122,18.53256782,0 73.97804041000001,18.53284426,0 73.97744344,18.53381663,0 73.97701412000001,18.53432625,0 73.9765371,18.53521584,0 73.97612146,18.53581323,0 73.97577889,18.53633443,0 73.97575642,18.53682207,0 73.9757,18.53749755,0 73.97547605,18.5381396,0 73.97515686,18.53922679,0 73.97474713,18.5397886,0 73.97438751999999,18.54035297,0 73.97391496,18.5407326,0 73.97346637,18.54104724,0 73.97314287,18.54181267,0 73.97274372,18.54227653,0 73.97172255,18.5428335,0 73.97100861,18.54310698,0 73.9699902,18.54344562,0 73.96905448,18.54364067,0 73.9681487,18.54379653,0 73.96688321000001,18.54411412,0 73.96544837,18.54449661,0 73.96417402,18.54497638,0 73.96330279999999,18.54526355,0 73.96273493,18.54568914,0 73.96173571999999,18.54621155,0 73.96086695,18.54688661,0 73.96056221000001,18.54721691,0 73.9598421,18.54721809,0 73.95882125999999,18.54727939,0 73.95778350000001,18.54725602,0 73.95595216,18.54691424,0 73.95514171000001,18.54682186,0 73.95416668999999,18.5465521,0 73.95343216000001,18.54661834,0 73.9524986,18.54659355,0 73.95185420999999,18.54645073,0 73.95118973,18.54630499,0 73.95024617999999,18.54633584,0 73.94958117,18.54635216,0 73.94846851,18.54627243,0 73.94695817,18.54615564,0 73.94613327,18.54618875,0 73.94535569,18.54599604,0 73.94469297000001,18.54562168,0 73.94409988,18.54519023,0 73.94356765000001,18.54483877,0 73.94298680999999,18.5444096,0 73.94245088,18.5434851,0 73.94171584999999,18.54211021,0 73.94087958999999,18.54053101,0 73.94055064,18.53953353,0 73.93973368,18.53795083,0 73.93873354999999,18.53695839,0 73.93794557,18.53673857,0 73.93705908,18.53675614,0 73.93613688000001,18.53677511,0 73.93567206,18.53686538,0 73.9347562,18.53727701,0 73.93411935,18.53699824,0 73.93323586,18.53691222,0 73.93215077000001,18.53704704,0 73.93075311,18.53741233,0 73.92969898,18.53781932,0 73.92905573,18.5381198,0 73.92770261,18.53862629,0 73.92643354,18.53889043,0 73.92520517,18.53910187,0 73.92445411,18.5392464,0 73.9228213,18.53947494,0 73.92173181,18.53966186,0 73.91995606,18.53991159,0 73.91821179,18.53998398,0 73.91631251,18.54015647,0 73.91567221,18.54022424,0 73.91352440999999,18.54063807,0 73.91222326,18.54087721,0 73.91142232999999,18.54107607,0 73.91076212999999,18.54126629,0 73.90976918,18.54143174,0 73.90878356,18.54153644,0 73.90759872,18.54154534,0 73.90616941,18.54188014,0 73.90533479,18.54197796,0 73.90325876999999,18.54200745,0 73.90107814,18.54222206,0 73.89750512000001,18.54291397,0 73.89529532,18.54337471,0 73.89241355,18.54418228,0 73.89047374,18.54451953,0 73.88818559000001,18.5444255,0 73.88617551999999,18.5443518,0 73.88459520000001,18.54417451,0 73.88282404,18.54388323,0 73.88140601000001,18.54368501,0 73.87900809999999,18.54320275,0 73.87606072,18.54242078,0 73.87324891,18.54139735,0 73.87072680999999,18.54045179,0 73.86943626999999,18.53996331,0 73.86831359999999,18.53966149,0 73.86670230999999,18.53905122,0 73.86548299,18.53826389,0 73.86468179000001,18.53772684,0 73.86375846999999,18.53696416,0 73.86303235,18.5359456,0 73.86253904,18.53494687,0 73.86154758000001,18.53297322,0 73.86035785,18.53224047,0 73.85906918000001,18.53181623,0 73.85844353,18.5317735,0 73.85770731,18.53194437,0 73.85681898999999,18.5324197,0 73.85598228000001,18.5333472,0 73.85496516000001,18.53287086,0 73.85531491,18.53203371,0 
						</coordinates>
					</LinearRing>
				</outerBoundaryIs>
			</Polygon>
		</Placemark>
	</Folder>
	<Folder id="2923A4C886414522DDCF">
		<name>Centerline</name>
		<styleUrl>#__managed_style_28612797CF4145230560</styleUrl>
		<Placemark id="3C3EF102B0414522DDCF">
			<name>River Centerline</name>
			<styleUrl>#__managed_style_10F631D24B4145230566</styleUrl>
			<LineString>
				<tessellate>1</tessellate>
				<coordinates>
					73.85617563,18.53227447,0 73.85618524,18.532269,0 73.85620439,18.53225813,0 73.85623292,18.53224199,0 73.85627061,18.53222078,0 73.85631717,18.53219477,0 73.85637225000001,18.53216427,0 73.85643546,18.53212965,0 73.85650636,18.53209132,0 73.85658449,18.53204973,0 73.85666935,18.53200536,0 73.85676047,18.5319587,0 73.85685732,18.53191027,0 73.85695943,18.5318606,0 73.85706630999999,18.53181022,0 73.85717749,18.53175967,0 73.85729254,18.53170947,0 73.85741102999999,18.53166014,0 73.85753257,18.53161219,0 73.85765678999999,18.53156612,0 73.85778336,18.53152242,0 73.85791193999999,18.53148155,0 73.85804226,18.53144396,0 73.85817402000001,18.53141007,0 73.85830697999999,18.53138029,0 73.85844089,18.531355,0 73.85857554,18.53133454,0 73.8587107,18.53131922,0 73.85884618999999,18.53130934,0 73.85898181,18.53130514,0 73.85911738999999,18.53130681,0 73.85925278000001,18.53131451,0 73.85938781,18.53132836,0 73.85952235000001,18.53134842,0 73.85965627,18.5313747,0 73.85978948,18.53140716,0 73.85992186,18.53144572,0 73.86005333999999,18.53149024,0 73.86018387,18.53154057,0 73.86031339,18.53159648,0 73.86044189,18.53165774,0 73.86056936,18.53172407,0 73.86069581,18.53179518,0 73.86082128,18.53187076,0 73.86094584,18.53195047,0 73.86106955,18.53203401,0 73.86119251,18.53212102,0 73.86131483,18.53221118,0 73.86143663999999,18.53230417,0 73.86155805999999,18.53239965,0 73.86167922999999,18.53249731,0 73.86180029000001,18.53259684,0 73.86192138,18.53269794,0 73.8620426,18.53280031,0 73.86216408,18.53290366,0 73.86228588,18.53300771,0 73.86240807999999,18.53311218,0 73.86253069,18.5332168,0 73.86265371,18.53332132,0 73.86277707000001,18.53342548,0 73.8629007,18.53352906,0 73.86302446000001,18.53363184,0 73.86314818,18.53373361,0 73.86327168,18.5338342,0 73.86339470999999,18.53393346,0 73.86351702,18.53403126,0 73.86363837,18.53412752,0 73.86375846999999,18.53422216,0 73.86387705999999,18.53431516,0 73.86399389,18.53440651,0 73.86410873,18.53449626,0 73.86422140000001,18.53458445,0 73.86433172,18.53467119,0 73.86443958,18.53475658,0 73.86454491000001,18.53484075,0 73.86464769,18.53492384,0 73.86474794,18.53500601,0 73.86484574000001,18.53508741,0 73.86494121,18.53516822,0 73.86503449,18.53524856,0 73.86512577000001,18.53532861,0 73.86521528,18.5354085,0 73.86530322999999,18.53548835,0 73.86538988,18.53556827,0 73.86547546,18.53564836,0 73.86556023999999,18.5357287,0 73.86564444,18.53580935,0 73.86572830999999,18.53589035,0 73.86581203999999,18.53597174,0 73.86589583999999,18.53605352,0 73.86597988,18.53613571,0 73.86606432000001,18.53621828,0 73.86614929,18.53630122,0 73.86623491,18.53638449,0 73.86632127999999,18.53646806,0 73.86640848,18.53655187,0 73.86649659,18.53663588,0 73.86658566,18.53672002,0 73.86667575,18.53680422,0 73.8667669,18.53688844,0 73.86685915,18.53697259,0 73.86695253000001,18.53705662,0 73.86704709,18.53714047,0 73.86714284999999,18.53722407,0 73.86723984,18.53730736,0 73.86733811000001,18.53739029,0 73.86743767,18.53747282,0 73.86753856,18.53755489,0 73.86764079,18.53763647,0 73.86774439,18.53771752,0 73.86784937,18.53779802,0 73.86795574999999,18.53787795,0 73.86806351,18.53795727,0 73.86817267000001,18.53803599,0 73.86828319,18.53811408,0 73.86839507000001,18.53819155,0 73.86850827000001,18.53826838,0 73.86862277,18.53834458,0 73.86873851,18.53842014,0 73.86885546000001,18.53849506,0 73.86897355000001,18.53856935,0 73.86909273000001,18.53864299,0 73.86921294,18.538716,0 73.86933412,18.53878835,0 73.8694562,18.53886005,0 73.86957911,18.53893108,0 73.86970279000001,18.53900142,0 73.86982716999999,18.53907108,0 73.86995217,18.53914001,0 73.87007774,18.53920821,0 73.87020381000001,18.53927566,0 73.87033031,18.53934232,0 73.87045716999999,18.53940819,0 73.87058433999999,18.53947323,0 73.87071176000001,18.53953744,0 73.87083937,18.5396008,0 73.87096713,18.5396633,0 73.87109497,18.53972493,0 73.87122287,18.53978571,0 73.87135078999999,18.53984564,0 73.87147869,18.53990473,0 73.87160655,18.539963,0 73.87173436,18.54002047,0 73.8718621,18.54007718,0 73.87198977,18.54013316,0 73.87211736,18.54018844,0 73.87224488,18.54024306,0 73.87237234,18.54029705,0 73.87249975,18.54035045,0 73.87262712,18.5404033,0 73.87275447,18.54045562,0 73.87288182,18.54050745,0 73.87300917,18.5405588,0 73.87313655,18.54060971,0 73.87326398,18.54066019,0 73.87339145,18.54071025,0 73.87351898,18.5407599,0 73.87364658,18.54080916,0 73.87377424,18.54085802,0 73.87390198999999,18.5409065,0 73.8740298,18.54095458,0 73.8741577,18.54100227,0 73.87428566,18.54104956,0 73.87441370000001,18.54109644,0 73.87454181,18.54114292,0 73.87466999,18.54118897,0 73.87479825,18.5412346,0 73.87492657999999,18.54127978,0 73.87505499,18.54132452,0 73.87518349,18.5413688,0 73.87531208999999,18.5414126,0 73.87544080000001,18.54145592,0 73.87556961999999,18.54149874,0 73.87569858000001,18.54154105,0 73.87582768,18.54158284,0 73.87595693999999,18.54162411,0 73.87608638,18.54166483,0 73.87621600999999,18.541705,0 73.87634585000001,18.54174462,0 73.8764759,18.54178367,0 73.87660619,18.54182215,0 73.87673671,18.54186005,0 73.87686748,18.54189737,0 73.87699851000001,18.54193412,0 73.87712979,18.54197027,0 73.87726132,18.54200583,0 73.87739311,18.5420408,0 73.87752515,18.54207518,0 73.87765743,18.54210895,0 73.87778994999999,18.54214212,0 73.87792269000001,18.54217468,0 73.87805564999999,18.54220663,0 73.8781888,18.54223796,0 73.87832215,18.54226867,0 73.87845566,18.54229875,0 73.87858932,18.54232821,0 73.87872313,18.54235703,0 73.87885706,18.54238523,0 73.87899109,18.54241281,0 73.87912522000001,18.54243976,0 73.87925943,18.54246609,0 73.87939369999999,18.54249181,0 73.87952803,18.54251694,0 73.8796624,18.54254148,0 73.87979681,18.54256544,0 73.87993124,18.54258885,0 73.88006569,18.54261171,0 73.88020014999999,18.54263406,0 73.88033462,18.5426559,0 73.88046909000001,18.54267725,0 73.88060357000001,18.54269814,0 73.88073805000001,18.54271858,0 73.88087252,18.5427386,0 73.881007,18.54275821,0 73.88114147,18.54277745,0 73.88127593,18.54279633,0 73.88141039,18.54281487,0 73.88154485,18.5428331,0 73.8816793,18.54285105,0 73.88181374,18.54286873,0 73.88194817,18.54288616,0 73.88208259,18.54290338,0 73.88221698,18.54292041,0 73.88235136,18.54293726,0 73.8824857,18.54295396,0 73.88262001,18.54297054,0 73.88275427000001,18.54298699,0 73.88288848000001,18.54300335,0 73.88302263999999,18.54301962,0 73.88315673,18.54303582,0 73.88329075,18.54305195,0 73.88342470000001,18.54306801,0 73.88355856,18.543084,0 73.88369235,18.54309992,0 73.88382605,18.54311577,0 73.88395967,18.54313153,0 73.88409321,18.54314719,0 73.88422669000001,18.54316274,0 73.88436009999999,18.54317815,0 73.88449346,18.54319342,0 73.88462677,18.54320852,0 73.88476007,18.54322344,0 73.88489335,18.54323814,0 73.88502665,18.54325261,0 73.88515996,18.54326683,0 73.88529332,18.54328078,0 73.88542674999999,18.54329444,0 73.88556025,18.54330779,0 73.88569385,18.54332081,0 73.88582757,18.5433335,0 73.88596142,18.54334585,0 73.88609542,18.54335783,0 73.88622956,18.54336945,0 73.88636387,18.5433807,0 73.88649832999999,18.54339158,0 73.88663296999999,18.54340209,0 73.88676776,18.54341223,0 73.88690271,18.54342201,0 73.8870378,18.54343142,0 73.88717301,18.54344048,0 73.88730834,18.54344919,0 73.88744376,18.54345755,0 73.88757926,18.54346558,0 73.88771479,18.54347326,0 73.88785034999999,18.54348059,0 73.88798591,18.54348758,0 73.88812145,18.54349421,0 73.88825694000001,18.54350046,0 73.88839236,18.54350632,0 73.88852771000001,18.54351176,0 73.88866296,18.54351674,0 73.8887981,18.54352122,0 73.88893314000001,18.54352515,0 73.88906806999999,18.54352849,0 73.88920289000001,18.54353117,0 73.88933762000001,18.54353312,0 73.88947225,18.54353428,0 73.88960681,18.54353458,0 73.8897413,18.54353395,0 73.88987575,18.5435323,0 73.89001017,18.54352957,0 73.89014456,18.54352569,0 73.89027894,18.5435206,0 73.89041333,18.54351424,0 73.89054771000001,18.54350655,0 73.89068209,18.54349751,0 73.89081647,18.54348709,0 73.89095082999999,18.54347525,0 73.89108516,18.543462,0 73.89121944999999,18.54344733,0 73.89135367,18.54343127,0 73.89148779999999,18.54341384,0 73.89162183000001,18.54339507,0 73.89175573999999,18.54337502,0 73.8918895,18.54335373,0 73.89202312,18.54333126,0 73.89215656,18.54330769,0 73.89228985,18.54328308,0 73.89242297,18.54325751,0 73.89255593,18.54323106,0 73.89268874,18.5432038,0 73.89282142,18.54317582,0 73.89295398,18.54314719,0 73.89308645,18.54311799,0 73.89321885,18.5430883,0 73.89335121000001,18.54305818,0 73.89348353,18.54302771,0 73.89361586,18.54299694,0 73.89374821,18.54296596,0 73.89388058999999,18.5429348,0 73.89401303,18.54290353,0 73.89414553,18.54287219,0 73.89427809999999,18.54284083,0 73.89441076,18.5428095,0 73.8945435,18.54277823,0 73.89467632,18.54274706,0 73.89480923000001,18.54271601,0 73.89494221,18.54268511,0 73.89507527000001,18.54265438,0 73.89520838999999,18.54262384,0 73.89534156000001,18.54259351,0 73.89547478999999,18.54256339,0 73.89560805000001,18.54253349,0 73.89574134999999,18.54250381,0 73.89587467,18.54247436,0 73.89600801,18.54244513,0 73.89614137,18.54241612,0 73.89627471999999,18.54238732,0 73.89640808,18.54235873,0 73.89654143,18.54233035,0 73.89667476,18.54230216,0 73.89680808999999,18.54227416,0 73.89694138999999,18.54224634,0 73.89707466,18.5422187,0 73.89720791000001,18.54219123,0 73.89734113,18.54216393,0 73.8974743,18.54213681,0 73.89760744,18.54210986,0 73.89774052999999,18.54208308,0 73.89787357,18.5420565,0 73.89800656,18.5420301,0 73.89813950999999,18.54200392,0 73.89827241,18.54197795,0 73.89840526,18.54195223,0 73.89853807999999,18.54192675,0 73.89867087,18.54190155,0 73.89880364,18.54187665,0 73.89893641,18.54185206,0 73.8990692,18.54182782,0 73.89920202,18.54180393,0 73.8993349,18.54178044,0 73.89946784999999,18.54175734,0 73.89960091,18.54173468,0 73.89973409,18.54171246,0 73.89986742000001,18.5416907,0 73.90000091,18.54166942,0 73.90013458999999,18.54164863,0 73.90026847,18.54162834,0 73.90040256,18.54160856,0 73.90053688,18.5415893,0 73.90067141999999,18.54157055,0 73.90080620000001,18.54155232,0 73.90094119,18.54153461,0 73.90107639,18.54151742,0 73.9012118,18.54150074,0 73.90134739,18.54148457,0 73.90148315,18.54146891,0 73.90161904,18.54145375,0 73.90175506,18.54143908,0 73.90189117,18.54142491,0 73.90202734,18.54141123,0 73.90216354,18.54139803,0 73.90229976000001,18.54138531,0 73.90243596000001,18.54137306,0 73.90257210999999,18.54136128,0 73.90270818,18.54134995,0 73.90284415000001,18.54133908,0 73.90298000999999,18.54132865,0 73.90311570999999,18.54131864,0 73.90325125,18.54130904,0 73.9033866,18.54129982,0 73.90352176,18.54129096,0 73.90365671000001,18.54128242,0 73.90379144000001,18.54127418,0 73.90392596,18.5412662,0 73.90406025,18.54125842,0 73.90419433,18.54125081,0 73.90432821,18.54124332,0 73.9044619,18.5412359,0 73.90459543,18.54122849,0 73.90472882,18.54122105,0 73.9048621,18.54121353,0 73.9049953,18.54120589,0 73.90512848,18.54119808,0 73.90526165999999,18.54119006,0 73.9053949,18.5411818,0 73.90552824,18.54117328,0 73.90566173000001,18.54116448,0 73.90579541,18.54115539,0 73.90592933000001,18.54114598,0 73.90606353,18.54113627,0 73.90619803,18.54112625,0 73.90633287999999,18.54111593,0 73.90646808,18.54110531,0 73.90660364,18.5410944,0 73.90673959,18.5410832,0 73.90687588999999,18.54107172,0 73.90701254,18.54105996,0 73.9071495,18.54104791,0 73.90728675,18.54103557,0 73.90742424,18.54102291,0 73.9075619,18.54100992,0 73.90769969,18.54099657,0 73.90783754,18.54098283,0 73.90797539,18.54096866,0 73.90811316999999,18.54095402,0 73.90825081,18.54093886,0 73.90838826,18.54092315,0 73.90852545,18.54090683,0 73.90866234000001,18.54088988,0 73.90879888000001,18.54087224,0 73.90893505,18.54085389,0 73.90907081,18.5408348,0 73.90920615,18.54081494,0 73.90934107,18.54079431,0 73.90947557,18.5407729,0 73.90960966,18.5407507,0 73.90974337999999,18.54072774,0 73.90987672999999,18.54070401,0 73.91000977,18.54067955,0 73.91014253,18.54065439,0 73.91027505,18.54062856,0 73.91040738,18.5406021,0 73.91053956,18.54057506,0 73.91067164,18.54054748,0 73.91080364,18.54051942,0 73.91093563,18.54049092,0 73.91106761,18.54046205,0 73.91119963,18.54043284,0 73.91133170000001,18.54040337,0 73.91146385,18.54037367,0 73.91159607,18.54034379,0 73.91172838999999,18.54031379,0 73.9118608,18.5402837,0 73.91199330000001,18.54025357,0 73.91212587,18.54022343,0 73.91225851999999,18.54019333,0 73.91239122,18.54016328,0 73.91252396,18.54013333,0 73.91265674,18.5401035,0 73.91278952,18.54007381,0 73.91292230000001,18.54004429,0 73.91305507,18.54001497,0 73.91318781,18.53998586,0 73.91332051000001,18.539957,0 73.91345318,18.5399284,0 73.91358579,18.5399001,0 73.91371836,18.53987213,0 73.91385088,18.5398445,0 73.91398335,18.53981727,0 73.9141158,18.53979046,0 73.91424821,18.5397641,0 73.91438062,18.53973824,0 73.91451302999999,18.53971291,0 73.91464546,18.53968814,0 73.91477793,18.53966397,0 73.91491044999999,18.53964043,0 73.91504306,18.53961754,0 73.91517577,18.53959533,0 73.91530859,18.53957381,0 73.91544156,18.53955301,0 73.91557468000001,18.53953292,0 73.91570797999999,18.53951355,0 73.91584146,18.53949489,0 73.91597514,18.53947693,0 73.91610903,18.53945966,0 73.91624312,18.53944305,0 73.91637742,18.53942708,0 73.91651192,18.53941171,0 73.91664661999999,18.53939692,0 73.91678151000001,18.53938267,0 73.91691657,18.53936892,0 73.91705179,18.53935563,0 73.91718714,18.53934277,0 73.91732261999999,18.53933029,0 73.91745819,18.53931816,0 73.91759383,18.53930634,0 73.91772951999999,18.53929479,0 73.91786522,18.53928347,0 73.91800093000001,18.53927235,0 73.9181366,18.53926138,0 73.91827223,18.53925053,0 73.91840778,18.53923977,0 73.91854325,18.53922906,0 73.91867861,18.53921836,0 73.91881386999999,18.53920763,0 73.91894899,18.53919685,0 73.919084,18.53918599,0 73.91921886999999,18.539175,0 73.91935362,18.53916385,0 73.91948824000001,18.53915253,0 73.91962276,18.539141,0 73.91975718,18.53912924,0 73.91989151,18.53911722,0 73.92002577,18.53910494,0 73.92015997999999,18.53909238,0 73.92029415,18.53907953,0 73.9204283,18.53906638,0 73.92056245000001,18.53905293,0 73.9206966,18.53903918,0 73.92083079,18.53902514,0 73.92096502,18.5390108,0 73.92109929,18.53899618,0 73.92123364,18.53898129,0 73.92136805,18.53896614,0 73.92150255,18.53895074,0 73.92163714,18.5389351,0 73.92177181,18.53891922,0 73.92190659000001,18.53890313,0 73.92204146,18.53888681,0 73.92217644,18.53887027,0 73.92231153,18.53885351,0 73.92244672,18.53883653,0 73.92258201,18.5388193,0 73.92271741,18.53880183,0 73.92285291,18.53878408,0 73.92298851,18.53876603,0 73.9231242,18.53874766,0 73.92325998,18.53872894,0 73.92339584,18.53870982,0 73.92353176,18.53869028,0 73.92366774,18.53867028,0 73.92380375,18.53864977,0 73.92393978,18.53862872,0 73.9240758,18.5386071,0 73.92421179,18.53858487,0 73.92434771000001,18.53856201,0 73.92448352,18.53853848,0 73.92461921,18.53851427,0 73.92475472,18.53848935,0 73.92489002000001,18.53846373,0 73.92502506,18.53843739,0 73.92515981,18.53841033,0 73.92529422,18.53838255,0 73.92542826,18.53835406,0 73.92556190000001,18.53832487,0 73.9256951,18.538295,0 73.92582783,18.53826445,0 73.92596007,18.53823323,0 73.92609182,18.53820137,0 73.92622305,18.53816887,0 73.92635376,18.53813574,0 73.92648396,18.53810201,0 73.92661364999999,18.53806766,0 73.92674286,18.53803272,0 73.92687159,18.53799719,0 73.92699989,18.53796107,0 73.92712778000001,18.53792438,0 73.9272553,18.53788711,0 73.92738249999999,18.53784928,0 73.92750940000001,18.5378109,0 73.92763607000001,18.53777198,0 73.92776255,18.53773253,0 73.92788889000001,18.53769258,0 73.92801514,18.53765216,0 73.92814135,18.53761128,0 73.92826757,18.53757,0 73.92839384,18.53752834,0 73.92852022,18.53748637,0 73.92864674,18.53744411,0 73.92877344999999,18.53740164,0 73.92890039,18.53735901,0 73.92902759,18.53731628,0 73.92915508999999,18.53727353,0 73.92928292000001,18.53723081,0 73.9294111,18.53718819,0 73.92953967,18.53714575,0 73.92966864,18.53710354,0 73.92979806,18.53706163,0 73.92992793000001,18.53702009,0 73.93005828,18.53697897,0 73.93018914,18.53693833,0 73.93032053,18.53689822,0 73.93045246,18.53685869,0 73.93058497,18.53681977,0 73.93071807,18.5367815,0 73.93085179000001,18.53674391,0 73.93098615,18.53670702,0 73.93112118000001,18.53667086,0 73.93125689999999,18.53663543,0 73.93139333000001,18.53660075,0 73.93153048000001,18.5365668,0 73.93166838,18.53653361,0 73.93180701999999,18.53650114,0 73.93194642,18.53646939,0 73.93208658,18.53643834,0 73.93222747999999,18.53640797,0 73.9323691,18.53637824,0 73.93251143000001,18.53634913,0 73.93265442000001,18.5363206,0 73.93279803,18.53629262,0 73.93294220999999,18.53626515,0 73.93308689,18.53623815,0 73.933232,18.5362116,0 73.93337747,18.53618546,0 73.93352321,18.53615973,0 73.93366915,18.53613438,0 73.93381519,18.53610943,0 73.93396126,18.53608488,0 73.93410726,18.53606077,0 73.93425314,18.53603715,0 73.93439881,18.53601408,0 73.93454421,18.53599165,0 73.93468928999999,18.53596996,0 73.93483401,18.53594912,0 73.93497833000001,18.53592927,0 73.93512224,18.53591054,0 73.93526571,18.5358931,0 73.93540874,18.5358771,0 73.93555133,18.5358627,0 73.9356935,18.53585007,0 73.93583525,18.53583936,0 73.93597659,18.53583073,0 73.93611753,18.53582433,0 73.93625809,18.5358203,0 73.93639827,18.53581876,0 73.93653806,18.53581982,0 73.93667745,18.5358236,0 73.93681642,18.53583019,0 73.93695493,18.53583968,0 73.93709293000001,18.53585214,0 73.93723034999999,18.53586765,0 73.9373671,18.53588628,0 73.9375031,18.53590808,0 73.93763822,18.53593311,0 73.93777235,18.53596144,0 73.93790533000001,18.53599312,0 73.93803702,18.5360282,0 73.93816726,18.53606672,0 73.93829589000001,18.53610873,0 73.93842273999999,18.53615427,0 73.93854766,18.53620338,0 73.93867047000001,18.53625608,0 73.93879103,18.53631238,0 73.9389092,18.5363723,0 73.93902486,18.53643582,0 73.93913790000001,18.53650294,0 73.93924823,18.53657362,0 73.93935578999999,18.53664782,0 73.93946052,18.53672547,0 73.93956242,18.5368065,0 73.93966147,18.53689081,0 73.9397577,18.53697831,0 73.93985114,18.53706887,0 73.93994185,18.53716235,0 73.94002991000001,18.53725861,0 73.94011539,18.53735749,0 73.9401984,18.53745882,0 73.94027903,18.53756244,0 73.9403574,18.53766815,0 73.94043361,18.53777579,0 73.94050778,18.53788517,0 73.94058003000001,18.53799611,0 73.94065046999999,18.53810843,0 73.94071922000001,18.53822198,0 73.94078639,18.53833657,0 73.9408521,18.53845208,0 73.94091645,18.53856834,0 73.94097954999999,18.53868523,0 73.94104151000001,18.53880264,0 73.94110245,18.53892045,0 73.94116246999999,18.53903857,0 73.94122169000001,18.53915692,0 73.94128021,18.53927542,0 73.94133814,18.53939401,0 73.94139560000001,18.53951265,0 73.9414527,18.53963128,0 73.94150955000001,18.53974988,0 73.94156626,18.53986842,0 73.94162292999999,18.53998688,0 73.94167967,18.54010524,0 73.94173659,18.54022349,0 73.94179376,18.54034163,0 73.94185127999999,18.54045964,0 73.94190924,18.54057751,0 73.94196770000001,18.54069525,0 73.94202672999999,18.54081283,0 73.94208639999999,18.54093024,0 73.94214676,18.54104747,0 73.94220785,18.54116449,0 73.94226973000001,18.54128129,0 73.94233242,18.54139782,0 73.94239598,18.54151406,0 73.94246043,18.54162996,0 73.9425258,18.54174548,0 73.94259216,18.54186056,0 73.94265952000001,18.54197516,0 73.94272794,18.5420892,0 73.94279747,18.54220262,0 73.94286816,18.54231535,0 73.94294008,18.54242732,0 73.94301326999999,18.54253844,0 73.94308782,18.54264863,0 73.94316378000001,18.5427578,0 73.94324122,18.54286585,0 73.9433202,18.54297269,0 73.94340079,18.54307822,0 73.94348304,18.54318233,0 73.94356698999999,18.54328494,0 73.94365268999999,18.54338593,0 73.94374016,18.5434852,0 73.94382944,18.54358265,0 73.94392053,18.54367819,0 73.94401344000001,18.54377171,0 73.94410817000001,18.54386312,0 73.94420470999999,18.54395232,0 73.94430303999999,18.54403922,0 73.94440315,18.54412374,0 73.94450501,18.54420578,0 73.94460861,18.54428525,0 73.94471392,18.54436208,0 73.94482092,18.54443618,0 73.94492961,18.54450747,0 73.94503994999999,18.54457588,0 73.94515194,18.54464134,0 73.94526558,18.54470379,0 73.94538083,18.54476317,0 73.9454977,18.54481945,0 73.94561616999999,18.54487259,0 73.94573622,18.54492258,0 73.94585782,18.54496943,0 73.94598095000001,18.54501314,0 73.94610557,18.54505375,0 73.94623163,18.54509133,0 73.94635907,18.54512594,0 73.94648782,18.54515766,0 73.94661782,18.54518661,0 73.94674897,18.54521291,0 73.94688120000001,18.54523668,0 73.94701439000001,18.54525807,0 73.94714844000001,18.54527721,0 73.94728326000001,18.54529427,0 73.94741873,18.5453094,0 73.94755474,18.54532275,0 73.94769119999999,18.54533447,0 73.94782798999999,18.5453447,0 73.94796503000001,18.54535361,0 73.94810222,18.54536132,0 73.94823948,18.54536797,0 73.94837674,18.54537369,0 73.94851395000001,18.54537861,0 73.94865104,18.54538285,0 73.94878798000001,18.54538655,0 73.94892474,18.54538981,0 73.94906129,18.54539277,0 73.94919763,18.54539555,0 73.94933374,18.54539828,0 73.94946964,18.54540107,0 73.94960534000001,18.54540407,0 73.94974084,18.54540738,0 73.94987616,18.54541115,0 73.95001130999999,18.54541548,0 73.95014632,18.54542049,0 73.95028120000001,18.54542629,0 73.95041596,18.54543298,0 73.95055060999999,18.54544063,0 73.95068516000001,18.54544932,0 73.95081962,18.5454591,0 73.95095397999999,18.54547001,0 73.95108825,18.54548205,0 73.95122244,18.54549523,0 73.95135653,18.54550953,0 73.95149053999999,18.5455249,0 73.95162446000001,18.5455413,0 73.95175832,18.54555865,0 73.95189211,18.54557688,0 73.95202586000001,18.54559591,0 73.95215958999999,18.54561565,0 73.95229333,18.54563601,0 73.95242709999999,18.5456569,0 73.95256093,18.54567824,0 73.95269485999999,18.54569995,0 73.95282890999999,18.54572197,0 73.95296311,18.54574425,0 73.95309748,18.54576673,0 73.95323205,18.54578939,0 73.95336682,18.54581219,0 73.95350179,18.54583513,0 73.95363698,18.54585819,0 73.95377234999999,18.54588138,0 73.9539079,18.54590468,0 73.95404360000001,18.54592812,0 73.95417943,18.54595168,0 73.95431535,18.54597538,0 73.95445134000001,18.5459992,0 73.95458735,18.54602315,0 73.95472336,18.5460472,0 73.95485933000001,18.54607135,0 73.95499525,18.54609557,0 73.95513108,18.54611983,0 73.95526682000001,18.54614409,0 73.95540244,18.5461683,0 73.95553794999999,18.54619243,0 73.95567333,18.54621641,0 73.95580859,18.54624018,0 73.95594374,18.54626369,0 73.95607877,18.54628686,0 73.95621371,18.54630961,0 73.95634857,18.54633187,0 73.95648335,18.54635354,0 73.95661809000001,18.54637455,0 73.9567528,18.54639477,0 73.95688751,18.54641412,0 73.95702224,18.54643248,0 73.95715701,18.54644971,0 73.95729185,18.5464657,0 73.95742679999999,18.54648031,0 73.95756187000001,18.54649337,0 73.95769708,18.54650474,0 73.95783246000001,18.54651426,0 73.95796799999999,18.54652175,0 73.95810372,18.54652704,0 73.9582396,18.54652997,0 73.95837562,18.54653034,0 73.95851175999999,18.546528,0 73.95864795999999,18.54652278,0 73.95878415999999,18.54651453,0 73.9589203,18.54650311,0 73.95905629000001,18.5464884,0 73.95919204,18.5464703,0 73.95932745,18.54644875,0 73.95946244,18.5464237,0 73.95959688000001,18.54639512,0 73.95973069,18.54636304,0 73.95986377,18.5463275,0 73.95999605,18.54628859,0 73.96012743999999,18.5462464,0 73.96025791,18.54620108,0 73.9603874,18.54615279,0 73.9605159,18.54610171,0 73.96064341,18.54604805,0 73.96076993,18.54599202,0 73.96089550000001,18.54593384,0 73.96102016,18.54587375,0 73.96114398,18.54581199,0 73.96126703,18.54574877,0 73.96138938999999,18.54568433,0 73.96151114,18.54561888,0 73.96163238,18.54555262,0 73.96175321,18.54548575,0 73.96187371000001,18.54541844,0 73.96199399,18.54535087,0 73.96211412,18.54528319,0 73.96223421000001,18.54521553,0 73.96235430999999,18.54514804,0 73.96247451000001,18.54508082,0 73.96259486,18.54501399,0 73.96271543,18.54494765,0 73.96283626,18.5448819,0 73.96295739999999,18.54481683,0 73.96307887,18.54475253,0 73.9632007,18.54468907,0 73.96332293,18.54462653,0 73.96344556,18.54456498,0 73.96356862,18.54450449,0 73.96369212,18.54444512,0 73.96381606,18.54438693,0 73.96394047,18.54432997,0 73.96406534,18.54427428,0 73.96419069,18.5442199,0 73.96431651,18.54416686,0 73.96444282,18.54411517,0 73.96456962000001,18.54406484,0 73.96469690000001,18.54401589,0 73.96482467,18.54396829,0 73.96495292,18.54392204,0 73.96508165,18.5438771,0 73.96521085000001,18.54383344,0 73.9653405,18.54379102,0 73.9654706,18.54374979,0 73.96560112,18.54370969,0 73.96573204000001,18.54367066,0 73.96586336,18.54363262,0 73.96599503,18.54359552,0 73.96612705,18.54355927,0 73.96625939,18.5435238,0 73.96639201000001,18.54348904,0 73.96652491,18.54345489,0 73.96665806,18.54342129,0 73.96679142000001,18.54338816,0 73.96692498,18.54335542,0 73.9670587,18.543323,0 73.96719256999999,18.54329081,0 73.96732654,18.54325879,0 73.96746059,18.54322686,0 73.96759467,18.54319494,0 73.96772876,18.54316298,0 73.96786279,18.54313089,0 73.96799674,18.5430986,0 73.96813055,18.54306606,0 73.96826416,18.54303318,0 73.96839752,18.54299992,0 73.96853057,18.5429662,0 73.96866325000001,18.54293198,0 73.96879551000001,18.54289718,0 73.96892726999999,18.54286177,0 73.96905848,18.54282569,0 73.96918908000001,18.54278891,0 73.96931901000001,18.54275138,0 73.96944822,18.54271306,0 73.96957666,18.54267393,0 73.96970428,18.54263395,0 73.96983102,18.54259309,0 73.96995686,18.54255133,0 73.97008175000001,18.54250863,0 73.97020566,18.54246496,0 73.97032855,18.54242028,0 73.97045039,18.54237455,0 73.97057117,18.54232773,0 73.97069085,18.54227975,0 73.97080941999999,18.54223054,0 73.97092686000001,18.54218004,0 73.97104317,18.54212816,0 73.97115832,18.5420748,0 73.97127232,18.54201986,0 73.97138516,18.54196323,0 73.97149684,18.5419048,0 73.97160735999999,18.54184446,0 73.97171673,18.54178207,0 73.97182494,18.54171754,0 73.971932,18.54165076,0 73.97203789,18.54158163,0 73.97214262,18.54151008,0 73.97224616,18.54143603,0 73.97234847999999,18.54135945,0 73.97244954999999,18.54128032,0 73.97254933000001,18.54119864,0 73.97264776,18.54111444,0 73.97274476,18.54102777,0 73.97284027000001,18.54093872,0 73.97293419,18.54084738,0 73.97302644,18.54075387,0 73.97311692,18.54065832,0 73.97320553,18.54056088,0 73.97329219,18.54046169,0 73.97337681,18.54036091,0 73.9734593,18.54025869,0 73.97353961,18.54015519,0 73.97361767,18.54005053,0 73.97369346000001,18.53994485,0 73.97376695,18.53983825,0 73.97383815000001,18.53973084,0 73.97390706,18.5396227,0 73.97397372,18.53951388,0 73.97403819,18.53940445,0 73.97410051999999,18.53929444,0 73.97416080000001,18.53918387,0 73.97421912,18.53907275,0 73.97427559,18.53896109,0 73.97433031,18.53884888,0 73.97438341,18.53873611,0 73.97443500999999,18.53862277,0 73.97448524000001,18.53850885,0 73.97453424,18.53839432,0 73.97458213,18.53827919,0 73.97462907000001,18.53816343,0 73.97467518000001,18.53804705,0 73.97472061000001,18.53793003,0 73.97476551,18.53781238,0 73.97481001,18.5376941,0 73.97485426,18.53757521,0 73.97489838,18.53745573,0 73.97494253000001,18.53733569,0 73.97498684,18.53721511,0 73.97503141999999,18.53709405,0 73.97507640000001,18.53697255,0 73.97512188,18.53685066,0 73.97516797999999,18.53672844,0 73.97521478,18.53660597,0 73.97526234999999,18.53648332,0 73.97531076999999,18.53636055,0 73.97536006999999,18.53623775,0 73.97541031999999,18.536115,0 73.97546151,18.53599236,0 73.97551368000001,18.53586991,0 73.97556682,18.53574772,0 73.97562094,18.53562586,0 73.97567601,18.53550437,0 73.97573202,18.53538332,0 73.97578896,18.53526275,0 73.9758468,18.53514269,0 73.97590554,18.53502319,0 73.97596514999999,18.53490427,0 73.97602563,18.53478596,0 73.97608698000001,18.53466829,0 73.97614922,18.53455126,0 73.97621235,18.53443491,0 73.97627642,18.53431925,0 73.97634144,18.53420429,0 73.97640748000001,18.53409006,0 73.97647458,18.53397657,0 73.9765428,18.53386385,0 73.97661221,18.5337519,0 73.97668287,18.53364076,0 73.97675484,18.53353043,0 73.97682819000001,18.53342093,0 73.97690298000001,18.53331229,0 73.97697927,18.5332045,0 73.9770571,18.53309759,0 73.97713650999999,18.53299157,0 73.97721753,18.53288644,0 73.97730017000001,18.53278222,0 73.97738445,18.5326789,0 73.97747036,18.53257649,0 73.97755787,18.532475,0 73.97764696,18.53237441,0 73.9777376,18.53227474,0 73.97782973,18.53217598,0 73.9779233,18.53207811,0 73.97801826,18.53198115,0 73.97811454000001,18.53188507,0 73.97821207,18.53178987,0 73.97831076999999,18.53169554,0 73.97841059,18.53160207,0 73.97851145,18.53150944,0 73.97861328,18.53141763,0 73.97871601,18.53132665,0 73.97881958000001,18.53123646,0 73.97892392999999,18.53114705,0 73.97902899,18.53105841,0 73.97913471,18.53097051,0 73.97924104000001,18.53088334,0 73.97934793,18.53079688,0 73.97945534,18.53071109,0 73.97956322,18.53062597,0 73.97967155000001,18.5305415,0 73.9797803,18.53045764,0 73.97988943,18.53037438,0 73.97999892999999,18.53029171,0 73.98010879,18.53020959,0 73.98021898,18.53012802,0 73.9803295,18.53004699,0 73.98044032999999,18.52996647,0 73.98055148,18.52988646,0 73.98066292,18.52980696,0 73.98077465,18.52972796,0 73.98088666,18.52964946,0 73.98099895,18.52957147,0 73.98111148,18.52949398,0 73.98122426,18.52941702,0 73.98133726,18.52934058,0 73.98145045,18.52926467,0 73.98156381,18.52918931,0 73.98167730999999,18.52911451,0 73.98179093,18.52904026,0 73.98190461999999,18.52896658,0 73.98201837000001,18.52889347,0 73.98213212,18.52882092,0 73.98224586000001,18.52874892,0 73.98235956000001,18.52867746,0 73.9824732,18.52860651,0 73.98258676,18.52853605,0 73.98270023000001,18.52846603,0 73.98281362,18.52839643,0 73.98292693,18.5283272,0 73.98304018,18.52825828,0 73.98315340000001,18.52818962,0 73.98326663,18.52812118,0 73.98337991,18.5280529,0 73.98349329,18.52798474,0 73.98360683,18.52791665,0 73.98372058,18.52784859,0 73.98383461,18.52778053,0 73.98394896000001,18.52771245,0 73.98406369,18.52764434,0 73.98417885000001,18.5275762,0 73.98429446,18.52750802,0 73.98441054,18.52743983,0 73.98452712,18.52737163,0 73.98464417,18.52730347,0 73.98476169,18.52723536,0 73.98487965,18.52716733,0 73.984998,18.5270994,0 73.98511668,18.52703162,0 73.98523564,18.52696398,0 73.98535479,18.52689652,0 73.98547404999999,18.52682922,0 73.98559333999999,18.5267621,0 73.98571258,18.52669513,0 73.98583168,18.5266283,0 73.98595056000001,18.52656157,0 73.98606914,18.52649491,0 73.98618734999999,18.52642828,0 73.98630514,18.52636162,0 73.98642246,18.52629488,0 73.98653926,18.52622801,0 73.98665551000001,18.52616095,0 73.98677120000001,18.52609364,0 73.98688631,18.52602604,0 73.98700085,18.52595809,0 73.98711480999999,18.52588976,0 73.98722822000001,18.52582099,0 73.98734109,18.52575177,0 73.98745345,18.52568207,0 73.98756532,18.52561185,0 73.98767672,18.52554112,0 73.98778769,18.52546985,0 73.98789823,18.52539805,0 73.98800839,18.5253257,0 73.98811817000001,18.52525279,0 73.9882276,18.52517933,0 73.98833668,18.52510532,0 73.98844543,18.52503073,0 73.98855386,18.52495557,0 73.98866196,18.52487984,0 73.98876974,18.5248035,0 73.9888772,18.52472656,0 73.98898432,18.52464899,0 73.98909111,18.52457079,0 73.98919755,18.52449192,0 73.98930364,18.52441239,0 73.98940936,18.52433217,0 73.9895147,18.52425126,0 73.98961964999999,18.52416964,0 73.9897242,18.52408733,0 73.98982834,18.52400433,0 73.98993204999999,18.52392066,0 73.99003531,18.52383637,0 73.99013812,18.52375149,0 73.99024043999999,18.5236661,0 73.99034226000001,18.52358026,0 73.99044354,18.52349409,0 73.99054425,18.5234077,0 73.99064432,18.52332124,0 73.99074371,18.52323487,0 73.99084232,18.52314877,0 73.99094006999999,18.52306315,0 73.99103684000001,18.52297823,0 73.99113247,18.52289427,0 73.99122680000001,18.52281153,0 73.99131961000001,18.52273029,0 73.99141066,18.52265087,0 73.99149967,18.52257357,0 73.99158632,18.52249873,0 73.99167025,18.52242669,0 73.99175106,18.52235781,0 73.99182832,18.52229242,0 73.99190156,18.52223091,0 73.99197031,18.5221736,0 73.99203405,18.52212086,0 73.9920923,18.522073,0 73.99214456,18.52203036,0 73.99219036,18.52199321,0 73.99222927,18.52196182,0 73.99226089,18.52193643,0 73.99228491,18.52191721,0 73.99230107,18.52190431,0 73.99230919,18.52189784,0 
				</coordinates>
			</LineString>
		</Placemark>
	</Folder>
	<Folder id="49DE6D71A6414522DDCF">
		<name>Chainage Points (every 100 m)</name>
		<styleUrl>#__managed_style_28612797CF4145230560</styleUrl>
		<Placemark id="5AABF06AD7414522DDCF">
			<name>0+000</name>
			<styleUrl>#__managed_style_0515D8E11F4145230564</styleUrl>
			<Point>
				<coordinates>73.85617563,18.53227447,0</coordinates>
			</Point>
		</Placemark>
		<Placemark id="6CBA6631D0414522DDCF">
			<name>0+100</name>
			<styleUrl>#__managed_style_01623E935E414523055B</styleUrl>
			<Point>
				<coordinates>73.85700538,18.53183894,0</coordinates>
			</Point>
		</Placemark>
		<Placemark id="789ADA0973414522DDCF">
			<name>0+200</name>
			<styleUrl>#__managed_style_01623E935E414523055B</styleUrl>
			<Point>
				<coordinates>73.85787918,18.53149197,0</coordinates>
			</Point>
		</Placemark>
		<Placemark id="84D4520263414522DDCF">
			<name>0+300</name>
			<styleUrl>#__managed_style_01623E935E414523055B</styleUrl>
			<Point>
				<coordinates>73.85880507,18.53131234,0</coordinates>
			</Point>
		</Placemark>
		<Placemark id="99F4B67248414522DDCF">
			<name>0+400</name>
			<styleUrl>#__managed_style_01623E935E414523055B</styleUrl>
			<Point>
				<coordinates>73.85974392,18.53139606,0</coordinates>
			</Point>
		</Placemark>
		<Placemark id="AA4AB99DBA414522DDCF">
			<name>0+500</name>
			<styleUrl>#__managed_style_01623E935E414523055B</styleUrl>
			<Point>
				<coordinates>73.86061291999999,18.53174857,0</coordinates>
			</Point>
		</Placemark>
		<Placemark id="B81CA8CAB6414522DDCF">
			<name>0+600</name>
			<styleUrl>#__managed_style_01623E935E414523055B</styleUrl>
			<Point>
				<coordinates>73.8613878,18.53226689,0</coordinates>
			</Point>
		</Placemark>
		<Placemark id="0D40D95704414522DDD0">
			<name>0+700</name>
			<styleUrl>#__managed_style_01623E935E414523055B</styleUrl>
			<Point>
				<coordinates>73.86210689000001,18.53285501,0</coordinates>
			</Point>
		</Placemark>
		<Placemark id="1865B317F4414522DDD0">
			<name>0+800</name>
			<styleUrl>#__managed_style_01623E935E414523055B</styleUrl>
			<Point>
				<coordinates>73.86281397,18.5334564,0</coordinates>
			</Point>
		</Placemark>
		<Placemark id="232160F2E7414522DDD0">
			<name>0+900</name>
			<styleUrl>#__managed_style_01623E935E414523055B</styleUrl>
			<Point>
				<coordinates>73.86353341,18.53404426,0</coordinates>
			</Point>
		</Placemark>
		<Placemark id="3F55F32694414522DDD0">
			<name>1+000</name>
			<styleUrl>#__managed_style_01623E935E414523055B</styleUrl>
			<Point>
				<coordinates>73.86426480999999,18.53461859,0</coordinates>
			</Point>
		</Placemark>
		<Placemark id="4501513CAD414522DDD0">
			<name>1+100</name>
			<styleUrl>#__managed_style_01623E935E414523055B</styleUrl>
			<Point>
				<coordinates>73.8649848,18.53520576,0</coordinates>
			</Point>
		</Placemark>
		<Placemark id="523E1CE691414522DDD0">
			<name>1+200</name>
			<styleUrl>#__managed_style_01623E935E414523055B</styleUrl>
			<Point>
				<coordinates>73.86566774000001,18.53583185,0</coordinates>
			</Point>
		</Placemark>
		<Placemark id="6F5EB6D19F414522DDD0">
			<name>1+300</name>
			<styleUrl>#__managed_style_01623E935E414523055B</styleUrl>
			<Point>
				<coordinates>73.86633083,18.53647724,0</coordinates>
			</Point>
		</Placemark>
		<Placemark id="7826089D6E414522DDD0">
			<name>1+400</name>
			<styleUrl>#__managed_style_01623E935E414523055B</styleUrl>
			<Point>
				<coordinates>73.86700976,18.53710737,0</coordinates>
			</Point>
		</Placemark>
		<Placemark id="827CCF5015414522DDD0">
			<name>1+500</name>
			<styleUrl>#__managed_style_01623E935E414523055B</styleUrl>
			<Point>
				<coordinates>73.86772359,18.53770124,0</coordinates>
			</Point>
		</Placemark>
		<Placemark id="992F8654ED414522DDD0">
			<name>1+600</name>
			<styleUrl>#__managed_style_01623E935E414523055B</styleUrl>
			<Point>
				<coordinates>73.86847785,18.53824773,0</coordinates>
			</Point>
		</Placemark>
		<Placemark id="A80285F7F0414522DDD0">
			<name>1+700</name>
			<styleUrl>#__managed_style_01623E935E414523055B</styleUrl>
			<Point>
				<coordinates>73.86926661,18.53874804,0</coordinates>
			</Point>
		</Placemark>
		<Placemark id="BD36ACD51B414522DDD0">
			<name>1+800</name>
			<styleUrl>#__managed_style_01623E935E414523055B</styleUrl>
			<Point>
				<coordinates>73.87008083000001,18.53920986,0</coordinates>
			</Point>
		</Placemark>
		<Placemark id="C388FA74E2414522DDD0">
			<name>1+900</name>
			<styleUrl>#__managed_style_01623E935E414523055B</styleUrl>
			<Point>
				<coordinates>73.87091513,18.53963786,0</coordinates>
			</Point>
		</Placemark>
		<Placemark id="DE02C57945414522DDD0">
			<name>2+000</name>
			<styleUrl>#__managed_style_01623E935E414523055B</styleUrl>
			<Point>
				<coordinates>73.87176624,18.54003463,0</coordinates>
			</Point>
		</Placemark>
		<Placemark id="E7B4C48CD2414522DDD0">
			<name>2+100</name>
			<styleUrl>#__managed_style_01623E935E414523055B</styleUrl>
			<Point>
				<coordinates>73.87263050999999,18.54040469,0</coordinates>
			</Point>
		</Placemark>
		<Placemark id="F1A8FD01BA414522DDD0">
			<name>2+200</name>
			<styleUrl>#__managed_style_01623E935E414523055B</styleUrl>
			<Point>
				<coordinates>73.87350417,18.54075413,0</coordinates>
			</Point>
		</Placemark>
		<Placemark id="1072AF88B9C414522DDD0">
			<name>2+300</name>
			<styleUrl>#__managed_style_01623E935E414523055B</styleUrl>
			<Point>
				<coordinates>73.87438530999999,18.54108605,0</coordinates>
			</Point>
		</Placemark>
		<Placemark id="1102A66A7F4414522DDD0">
			<name>2+400</name>
			<styleUrl>#__managed_style_01623E935E414523055B</styleUrl>
			<Point>
				<coordinates>73.87527383,18.54139957,0</coordinates>
			</Point>
		</Placemark>
		<Placemark id="122E0CADCC5414522DDD0">
			<name>2+500</name>
			<styleUrl>#__managed_style_01623E935E414523055B</styleUrl>
			<Point>
				<coordinates>73.87617059,18.54169093,0</coordinates>
			</Point>
		</Placemark>
		<Placemark id="13B1163A8AF414522DDD0">
			<name>2+600</name>
			<styleUrl>#__managed_style_01623E935E414523055B</styleUrl>
			<Point>
				<coordinates>73.87707640000001,18.54195557,0</coordinates>
			</Point>
		</Placemark>
		<Placemark id="147C92EA56E414522DDD0">
			<name>2+700</name>
			<styleUrl>#__managed_style_01623E935E414523055B</styleUrl>
			<Point>
				<coordinates>73.87799099999999,18.54219109,0</coordinates>
			</Point>
		</Placemark>
		<Placemark id="1594BA755FD414522DDD0">
			<name>2+800</name>
			<styleUrl>#__managed_style_01623E935E414523055B</styleUrl>
			<Point>
				<coordinates>73.87891346000001,18.54239684,0</coordinates>
			</Point>
		</Placemark>
		<Placemark id="16CDCCE616E414522DDD0">
			<name>2+900</name>
			<styleUrl>#__managed_style_01623E935E414523055B</styleUrl>
			<Point>
				<coordinates>73.87984256,18.54257341,0</coordinates>
			</Point>
		</Placemark>
		<Placemark id="17F46F0238C414522DDD0">
			<name>3+000</name>
			<styleUrl>#__managed_style_01623E935E414523055B</styleUrl>
			<Point>
				<coordinates>73.88077662000001,18.54272432,0</coordinates>
			</Point>
		</Placemark>
		<Placemark id="187A3AC04DD414522DDD0">
			<name>3+100</name>
			<styleUrl>#__managed_style_01623E935E414523055B</styleUrl>
			<Point>
				<coordinates>73.88171396,18.5428556,0</coordinates>
			</Point>
		</Placemark>
		<Placemark id="194A64FE3ED414522DDD0">
			<name>3+200</name>
			<styleUrl>#__managed_style_01623E935E414523055B</styleUrl>
			<Point>
				<coordinates>73.8826531,18.54297459,0</coordinates>
			</Point>
		</Placemark>
		<Placemark id="1A72F22B4AC414522DDD0">
			<name>3+300</name>
			<styleUrl>#__managed_style_01623E935E414523055B</styleUrl>
			<Point>
				<coordinates>73.883593,18.5430881,0</coordinates>
			</Point>
		</Placemark>
		<Placemark id="1B7C423A2F3414522DDD0">
			<name>3+400</name>
			<styleUrl>#__managed_style_01623E935E414523055B</styleUrl>
			<Point>
				<coordinates>73.88453337,18.54319794,0</coordinates>
			</Point>
		</Placemark>
		<Placemark id="1CE4F55BD93414522DDD0">
			<name>3+500</name>
			<styleUrl>#__managed_style_01623E935E414523055B</styleUrl>
			<Point>
				<coordinates>73.8854748,18.54329924,0</coordinates>
			</Point>
		</Placemark>
		<Placemark id="1DCE4A68A49414522DDD0">
			<name>3+600</name>
			<styleUrl>#__managed_style_01623E935E414523055B</styleUrl>
			<Point>
				<coordinates>73.8864179,18.54338507,0</coordinates>
			</Point>
		</Placemark>
		<Placemark id="1E3E9B788D6414522DDD0">
			<name>3+700</name>
			<styleUrl>#__managed_style_01623E935E414523055B</styleUrl>
			<Point>
				<coordinates>73.88736264000001,18.54345254,0</coordinates>
			</Point>
		</Placemark>
		<Placemark id="1FA9CB2A94D414522DDD0">
			<name>3+800</name>
			<styleUrl>#__managed_style_01623E935E414523055B</styleUrl>
			<Point>
				<coordinates>73.88830857000001,18.5435027,0</coordinates>
			</Point>
		</Placemark>
		<Placemark id="20FE1754B81414522DDD0">
			<name>3+900</name>
			<styleUrl>#__managed_style_01623E935E414523055B</styleUrl>
			<Point>
				<coordinates>73.88925544999999,18.54353193,0</coordinates>
			</Point>
		</Placemark>
		<Placemark id="21DEA200765414522DDD0">
			<name>4+000</name>
			<styleUrl>#__managed_style_01623E935E414523055B</styleUrl>
			<Point>
				<coordinates>73.89020268,18.54352349,0</coordinates>
			</Point>
		</Placemark>
		<Placemark id="22D6F607031414522DDD0">
			<name>4+100</name>
			<styleUrl>#__managed_style_01623E935E414523055B</styleUrl>
			<Point>
				<coordinates>73.89114714999999,18.54345523,0</coordinates>
			</Point>
		</Placemark>
		<Placemark id="23F9162EB95414522DDD0">
			<name>4+200</name>
			<styleUrl>#__managed_style_01623E935E414523055B</styleUrl>
			<Point>
				<coordinates>73.89208377,18.54332054,0</coordinates>
			</Point>
		</Placemark>
		<Placemark id="240351F8AD8414522DDD0">
			<name>4+300</name>
			<styleUrl>#__managed_style_01623E935E414523055B</styleUrl>
			<Point>
				<coordinates>73.89301084,18.54313466,0</coordinates>
			</Point>
		</Placemark>
		<Placemark id="259F5076504414522DDD0">
			<name>4+400</name>
			<styleUrl>#__managed_style_01623E935E414523055B</styleUrl>
			<Point>
				<coordinates>73.8939318,18.54292271,0</coordinates>
			</Point>
		</Placemark>
		<Placemark id="26642516F91414522DDD0">
			<name>4+500</name>
			<styleUrl>#__managed_style_01623E935E414523055B</styleUrl>
			<Point>
				<coordinates>73.8948516,18.54270616,0</coordinates>
			</Point>
		</Placemark>
		<Placemark id="2712D82F9DE414522DDD0">
			<name>4+600</name>
			<styleUrl>#__managed_style_01623E935E414523055B</styleUrl>
			<Point>
				<coordinates>73.89577321,18.54249677,0</coordinates>
			</Point>
		</Placemark>
		<Placemark id="2862E3199FE414522DDD0">
			<name>4+700</name>
			<styleUrl>#__managed_style_01623E935E414523055B</styleUrl>
			<Point>
				<coordinates>73.89669727,18.54229743,0</coordinates>
			</Point>
		</Placemark>
		<Placemark id="29806587E7F414522DDD0">
			<name>4+800</name>
			<styleUrl>#__managed_style_01623E935E414523055B</styleUrl>
			<Point>
				<coordinates>73.89762331,18.54210666,0</coordinates>
			</Point>
		</Placemark>
		<Placemark id="2A011AAE924414522DDD0">
			<name>4+900</name>
			<styleUrl>#__managed_style_01623E935E414523055B</styleUrl>
			<Point>
				<coordinates>73.89855120999999,18.54192426,0</coordinates>
			</Point>
		</Placemark>
		<Placemark id="2B670747078414522DDD0">
			<name>5+000</name>
			<styleUrl>#__managed_style_01623E935E414523055B</styleUrl>
			<Point>
				<coordinates>73.89948182000001,18.54175497,0</coordinates>
			</Point>
		</Placemark>
		<Placemark id="2C2B1D96305414522DDD0">
			<name>5+100</name>
			<styleUrl>#__managed_style_01623E935E414523055B</styleUrl>
			<Point>
				<coordinates>73.90041633,18.54160659,0</coordinates>
			</Point>
		</Placemark>
		<Placemark id="2D05D170BFB414522DDD0">
			<name>5+200</name>
			<styleUrl>#__managed_style_01623E935E414523055B</styleUrl>
			<Point>
				<coordinates>73.90135488999999,18.5414837,0</coordinates>
			</Point>
		</Placemark>
		<Placemark id="2EA1C822613414522DDD0">
			<name>5+300</name>
			<styleUrl>#__managed_style_01623E935E414523055B</styleUrl>
			<Point>
				<coordinates>73.90229666,18.5413856,0</coordinates>
			</Point>
		</Placemark>
		<Placemark id="2FFA97EFC91414522DDD0">
			<name>5+400</name>
			<styleUrl>#__managed_style_01623E935E414523055B</styleUrl>
			<Point>
				<coordinates>73.90324069,18.54130979,0</coordinates>
			</Point>
		</Placemark>
		<Placemark id="30A811466F2414522DDD0">
			<name>5+500</name>
			<styleUrl>#__managed_style_01623E935E414523055B</styleUrl>
			<Point>
				<coordinates>73.9041861,18.54125128,0</coordinates>
			</Point>
		</Placemark>
		<Placemark id="31C755B402C414522DDD0">
			<name>5+600</name>
			<styleUrl>#__managed_style_01623E935E414523055B</styleUrl>
			<Point>
				<coordinates>73.90513184,18.54119787,0</coordinates>
			</Point>
		</Placemark>
		<Placemark id="325118C2E2F414522DDD0">
			<name>5+700</name>
			<styleUrl>#__managed_style_01623E935E414523055B</styleUrl>
			<Point>
				<coordinates>73.90607695,18.54113527,0</coordinates>
			</Point>
		</Placemark>
		<Placemark id="33AD287AC00414522DDD0">
			<name>5+800</name>
			<styleUrl>#__managed_style_01623E935E414523055B</styleUrl>
			<Point>
				<coordinates>73.90702097,18.54105922,0</coordinates>
			</Point>
		</Placemark>
		<Placemark id="34A7DD6E7E7414522DDD0">
			<name>5+900</name>
			<styleUrl>#__managed_style_01623E935E414523055B</styleUrl>
			<Point>
				<coordinates>73.90796372,18.54096986,0</coordinates>
			</Point>
		</Placemark>
		<Placemark id="3549EC331BF414522DDD0">
			<name>6+000</name>
			<styleUrl>#__managed_style_01623E935E414523055B</styleUrl>
			<Point>
				<coordinates>73.90890379,18.5408581,0</coordinates>
			</Point>
		</Placemark>
		<Placemark id="368242F7220414522DDD0">
			<name>6+100</name>
			<styleUrl>#__managed_style_01623E935E414523055B</styleUrl>
			<Point>
				<coordinates>73.90983844,18.54071082,0</coordinates>
			</Point>
		</Placemark>
		<Placemark id="37D3AAC585F414522DDD0">
			<name>6+200</name>
			<styleUrl>#__managed_style_01623E935E414523055B</styleUrl>
			<Point>
				<coordinates>73.91076606999999,18.54052741,0</coordinates>
			</Point>
		</Placemark>
		<Placemark id="388F58EB00C414522DDD0">
			<name>6+300</name>
			<styleUrl>#__managed_style_01623E935E414523055B</styleUrl>
			<Point>
				<coordinates>73.91168884,18.54032276,0</coordinates>
			</Point>
		</Placemark>
		<Placemark id="3987F8226CF414522DDD0">
			<name>6+400</name>
			<styleUrl>#__managed_style_01623E935E414523055B</styleUrl>
			<Point>
				<coordinates>73.91261057,18.54011387,0</coordinates>
			</Point>
		</Placemark>
		<Placemark id="3A063FF8262414522DDD0">
			<name>6+500</name>
			<styleUrl>#__managed_style_01623E935E414523055B</styleUrl>
			<Point>
				<coordinates>73.91353383000001,18.53991119,0</coordinates>
			</Point>
		</Placemark>
		<Placemark id="3B7CD69706A414522DDD0">
			<name>6+600</name>
			<styleUrl>#__managed_style_01623E935E414523055B</styleUrl>
			<Point>
				<coordinates>73.91446042,18.53972298,0</coordinates>
			</Point>
		</Placemark>
		<Placemark id="3C0C4110344414522DDD0">
			<name>6+700</name>
			<styleUrl>#__managed_style_01623E935E414523055B</styleUrl>
			<Point>
				<coordinates>73.91539236,18.53956071,0</coordinates>
			</Point>
		</Placemark>
		<Placemark id="3D0E4AC5B8C414522DDD0">
			<name>6+800</name>
			<styleUrl>#__managed_style_01623E935E414523055B</styleUrl>
			<Point>
				<coordinates>73.91633013000001,18.5394327,0</coordinates>
			</Point>
		</Placemark>
		<Placemark id="3EDA111EE97414522DDD0">
			<name>6+900</name>
			<styleUrl>#__managed_style_01623E935E414523055B</styleUrl>
			<Point>
				<coordinates>73.91727193,18.53933496,0</coordinates>
			</Point>
		</Placemark>
		<Placemark id="3F02BA3BAA8414522DDD0">
			<name>7+000</name>
			<styleUrl>#__managed_style_01623E935E414523055B</styleUrl>
			<Point>
				<coordinates>73.91821561,18.53925506,0</coordinates>
			</Point>
		</Placemark>
		<Placemark id="40E9288E690414522DDD0">
			<name>7+100</name>
			<styleUrl>#__managed_style_01623E935E414523055B</styleUrl>
			<Point>
				<coordinates>73.91915971,18.53917982,0</coordinates>
			</Point>
		</Placemark>
		<Placemark id="414A7F201E5414522DDD0">
			<name>7+200</name>
			<styleUrl>#__managed_style_01623E935E414523055B</styleUrl>
			<Point>
				<coordinates>73.92010317,18.5390977,0</coordinates>
			</Point>
		</Placemark>
		<Placemark id="4201FC025AC414522DDD0">
			<name>7+300</name>
			<styleUrl>#__managed_style_01623E935E414523055B</styleUrl>
			<Point>
				<coordinates>73.92104523,18.53900207,0</coordinates>
			</Point>
		</Placemark>
		<Placemark id="43D02162524414522DDD0">
			<name>7+400</name>
			<styleUrl>#__managed_style_01623E935E414523055B</styleUrl>
			<Point>
				<coordinates>73.92198575,18.53889355,0</coordinates>
			</Point>
		</Placemark>
		<Placemark id="4487A280C92414522DDD0">
			<name>7+500</name>
			<styleUrl>#__managed_style_01623E935E414523055B</styleUrl>
			<Point>
				<coordinates>73.92292488,18.5387745,0</coordinates>
			</Point>
		</Placemark>
		<Placemark id="4563920126A414522DDD0">
			<name>7+600</name>
			<styleUrl>#__managed_style_01623E935E414523055B</styleUrl>
			<Point>
				<coordinates>73.92386182,18.53864079,0</coordinates>
			</Point>
		</Placemark>
		<Placemark id="46AA88D123B414522DDD0">
			<name>7+700</name>
			<styleUrl>#__managed_style_01623E935E414523055B</styleUrl>
			<Point>
				<coordinates>73.92479439,18.53848184,0</coordinates>
			</Point>
		</Placemark>
		<Placemark id="47909175876414522DDD0">
			<name>7+800</name>
			<styleUrl>#__managed_style_01623E935E414523055B</styleUrl>
			<Point>
				<coordinates>73.92571995,18.53828928,0</coordinates>
			</Point>
		</Placemark>
		<Placemark id="481945E24DF414522DDD0">
			<name>7+900</name>
			<styleUrl>#__managed_style_01623E935E414523055B</styleUrl>
			<Point>
				<coordinates>73.92663666,18.53806144,0</coordinates>
			</Point>
		</Placemark>
		<Placemark id="4942311B584414522DDD0">
			<name>8+000</name>
			<styleUrl>#__managed_style_01623E935E414523055B</styleUrl>
			<Point>
				<coordinates>73.92754360000001,18.53780039,0</coordinates>
			</Point>
		</Placemark>
		<Placemark id="4AF95CAF131414522DDD0">
			<name>8+100</name>
			<styleUrl>#__managed_style_01623E935E414523055B</styleUrl>
			<Point>
				<coordinates>73.92844159000001,18.53751248,0</coordinates>
			</Point>
		</Placemark>
		<Placemark id="4B158EECF81414522DDD0">
			<name>8+200</name>
			<styleUrl>#__managed_style_01623E935E414523055B</styleUrl>
			<Point>
				<coordinates>73.92933555,18.53721331,0</coordinates>
			</Point>
		</Placemark>
		<Placemark id="4C6C06E4023414522DDD0">
			<name>8+300</name>
			<styleUrl>#__managed_style_01623E935E414523055B</styleUrl>
			<Point>
				<coordinates>73.93023334,18.53692484,0</coordinates>
			</Point>
		</Placemark>
		<Placemark id="4D692DAD22E414522DDD0">
			<name>8+400</name>
			<styleUrl>#__managed_style_01623E935E414523055B</styleUrl>
			<Point>
				<coordinates>73.93114086,18.53666572,0</coordinates>
			</Point>
		</Placemark>
		<Placemark id="4E7306F6258414522DDD0">
			<name>8+500</name>
			<styleUrl>#__managed_style_01623E935E414523055B</styleUrl>
			<Point>
				<coordinates>73.93205930000001,18.53644438,0</coordinates>
			</Point>
		</Placemark>
		<Placemark id="4F8F7031B6D414522DDD0">
			<name>8+600</name>
			<styleUrl>#__managed_style_01623E935E414523055B</styleUrl>
			<Point>
				<coordinates>73.93298604,18.53625697,0</coordinates>
			</Point>
		</Placemark>
		<Placemark id="503D0099AA9414522DDD0">
			<name>8+700</name>
			<styleUrl>#__managed_style_01623E935E414523055B</styleUrl>
			<Point>
				<coordinates>73.93391751999999,18.53609223,0</coordinates>
			</Point>
		</Placemark>
		<Placemark id="51AF4260B6E414522DDD0">
			<name>8+800</name>
			<styleUrl>#__managed_style_01623E935E414523055B</styleUrl>
			<Point>
				<coordinates>73.93485248,18.53594658,0</coordinates>
			</Point>
		</Placemark>
		<Placemark id="526605CAD82414522DDD0">
			<name>8+900</name>
			<styleUrl>#__managed_style_01623E935E414523055B</styleUrl>
			<Point>
				<coordinates>73.93579336000001,18.53584252,0</coordinates>
			</Point>
		</Placemark>
		<Placemark id="53E1A631A2E414522DDD0">
			<name>9+000</name>
			<styleUrl>#__managed_style_01623E935E414523055B</styleUrl>
			<Point>
				<coordinates>73.93673994,18.53582657,0</coordinates>
			</Point>
		</Placemark>
		<Placemark id="546B49435A6414522DDD0">
			<name>9+100</name>
			<styleUrl>#__managed_style_01623E935E414523055B</styleUrl>
			<Point>
				<coordinates>73.9376785,18.53594162,0</coordinates>
			</Point>
		</Placemark>
		<Placemark id="556EE9BACBA414522DDD0">
			<name>9+200</name>
			<styleUrl>#__managed_style_01623E935E414523055B</styleUrl>
			<Point>
				<coordinates>73.93857911000001,18.53621688,0</coordinates>
			</Point>
		</Placemark>
		<Placemark id="56924830D85414522DDD0">
			<name>9+300</name>
			<styleUrl>#__managed_style_01623E935E414523055B</styleUrl>
			<Point>
				<coordinates>73.93939281,18.53667527,0</coordinates>
			</Point>
		</Placemark>
		<Placemark id="573C15E560F414522DDD0">
			<name>9+400</name>
			<styleUrl>#__managed_style_01623E935E414523055B</styleUrl>
			<Point>
				<coordinates>73.94006972,18.53730466,0</coordinates>
			</Point>
		</Placemark>
		<Placemark id="58DD7FA3CC7414522DDD0">
			<name>9+500</name>
			<styleUrl>#__managed_style_01623E935E414523055B</styleUrl>
			<Point>
				<coordinates>73.94061089,18.53804531,0</coordinates>
			</Point>
		</Placemark>
		<Placemark id="591E1B9A7FE414522DDD0">
			<name>9+600</name>
			<styleUrl>#__managed_style_01623E935E414523055B</styleUrl>
			<Point>
				<coordinates>73.94106094999999,18.53884021,0</coordinates>
			</Point>
		</Placemark>
		<Placemark id="5A49A866E2F414522DDD0">
			<name>9+700</name>
			<styleUrl>#__managed_style_01623E935E414523055B</styleUrl>
			<Point>
				<coordinates>73.94146524,18.53965743,0</coordinates>
			</Point>
		</Placemark>
		<Placemark id="5BC0B6D7163414522DDD0">
			<name>9+800</name>
			<styleUrl>#__managed_style_01623E935E414523055B</styleUrl>
			<Point>
				<coordinates>73.94186062999999,18.54047864,0</coordinates>
			</Point>
		</Placemark>
		<Placemark id="5C59520D881414522DDD0">
			<name>9+900</name>
			<styleUrl>#__managed_style_01623E935E414523055B</styleUrl>
			<Point>
				<coordinates>73.94227506999999,18.54129122,0</coordinates>
			</Point>
		</Placemark>
		<Placemark id="5D922A976FB414522DDD0">
			<name>10+000</name>
			<styleUrl>#__managed_style_01623E935E414523055B</styleUrl>
			<Point>
				<coordinates>73.94272595,18.54208588,0</coordinates>
			</Point>
		</Placemark>
		<Placemark id="5E556D6EF5B414522DDD0">
			<name>10+100</name>
			<styleUrl>#__managed_style_01623E935E414523055B</styleUrl>
			<Point>
				<coordinates>73.94323027999999,18.54285058,0</coordinates>
			</Point>
		</Placemark>
		<Placemark id="5F1A0D87A6F414522DDD0">
			<name>10+200</name>
			<styleUrl>#__managed_style_01623E935E414523055B</styleUrl>
			<Point>
				<coordinates>73.94381174999999,18.54356335,0</coordinates>
			</Point>
		</Placemark>
		<Placemark id="60B4EC70B21414522DDD0">
			<name>10+300</name>
			<styleUrl>#__managed_style_01623E935E414523055B</styleUrl>
			<Point>
				<coordinates>73.94448962,18.54419338,0</coordinates>
			</Point>
		</Placemark>
		<Placemark id="6141E47BABF414522DDD0">
			<name>10+400</name>
			<styleUrl>#__managed_style_01623E935E414523055B</styleUrl>
			<Point>
				<coordinates>73.94526868,18.54470538,0</coordinates>
			</Point>
		</Placemark>
		<Placemark id="6204151A4BF414522DDD0">
			<name>10+500</name>
			<styleUrl>#__managed_style_01623E935E414523055B</styleUrl>
			<Point>
				<coordinates>73.94613698000001,18.54506312,0</coordinates>
			</Point>
		</Placemark>
		<Placemark id="632379D1501414522DDD0">
			<name>10+600</name>
			<styleUrl>#__managed_style_01623E935E414523055B</styleUrl>
			<Point>
				<coordinates>73.94705954,18.54526451,0</coordinates>
			</Point>
		</Placemark>
		<Placemark id="64C6B085371414522DDD0">
			<name>10+700</name>
			<styleUrl>#__managed_style_01623E935E414523055B</styleUrl>
			<Point>
				<coordinates>73.9480018,18.54535568,0</coordinates>
			</Point>
		</Placemark>
		<Placemark id="651BEA42BC6414522DDD0">
			<name>10+800</name>
			<styleUrl>#__managed_style_01623E935E414523055B</styleUrl>
			<Point>
				<coordinates>73.94894847,18.54539033,0</coordinates>
			</Point>
		</Placemark>
		<Placemark id="66DC2EA46F4414522DDD0">
			<name>10+900</name>
			<styleUrl>#__managed_style_01623E935E414523055B</styleUrl>
			<Point>
				<coordinates>73.94989563999999,18.54541177,0</coordinates>
			</Point>
		</Placemark>
		<Placemark id="08E5CCA33D414522DDD1">
			<name>11+000</name>
			<styleUrl>#__managed_style_01623E935E414523055B</styleUrl>
			<Point>
				<coordinates>73.95084156,18.54546089,0</coordinates>
			</Point>
		</Placemark>
		<Placemark id="1AC2E6BB36414522DDD1">
			<name>11+100</name>
			<styleUrl>#__managed_style_01623E935E414523055B</styleUrl>
			<Point>
				<coordinates>73.95178291000001,18.545562,0</coordinates>
			</Point>
		</Placemark>
		<Placemark id="2BD6C48104414522DDD1">
			<name>11+200</name>
			<styleUrl>#__managed_style_01623E935E414523055B</styleUrl>
			<Point>
				<coordinates>73.95271855999999,18.54570385,0</coordinates>
			</Point>
		</Placemark>
		<Placemark id="397F08A023414522DDD1">
			<name>11+300</name>
			<styleUrl>#__managed_style_01623E935E414523055B</styleUrl>
			<Point>
				<coordinates>73.95365160999999,18.5458607,0</coordinates>
			</Point>
		</Placemark>
		<Placemark id="4204F4AE62414522DDD1">
			<name>11+400</name>
			<styleUrl>#__managed_style_01623E935E414523055B</styleUrl>
			<Point>
				<coordinates>73.95458374,18.54602251,0</coordinates>
			</Point>
		</Placemark>
		<Placemark id="5E9C0FDE50414522DDD1">
			<name>11+500</name>
			<styleUrl>#__managed_style_01623E935E414523055B</styleUrl>
			<Point>
				<coordinates>73.95551508,18.54618836,0</coordinates>
			</Point>
		</Placemark>
		<Placemark id="6FE95B0E87414522DDD1">
			<name>11+600</name>
			<styleUrl>#__managed_style_01623E935E414523055B</styleUrl>
			<Point>
				<coordinates>73.95644763999999,18.5463478,0</coordinates>
			</Point>
		</Placemark>
		<Placemark id="737110FC58414522DDD1">
			<name>11+700</name>
			<styleUrl>#__managed_style_01623E935E414523055B</styleUrl>
			<Point>
				<coordinates>73.95738540000001,18.54647583,0</coordinates>
			</Point>
		</Placemark>
		<Placemark id="80CC1B8333414522DDD1">
			<name>11+800</name>
			<styleUrl>#__managed_style_01623E935E414523055B</styleUrl>
			<Point>
				<coordinates>73.95833062,18.54653022,0</coordinates>
			</Point>
		</Placemark>
		<Placemark id="9CF7F410DB414522DDD1">
			<name>11+900</name>
			<styleUrl>#__managed_style_01623E935E414523055B</styleUrl>
			<Point>
				<coordinates>73.95927381,18.54645729,0</coordinates>
			</Point>
		</Placemark>
		<Placemark id="A53C25E28A414522DDD1">
			<name>12+000</name>
			<styleUrl>#__managed_style_01623E935E414523055B</styleUrl>
			<Point>
				<coordinates>73.9601881,18.54622533,0</coordinates>
			</Point>
		</Placemark>
		<Placemark id="B4383F641C414522DDD1">
			<name>12+100</name>
			<styleUrl>#__managed_style_01623E935E414523055B</styleUrl>
			<Point>
				<coordinates>73.96105274,18.54585751,0</coordinates>
			</Point>
		</Placemark>
		<Placemark id="C74EDBEE32414522DDD1">
			<name>12+200</name>
			<styleUrl>#__managed_style_01623E935E414523055B</styleUrl>
			<Point>
				<coordinates>73.96187897,18.54541549,0</coordinates>
			</Point>
		</Placemark>
		<Placemark id="DC582DC155414522DDD1">
			<name>12+300</name>
			<styleUrl>#__managed_style_01623E935E414523055B</styleUrl>
			<Point>
				<coordinates>73.96269617,18.54495825,0</coordinates>
			</Point>
		</Placemark>
		<Placemark id="E4E6D0196B414522DDD1">
			<name>12+400</name>
			<styleUrl>#__managed_style_01623E935E414523055B</styleUrl>
			<Point>
				<coordinates>73.96352738,18.54452476,0</coordinates>
			</Point>
		</Placemark>
		<Placemark id="F7327E704E414522DDD1">
			<name>12+500</name>
			<styleUrl>#__managed_style_01623E935E414523055B</styleUrl>
			<Point>
				<coordinates>73.96438404,18.54413922,0</coordinates>
			</Point>
		</Placemark>
		<Placemark id="100861F74D9414522DDD1">
			<name>12+600</name>
			<styleUrl>#__managed_style_01623E935E414523055B</styleUrl>
			<Point>
				<coordinates>73.96526804,18.54381473,0</coordinates>
			</Point>
		</Placemark>
		<Placemark id="116F7788DD2414522DDD1">
			<name>12+700</name>
			<styleUrl>#__managed_style_01623E935E414523055B</styleUrl>
			<Point>
				<coordinates>73.9661728,18.54354701,0</coordinates>
			</Point>
		</Placemark>
		<Placemark id="129137C2644414522DDD1">
			<name>12+800</name>
			<styleUrl>#__managed_style_01623E935E414523055B</styleUrl>
			<Point>
				<coordinates>73.96708864999999,18.5433158,0</coordinates>
			</Point>
		</Placemark>
		<Placemark id="13CE985BC84414522DDD1">
			<name>12+900</name>
			<styleUrl>#__managed_style_01623E935E414523055B</styleUrl>
			<Point>
				<coordinates>73.96800761,18.54309596,0</coordinates>
			</Point>
		</Placemark>
		<Placemark id="145F996708C414522DDD1">
			<name>13+000</name>
			<styleUrl>#__managed_style_01623E935E414523055B</styleUrl>
			<Point>
				<coordinates>73.96892296,18.54286293,0</coordinates>
			</Point>
		</Placemark>
		<Placemark id="15F24C6DEDC414522DDD1">
			<name>13+100</name>
			<styleUrl>#__managed_style_01623E935E414523055B</styleUrl>
			<Point>
				<coordinates>73.96982743,18.54259425,0</coordinates>
			</Point>
		</Placemark>
		<Placemark id="16A509C8DEF414522DDD1">
			<name>13+200</name>
			<styleUrl>#__managed_style_01623E935E414523055B</styleUrl>
			<Point>
				<coordinates>73.97071192,18.542271,0</coordinates>
			</Point>
		</Placemark>
		<Placemark id="172A8A912C1414522DDD1">
			<name>13+300</name>
			<styleUrl>#__managed_style_01623E935E414523055B</styleUrl>
			<Point>
				<coordinates>73.9715604,18.54187009,0</coordinates>
			</Point>
		</Placemark>
		<Placemark id="18135208E18414522DDD1">
			<name>13+400</name>
			<styleUrl>#__managed_style_01623E935E414523055B</styleUrl>
			<Point>
				<coordinates>73.97234355000001,18.54136314,0</coordinates>
			</Point>
		</Placemark>
		<Placemark id="19B79FAE1FA414522DDD1">
			<name>13+500</name>
			<styleUrl>#__managed_style_01623E935E414523055B</styleUrl>
			<Point>
				<coordinates>73.97303413,18.54074575,0</coordinates>
			</Point>
		</Placemark>
		<Placemark id="1A347CC02F4414522DDD1">
			<name>13+600</name>
			<styleUrl>#__managed_style_01623E935E414523055B</styleUrl>
			<Point>
				<coordinates>73.97362504,18.54004027,0</coordinates>
			</Point>
		</Placemark>
		<Placemark id="1BA39740E67414522DDD1">
			<name>13+700</name>
			<styleUrl>#__managed_style_01623E935E414523055B</styleUrl>
			<Point>
				<coordinates>73.97411516,18.53926759,0</coordinates>
			</Point>
		</Placemark>
		<Placemark id="1C986D6E42C414522DDD1">
			<name>13+800</name>
			<styleUrl>#__managed_style_01623E935E414523055B</styleUrl>
			<Point>
				<coordinates>73.9745116,18.53844724,0</coordinates>
			</Point>
		</Placemark>
		<Placemark id="1DF5F31D3EB414522DDD1">
			<name>13+900</name>
			<styleUrl>#__managed_style_01623E935E414523055B</styleUrl>
			<Point>
				<coordinates>73.97484455,18.53760129,0</coordinates>
			</Point>
		</Placemark>
		<Placemark id="1EAB833C220414522DDD1">
			<name>14+000</name>
			<styleUrl>#__managed_style_01623E935E414523055B</styleUrl>
			<Point>
				<coordinates>73.97516014,18.53674922,0</coordinates>
			</Point>
		</Placemark>
		<Placemark id="1F6A2766DE5414522DDD1">
			<name>14+100</name>
			<styleUrl>#__managed_style_01623E935E414523055B</styleUrl>
			<Point>
				<coordinates>73.97549862,18.53590526,0</coordinates>
			</Point>
		</Placemark>
		<Placemark id="20EE6A3E9BC414522DDD1">
			<name>14+200</name>
			<styleUrl>#__managed_style_01623E935E414523055B</styleUrl>
			<Point>
				<coordinates>73.97587878,18.53507763,0</coordinates>
			</Point>
		</Placemark>
		<Placemark id="21C17EFDA93414522DDD1">
			<name>14+300</name>
			<styleUrl>#__managed_style_01623E935E414523055B</styleUrl>
			<Point>
				<coordinates>73.97630411999999,18.53427028,0</coordinates>
			</Point>
		</Placemark>
		<Placemark id="22669CAD4A0414522DDD1">
			<name>14+400</name>
			<styleUrl>#__managed_style_01623E935E414523055B</styleUrl>
			<Point>
				<coordinates>73.97678182999999,18.53349014,0</coordinates>
			</Point>
		</Placemark>
		<Placemark id="23671D52FF6414522DDD1">
			<name>14+500</name>
			<styleUrl>#__managed_style_01623E935E414523055B</styleUrl>
			<Point>
				<coordinates>73.97732587,18.53275072,0</coordinates>
			</Point>
		</Placemark>
		<Placemark id="24E1B9EF726414522DDD1">
			<name>14+600</name>
			<styleUrl>#__managed_style_01623E935E414523055B</styleUrl>
			<Point>
				<coordinates>73.97793892999999,18.53206216,0</coordinates>
			</Point>
		</Placemark>
		<Placemark id="255740570D5414522DDD1">
			<name>14+700</name>
			<styleUrl>#__managed_style_01623E935E414523055B</styleUrl>
			<Point>
				<coordinates>73.97860787,18.53142252,0</coordinates>
			</Point>
		</Placemark>
		<Placemark id="269511939F5414522DDD1">
			<name>14+800</name>
			<styleUrl>#__managed_style_01623E935E414523055B</styleUrl>
			<Point>
				<coordinates>73.97931618,18.53082256,0</coordinates>
			</Point>
		</Placemark>
		<Placemark id="277DEB1AC4D414522DDD1">
			<name>14+900</name>
			<styleUrl>#__managed_style_01623E935E414523055B</styleUrl>
			<Point>
				<coordinates>73.98005127,18.53025259,0</coordinates>
			</Point>
		</Placemark>
		<Placemark id="2853C862E3D414522DDD1">
			<name>15+000</name>
			<styleUrl>#__managed_style_01623E935E414523055B</styleUrl>
			<Point>
				<coordinates>73.98080577,18.52970615,0</coordinates>
			</Point>
		</Placemark>
		<Placemark id="298DBE9394A414522DDD1">
			<name>15+100</name>
			<styleUrl>#__managed_style_01623E935E414523055B</styleUrl>
			<Point>
				<coordinates>73.9815766,18.52918088,0</coordinates>
			</Point>
		</Placemark>
		<Placemark id="2A8444D3FA5414522DDD1">
			<name>15+200</name>
			<styleUrl>#__managed_style_01623E935E414523055B</styleUrl>
			<Point>
				<coordinates>73.98236217,18.52867583,0</coordinates>
			</Point>
		</Placemark>
		<Placemark id="2B515FCAF3D414522DDD1">
			<name>15+300</name>
			<styleUrl>#__managed_style_01623E935E414523055B</styleUrl>
			<Point>
				<coordinates>73.98315859,18.52818649,0</coordinates>
			</Point>
		</Placemark>
		<Placemark id="2C12F2A865A414522DDD1">
			<name>15+400</name>
			<styleUrl>#__managed_style_01623E935E414523055B</styleUrl>
			<Point>
				<coordinates>73.98396062,18.52770553,0</coordinates>
			</Point>
		</Placemark>
		<Placemark id="2D37463A5A1414522DDD1">
			<name>15+500</name>
			<styleUrl>#__managed_style_01623E935E414523055B</styleUrl>
			<Point>
				<coordinates>73.98476749,18.52723201,0</coordinates>
			</Point>
		</Placemark>
		<Placemark id="2E0AF5F0803414522DDD1">
			<name>15+600</name>
			<styleUrl>#__managed_style_01623E935E414523055B</styleUrl>
			<Point>
				<coordinates>73.98558104,18.52676902,0</coordinates>
			</Point>
		</Placemark>
		<Placemark id="2F5982777F8414522DDD1">
			<name>15+700</name>
			<styleUrl>#__managed_style_01623E935E414523055B</styleUrl>
			<Point>
				<coordinates>73.98639676000001,18.5263095,0</coordinates>
			</Point>
		</Placemark>
		<Placemark id="30DD3A8C0D6414522DDD1">
			<name>15+800</name>
			<styleUrl>#__managed_style_01623E935E414523055B</styleUrl>
			<Point>
				<coordinates>73.98720357000001,18.52583594,0</coordinates>
			</Point>
		</Placemark>
		<Placemark id="314D783A70F414522DDD1">
			<name>15+900</name>
			<styleUrl>#__managed_style_01623E935E414523055B</styleUrl>
			<Point>
				<coordinates>73.98799267,18.52533602,0</coordinates>
			</Point>
		</Placemark>
		<Placemark id="32CFD4CBEE6414522DDD1">
			<name>16+000</name>
			<styleUrl>#__managed_style_01623E935E414523055B</styleUrl>
			<Point>
				<coordinates>73.9887621,18.52480892,0</coordinates>
			</Point>
		</Placemark>
		<Placemark id="333087A366A414522DDD1">
			<name>16+100</name>
			<styleUrl>#__managed_style_01623E935E414523055B</styleUrl>
			<Point>
				<coordinates>73.98951025,18.52425467,0</coordinates>
			</Point>
		</Placemark>
		<Placemark id="344CE2BA33A414522DDD1">
			<name>16+200</name>
			<styleUrl>#__managed_style_01623E935E414523055B</styleUrl>
			<Point>
				<coordinates>73.99023389,18.52367156,0</coordinates>
			</Point>
		</Placemark>
		<Placemark id="358162DF0B2414522DDD1">
			<name>16+300</name>
			<styleUrl>#__managed_style_01623E935E414523055B</styleUrl>
			<Point>
				<coordinates>73.99093694,18.5230659,0</coordinates>
			</Point>
		</Placemark>
		<Placemark id="36EA6234027414522DDD1">
			<name>16+400</name>
			<styleUrl>#__managed_style_01623E935E414523055B</styleUrl>
			<Point>
				<coordinates>73.99163603,18.52245607,0</coordinates>
			</Point>
		</Placemark>
	</Folder>
</Document>
</kml>
