<?xml version="1.0" encoding="UTF-8"?>
<kml xmlns="http://www.opengis.net/kml/2.2" xmlns:gx="http://www.google.com/kml/ext/2.2">
    <Document id="1104">
        <name>1786697404249_NDCI_Class_2026-05-01_2026-05-31</name>
        <Folder id="1105">
            <Style id="1112">
                <LineStyle id="1114">
                    <color>ff0000FF</color>
                    <colorMode>normal</colorMode>
                    <width>1.5</width>
                </LineStyle>
                <PolyStyle id="1113">
                    <color>ff0000FF</color>
                    <colorMode>normal</colorMode>
                    <fill>1</fill>
                    <outline>1</outline>
                </PolyStyle>
            </Style>
            <Style id="1121">
                <LineStyle id="1123">
                    <color>ff0000FF</color>
                    <colorMode>normal</colorMode>
                    <width>1.5</width>
                </LineStyle>
                <PolyStyle id="1122">
                    <color>ff0000FF</color>
                    <colorMode>normal</colorMode>
                    <fill>1</fill>
                    <outline>1</outline>
                </PolyStyle>
            </Style>
            <Style id="1130">
                <LineStyle id="1132">
                    <color>ff0000FF</color>
                    <colorMode>normal</colorMode>
                    <width>1.5</width>
                </LineStyle>
                <PolyStyle id="1131">
                    <color>ff0000FF</color>
                    <colorMode>normal</colorMode>
                    <fill>1</fill>
                    <outline>1</outline>
                </PolyStyle>
            </Style>
            <Style id="1139">
                <LineStyle id="1141">
                    <color>ff0000FF</color>
                    <colorMode>normal</colorMode>
                    <width>1.5</width>
                </LineStyle>
                <PolyStyle id="1140">
                    <color>ff0000FF</color>
                    <colorMode>normal</colorMode>
                    <fill>1</fill>
                    <outline>1</outline>
                </PolyStyle>
            </Style>
            <Style id="1148">
                <LineStyle id="1150">
                    <color>ff0000FF</color>
                    <colorMode>normal</colorMode>
                    <width>1.5</width>
                </LineStyle>
                <PolyStyle id="1149">
                    <color>ff0000FF</color>
                    <colorMode>normal</colorMode>
                    <fill>1</fill>
                    <outline>1</outline>
                </PolyStyle>
            </Style>
            <name>Class 1</name>
            <Placemark id="1107">
                <name>Class 1 - 1</name>
                <styleUrl>#1112</styleUrl>
                <Polygon id="1106">
                    <outerBoundaryIs>
                        <LinearRing id="1110">
                            <coordinates>73.90754252800747,18.54095796964169,0.0 73.90754252800747,18.540688475056452,0.0 73.9078120225927,18.540688475056452,0.0 73.9078120225927,18.54095796964169,0.0 73.90754252800747,18.54095796964169,0.0</coordinates>
                        </LinearRing>
                    </outerBoundaryIs>
                </Polygon>
            </Placemark>
            <Placemark id="1116">
                <name>Class 1 - 2</name>
                <styleUrl>#1121</styleUrl>
                <Polygon id="1115">
                    <outerBoundaryIs>
                        <LinearRing id="1119">
                            <coordinates>73.8733167156825,18.540688475056452,0.0 73.8733167156825,18.540418980471216,0.0 73.87358621026775,18.540418980471216,0.0 73.87358621026775,18.540688475056452,0.0 73.8733167156825,18.540688475056452,0.0</coordinates>
                        </LinearRing>
                    </outerBoundaryIs>
                </Polygon>
            </Placemark>
            <Placemark id="1125">
                <name>Class 1 - 3</name>
                <styleUrl>#1130</styleUrl>
                <Polygon id="1124">
                    <outerBoundaryIs>
                        <LinearRing id="1128">
                            <coordinates>73.8725082319268,18.540418980471216,0.0 73.8725082319268,18.54014948588598,0.0 73.87277772651204,18.54014948588598,0.0 73.87277772651204,18.540418980471216,0.0 73.8725082319268,18.540418980471216,0.0</coordinates>
                        </LinearRing>
                    </outerBoundaryIs>
                </Polygon>
            </Placemark>
            <Placemark id="1134">
                <name>Class 1 - 4</name>
                <styleUrl>#1139</styleUrl>
                <Polygon id="1133">
                    <outerBoundaryIs>
                        <LinearRing id="1137">
                            <coordinates>73.86253693227307,18.533681615840322,0.0 73.86253693227307,18.533412121255086,0.0 73.86280642685831,18.533412121255086,0.0 73.86280642685831,18.533681615840322,0.0 73.86253693227307,18.533681615840322,0.0</coordinates>
                        </LinearRing>
                    </outerBoundaryIs>
                </Polygon>
            </Placemark>
            <Placemark id="1143">
                <name>Class 1 - 5</name>
                <styleUrl>#1148</styleUrl>
                <Polygon id="1142">
                    <outerBoundaryIs>
                        <LinearRing id="1146">
                            <coordinates>73.86065047017642,18.53098666998796,0.0 73.86065047017642,18.530717175402728,0.0 73.86091996476166,18.530717175402728,0.0 73.86091996476166,18.53098666998796,0.0 73.86065047017642,18.53098666998796,0.0</coordinates>
                        </LinearRing>
                    </outerBoundaryIs>
                </Polygon>
            </Placemark>
        </Folder>
        <Folder id="1151">
            <Style id="1158">
                <LineStyle id="1160">
                    <color>ff00A5FF</color>
                    <colorMode>normal</colorMode>
                    <width>1.5</width>
                </LineStyle>
                <PolyStyle id="1159">
                    <color>ff00A5FF</color>
                    <colorMode>normal</colorMode>
                    <fill>1</fill>
                    <outline>1</outline>
                </PolyStyle>
            </Style>
            <Style id="1167">
                <LineStyle id="1169">
                    <color>ff00A5FF</color>
                    <colorMode>normal</colorMode>
                    <width>1.5</width>
                </LineStyle>
                <PolyStyle id="1168">
                    <color>ff00A5FF</color>
                    <colorMode>normal</colorMode>
                    <fill>1</fill>
                    <outline>1</outline>
                </PolyStyle>
            </Style>
            <Style id="1176">
                <LineStyle id="1178">
                    <color>ff00A5FF</color>
                    <colorMode>normal</colorMode>
                    <width>1.5</width>
                </LineStyle>
                <PolyStyle id="1177">
                    <color>ff00A5FF</color>
                    <colorMode>normal</colorMode>
                    <fill>1</fill>
                    <outline>1</outline>
                </PolyStyle>
            </Style>
            <Style id="1185">
                <LineStyle id="1187">
                    <color>ff00A5FF</color>
                    <colorMode>normal</colorMode>
                    <width>1.5</width>
                </LineStyle>
                <PolyStyle id="1186">
                    <color>ff00A5FF</color>
                    <colorMode>normal</colorMode>
                    <fill>1</fill>
                    <outline>1</outline>
                </PolyStyle>
            </Style>
            <Style id="1194">
                <LineStyle id="1196">
                    <color>ff00A5FF</color>
                    <colorMode>normal</colorMode>
                    <width>1.5</width>
                </LineStyle>
                <PolyStyle id="1195">
                    <color>ff00A5FF</color>
                    <colorMode>normal</colorMode>
                    <fill>1</fill>
                    <outline>1</outline>
                </PolyStyle>
            </Style>
            <Style id="1203">
                <LineStyle id="1205">
                    <color>ff00A5FF</color>
                    <colorMode>normal</colorMode>
                    <width>1.5</width>
                </LineStyle>
                <PolyStyle id="1204">
                    <color>ff00A5FF</color>
                    <colorMode>normal</colorMode>
                    <fill>1</fill>
                    <outline>1</outline>
                </PolyStyle>
            </Style>
            <Style id="1212">
                <LineStyle id="1214">
                    <color>ff00A5FF</color>
                    <colorMode>normal</colorMode>
                    <width>1.5</width>
                </LineStyle>
                <PolyStyle id="1213">
                    <color>ff00A5FF</color>
                    <colorMode>normal</colorMode>
                    <fill>1</fill>
                    <outline>1</outline>
                </PolyStyle>
            </Style>
            <Style id="1221">
                <LineStyle id="1223">
                    <color>ff00A5FF</color>
                    <colorMode>normal</colorMode>
                    <width>1.5</width>
                </LineStyle>
                <PolyStyle id="1222">
                    <color>ff00A5FF</color>
                    <colorMode>normal</colorMode>
                    <fill>1</fill>
                    <outline>1</outline>
                </PolyStyle>
            </Style>
            <Style id="1230">
                <LineStyle id="1232">
                    <color>ff00A5FF</color>
                    <colorMode>normal</colorMode>
                    <width>1.5</width>
                </LineStyle>
                <PolyStyle id="1231">
                    <color>ff00A5FF</color>
                    <colorMode>normal</colorMode>
                    <fill>1</fill>
                    <outline>1</outline>
                </PolyStyle>
            </Style>
            <Style id="1239">
                <LineStyle id="1241">
                    <color>ff00A5FF</color>
                    <colorMode>normal</colorMode>
                    <width>1.5</width>
                </LineStyle>
                <PolyStyle id="1240">
                    <color>ff00A5FF</color>
                    <colorMode>normal</colorMode>
                    <fill>1</fill>
                    <outline>1</outline>
                </PolyStyle>
            </Style>
            <Style id="1248">
                <LineStyle id="1250">
                    <color>ff00A5FF</color>
                    <colorMode>normal</colorMode>
                    <width>1.5</width>
                </LineStyle>
                <PolyStyle id="1249">
                    <color>ff00A5FF</color>
                    <colorMode>normal</colorMode>
                    <fill>1</fill>
                    <outline>1</outline>
                </PolyStyle>
            </Style>
            <Style id="1257">
                <LineStyle id="1259">
                    <color>ff00A5FF</color>
                    <colorMode>normal</colorMode>
                    <width>1.5</width>
                </LineStyle>
                <PolyStyle id="1258">
                    <color>ff00A5FF</color>
                    <colorMode>normal</colorMode>
                    <fill>1</fill>
                    <outline>1</outline>
                </PolyStyle>
            </Style>
            <Style id="1266">
                <LineStyle id="1268">
                    <color>ff00A5FF</color>
                    <colorMode>normal</colorMode>
                    <width>1.5</width>
                </LineStyle>
                <PolyStyle id="1267">
                    <color>ff00A5FF</color>
                    <colorMode>normal</colorMode>
                    <fill>1</fill>
                    <outline>1</outline>
                </PolyStyle>
            </Style>
            <Style id="1275">
                <LineStyle id="1277">
                    <color>ff00A5FF</color>
                    <colorMode>normal</colorMode>
                    <width>1.5</width>
                </LineStyle>
                <PolyStyle id="1276">
                    <color>ff00A5FF</color>
                    <colorMode>normal</colorMode>
                    <fill>1</fill>
                    <outline>1</outline>
                </PolyStyle>
            </Style>
            <Style id="1284">
                <LineStyle id="1286">
                    <color>ff00A5FF</color>
                    <colorMode>normal</colorMode>
                    <width>1.5</width>
                </LineStyle>
                <PolyStyle id="1285">
                    <color>ff00A5FF</color>
                    <colorMode>normal</colorMode>
                    <fill>1</fill>
                    <outline>1</outline>
                </PolyStyle>
            </Style>
            <Style id="1293">
                <LineStyle id="1295">
                    <color>ff00A5FF</color>
                    <colorMode>normal</colorMode>
                    <width>1.5</width>
                </LineStyle>
                <PolyStyle id="1294">
                    <color>ff00A5FF</color>
                    <colorMode>normal</colorMode>
                    <fill>1</fill>
                    <outline>1</outline>
                </PolyStyle>
            </Style>
            <Style id="1302">
                <LineStyle id="1304">
                    <color>ff00A5FF</color>
                    <colorMode>normal</colorMode>
                    <width>1.5</width>
                </LineStyle>
                <PolyStyle id="1303">
                    <color>ff00A5FF</color>
                    <colorMode>normal</colorMode>
                    <fill>1</fill>
                    <outline>1</outline>
                </PolyStyle>
            </Style>
            <Style id="1311">
                <LineStyle id="1313">
                    <color>ff00A5FF</color>
                    <colorMode>normal</colorMode>
                    <width>1.5</width>
                </LineStyle>
                <PolyStyle id="1312">
                    <color>ff00A5FF</color>
                    <colorMode>normal</colorMode>
                    <fill>1</fill>
                    <outline>1</outline>
                </PolyStyle>
            </Style>
            <Style id="1320">
                <LineStyle id="1322">
                    <color>ff00A5FF</color>
                    <colorMode>normal</colorMode>
                    <width>1.5</width>
                </LineStyle>
                <PolyStyle id="1321">
                    <color>ff00A5FF</color>
                    <colorMode>normal</colorMode>
                    <fill>1</fill>
                    <outline>1</outline>
                </PolyStyle>
            </Style>
            <name>Class 2</name>
            <Placemark id="1153">
                <name>Class 2 - 1</name>
                <styleUrl>#1158</styleUrl>
                <Polygon id="1152">
                    <outerBoundaryIs>
                        <LinearRing id="1156">
                            <coordinates>73.89029487455237,18.54419190466452,0.0 73.89029487455237,18.543922410079283,0.0 73.8905643691376,18.543922410079283,0.0 73.8905643691376,18.54419190466452,0.0 73.89029487455237,18.54419190466452,0.0</coordinates>
                        </LinearRing>
                    </outerBoundaryIs>
                </Polygon>
            </Placemark>
            <Placemark id="1162">
                <name>Class 2 - 2</name>
                <styleUrl>#1167</styleUrl>
                <Polygon id="1161">
                    <outerBoundaryIs>
                        <LinearRing id="1165">
                            <coordinates>73.94958368330425,18.54607836676117,0.0 73.94958368330425,18.545808872175936,0.0 73.94581075911096,18.545808872175936,0.0 73.94581075911096,18.5455393775907,0.0 73.94527176994048,18.5455393775907,0.0 73.94527176994048,18.545269883005464,0.0 73.94473278077001,18.545269883005464,0.0 73.94473278077001,18.545000388420227,0.0 73.94446328618477,18.545000388420227,0.0 73.94446328618477,18.54473089383499,0.0 73.94419379159955,18.54473089383499,0.0 73.94419379159955,18.54419190466452,0.0 73.9439242970143,18.54419190466452,0.0 73.9439242970143,18.543922410079283,0.0 73.94500227535525,18.543922410079283,0.0 73.94500227535525,18.54419190466452,0.0 73.94554126452572,18.54419190466452,0.0 73.94554126452572,18.544461399249755,0.0 73.94581075911096,18.544461399249755,0.0 73.94581075911096,18.54473089383499,0.0 73.94661924286666,18.54473089383499,0.0 73.94661924286666,18.545000388420227,0.0 73.9468887374519,18.545000388420227,0.0 73.9468887374519,18.54473089383499,0.0 73.94742772662237,18.54473089383499,0.0 73.94742772662237,18.545000388420227,0.0 73.9476972212076,18.545000388420227,0.0 73.9476972212076,18.54473089383499,0.0 73.95093115623044,18.54473089383499,0.0 73.95093115623044,18.545269883005464,0.0 73.95120065081566,18.545269883005464,0.0 73.95120065081566,18.5455393775907,0.0 73.9514701454009,18.5455393775907,0.0 73.9514701454009,18.545808872175936,0.0 73.95120065081566,18.545808872175936,0.0 73.95120065081566,18.54607836676117,0.0 73.94958368330425,18.54607836676117,0.0</coordinates>
                        </LinearRing>
                    </outerBoundaryIs>
                </Polygon>
            </Placemark>
            <Placemark id="1171">
                <name>Class 2 - 3</name>
                <styleUrl>#1176</styleUrl>
                <Polygon id="1170">
                    <outerBoundaryIs>
                        <LinearRing id="1174">
                            <coordinates>73.88867790704096,18.54419190466452,0.0 73.88867790704096,18.543652915494047,0.0 73.88840841245572,18.543652915494047,0.0 73.88840841245572,18.54338342090881,0.0 73.8897558853819,18.54338342090881,0.0 73.8897558853819,18.54419190466452,0.0 73.88867790704096,18.54419190466452,0.0</coordinates>
                        </LinearRing>
                    </outerBoundaryIs>
                </Polygon>
            </Placemark>
            <Placemark id="1180">
                <name>Class 2 - 4</name>
                <styleUrl>#1185</styleUrl>
                <Polygon id="1179">
                    <outerBoundaryIs>
                        <LinearRing id="1183">
                            <coordinates>73.88598296118859,18.54419190466452,0.0 73.88598296118859,18.543652915494047,0.0 73.88571346660336,18.543652915494047,0.0 73.88571346660336,18.543922410079283,0.0 73.88544397201812,18.543922410079283,0.0 73.88544397201812,18.543652915494047,0.0 73.88517447743288,18.543652915494047,0.0 73.88517447743288,18.54338342090881,0.0 73.88571346660336,18.54338342090881,0.0 73.88571346660336,18.543113926323574,0.0 73.88733043411477,18.543113926323574,0.0 73.88733043411477,18.54338342090881,0.0 73.88759992870001,18.54338342090881,0.0 73.88759992870001,18.543652915494047,0.0 73.88786942328525,18.543652915494047,0.0 73.88786942328525,18.543922410079283,0.0 73.88759992870001,18.543922410079283,0.0 73.88759992870001,18.54419190466452,0.0 73.88598296118859,18.54419190466452,0.0</coordinates>
                        </LinearRing>
                    </outerBoundaryIs>
                </Polygon>
            </Placemark>
            <Placemark id="1189">
                <name>Class 2 - 5</name>
                <styleUrl>#1194</styleUrl>
                <Polygon id="1188">
                    <outerBoundaryIs>
                        <LinearRing id="1192">
                            <coordinates>73.89137285289331,18.54338342090881,0.0 73.89137285289331,18.543113926323574,0.0 73.89164234747855,18.543113926323574,0.0 73.89164234747855,18.54338342090881,0.0 73.89137285289331,18.54338342090881,0.0</coordinates>
                        </LinearRing>
                    </outerBoundaryIs>
                </Polygon>
            </Placemark>
            <Placemark id="1198">
                <name>Class 2 - 6</name>
                <styleUrl>#1203</styleUrl>
                <Polygon id="1197">
                    <outerBoundaryIs>
                        <LinearRing id="1201">
                            <coordinates>73.89218133664902,18.543922410079283,0.0 73.89218133664902,18.543113926323574,0.0 73.89245083123426,18.543113926323574,0.0 73.89245083123426,18.54284443173834,0.0 73.89379830416044,18.54284443173834,0.0 73.89379830416044,18.542574937153105,0.0 73.89460678791615,18.542574937153105,0.0 73.89460678791615,18.54284443173834,0.0 73.89487628250137,18.54284443173834,0.0 73.89487628250137,18.543113926323574,0.0 73.89460678791615,18.543113926323574,0.0 73.89460678791615,18.54338342090881,0.0 73.89379830416044,18.54338342090881,0.0 73.89379830416044,18.543652915494047,0.0 73.89325931498996,18.543652915494047,0.0 73.89325931498996,18.543922410079283,0.0 73.89218133664902,18.543922410079283,0.0</coordinates>
                        </LinearRing>
                    </outerBoundaryIs>
                </Polygon>
            </Placemark>
            <Placemark id="1207">
                <name>Class 2 - 7</name>
                <styleUrl>#1212</styleUrl>
                <Polygon id="1206">
                    <outerBoundaryIs>
                        <LinearRing id="1210">
                            <coordinates>73.8964932500128,18.54284443173834,0.0 73.8964932500128,18.542574937153105,0.0 73.89622375542756,18.542574937153105,0.0 73.89622375542756,18.542035947982633,0.0 73.8973017337685,18.542035947982633,0.0 73.8973017337685,18.541766453397397,0.0 73.89757122835374,18.541766453397397,0.0 73.89757122835374,18.54149695881216,0.0 73.8981102175242,18.54149695881216,0.0 73.8981102175242,18.541766453397397,0.0 73.89864920669469,18.541766453397397,0.0 73.89864920669469,18.542035947982633,0.0 73.89837971210945,18.542035947982633,0.0 73.89837971210945,18.54230544256787,0.0 73.89757122835374,18.54230544256787,0.0 73.89757122835374,18.542574937153105,0.0 73.89703223918326,18.542574937153105,0.0 73.89703223918326,18.54284443173834,0.0 73.8964932500128,18.54284443173834,0.0</coordinates>
                        </LinearRing>
                    </outerBoundaryIs>
                </Polygon>
            </Placemark>
            <Placemark id="1216">
                <name>Class 2 - 8</name>
                <styleUrl>#1221</styleUrl>
                <Polygon id="1215">
                    <outerBoundaryIs>
                        <LinearRing id="1219">
                            <coordinates>73.89999667962086,18.541766453397397,0.0 73.89999667962086,18.541227464226925,0.0 73.90134415254704,18.541227464226925,0.0 73.90134415254704,18.54095796964169,0.0 73.90376960381415,18.54095796964169,0.0 73.90376960381415,18.541227464226925,0.0 73.9040390983994,18.541227464226925,0.0 73.9040390983994,18.54149695881216,0.0 73.90242213088798,18.54149695881216,0.0 73.90242213088798,18.541766453397397,0.0 73.89999667962086,18.541766453397397,0.0</coordinates>
                        </LinearRing>
                    </outerBoundaryIs>
                </Polygon>
            </Placemark>
            <Placemark id="1225">
                <name>Class 2 - 9</name>
                <styleUrl>#1230</styleUrl>
                <Polygon id="1224">
                    <outerBoundaryIs>
                        <LinearRing id="1228">
                            <coordinates>73.90511707674034,18.541766453397397,0.0 73.90511707674034,18.54149695881216,0.0 73.9048475821551,18.54149695881216,0.0 73.9048475821551,18.541227464226925,0.0 73.90457808756987,18.541227464226925,0.0 73.90457808756987,18.54095796964169,0.0 73.90619505508128,18.54095796964169,0.0 73.90619505508128,18.540688475056452,0.0 73.90754252800747,18.540688475056452,0.0 73.90754252800747,18.54095796964169,0.0 73.9078120225927,18.54095796964169,0.0 73.9078120225927,18.540688475056452,0.0 73.90915949551888,18.540688475056452,0.0 73.90915949551888,18.540418980471216,0.0 73.90942899010412,18.540418980471216,0.0 73.90942899010412,18.540688475056452,0.0 73.90969848468934,18.540688475056452,0.0 73.90969848468934,18.540418980471216,0.0 73.90996797927458,18.540418980471216,0.0 73.90996797927458,18.54095796964169,0.0 73.90969848468934,18.54095796964169,0.0 73.90969848468934,18.541227464226925,0.0 73.90673404425175,18.541227464226925,0.0 73.90673404425175,18.54149695881216,0.0 73.90619505508128,18.54149695881216,0.0 73.90619505508128,18.541766453397397,0.0 73.90511707674034,18.541766453397397,0.0</coordinates>
                        </LinearRing>
                    </outerBoundaryIs>
                </Polygon>
            </Placemark>
            <Placemark id="1234">
                <name>Class 2 - 10</name>
                <styleUrl>#1239</styleUrl>
                <Polygon id="1233">
                    <outerBoundaryIs>
                        <LinearRing id="1237">
                            <coordinates>73.91077646303029,18.540418980471216,0.0 73.91077646303029,18.54014948588598,0.0 73.91104595761553,18.54014948588598,0.0 73.91104595761553,18.540418980471216,0.0 73.91077646303029,18.540418980471216,0.0</coordinates>
                        </LinearRing>
                    </outerBoundaryIs>
                </Polygon>
            </Placemark>
            <Placemark id="1243">
                <name>Class 2 - 11</name>
                <styleUrl>#1248</styleUrl>
                <Polygon id="1242">
                    <outerBoundaryIs>
                        <LinearRing id="1246">
                            <coordinates>73.91185444137123,18.540418980471216,0.0 73.91185444137123,18.539879991300747,0.0 73.91239343054171,18.539879991300747,0.0 73.91239343054171,18.53961049671551,0.0 73.91401039805312,18.53961049671551,0.0 73.91401039805312,18.539341002130275,0.0 73.91589686014977,18.539341002130275,0.0 73.91589686014977,18.539879991300747,0.0 73.91401039805312,18.539879991300747,0.0 73.91401039805312,18.54014948588598,0.0 73.91374090346788,18.54014948588598,0.0 73.91374090346788,18.540418980471216,0.0 73.91185444137123,18.540418980471216,0.0</coordinates>
                        </LinearRing>
                    </outerBoundaryIs>
                </Polygon>
            </Placemark>
            <Placemark id="1252">
                <name>Class 2 - 12</name>
                <styleUrl>#1257</styleUrl>
                <Polygon id="1251">
                    <outerBoundaryIs>
                        <LinearRing id="1255">
                            <coordinates>73.91697483849072,18.539341002130275,0.0 73.91697483849072,18.53907150754504,0.0 73.9175138276612,18.53907150754504,0.0 73.9175138276612,18.538802012959803,0.0 73.91993927892831,18.538802012959803,0.0 73.91993927892831,18.538532518374566,0.0 73.92101725726926,18.538532518374566,0.0 73.92101725726926,18.538802012959803,0.0 73.9212867518545,18.538802012959803,0.0 73.9212867518545,18.538532518374566,0.0 73.92182574102496,18.538532518374566,0.0 73.92182574102496,18.538802012959803,0.0 73.9220952356102,18.538802012959803,0.0 73.9220952356102,18.538532518374566,0.0 73.92317321395115,18.538532518374566,0.0 73.92317321395115,18.53826302378933,0.0 73.92479018146255,18.53826302378933,0.0 73.92479018146255,18.537993529204094,0.0 73.92613765438874,18.537993529204094,0.0 73.92613765438874,18.537724034618858,0.0 73.92721563272968,18.537724034618858,0.0 73.92721563272968,18.53745454003362,0.0 73.92802411648539,18.53745454003362,0.0 73.92802411648539,18.537185045448386,0.0 73.92856310565585,18.537185045448386,0.0 73.92856310565585,18.53691555086315,0.0 73.92991057858204,18.53691555086315,0.0 73.92991057858204,18.53637656169268,0.0 73.93152754609345,18.53637656169268,0.0 73.93152754609345,18.536107067107444,0.0 73.9326055244344,18.536107067107444,0.0 73.9326055244344,18.535837572522208,0.0 73.93368350277534,18.535837572522208,0.0 73.93368350277534,18.53691555086315,0.0 73.93098855692298,18.53691555086315,0.0 73.93098855692298,18.537185045448386,0.0 73.9304495677525,18.537185045448386,0.0 73.9304495677525,18.53745454003362,0.0 73.9296410839968,18.53745454003362,0.0 73.9296410839968,18.537724034618858,0.0 73.92937158941157,18.537724034618858,0.0 73.92937158941157,18.537993529204094,0.0 73.92856310565585,18.537993529204094,0.0 73.92856310565585,18.537724034618858,0.0 73.92829361107063,18.537724034618858,0.0 73.92829361107063,18.537993529204094,0.0 73.92802411648539,18.537993529204094,0.0 73.92802411648539,18.53826302378933,0.0 73.92721563272968,18.53826302378933,0.0 73.92721563272968,18.538532518374566,0.0 73.9266766435592,18.538532518374566,0.0 73.9266766435592,18.538802012959803,0.0 73.92479018146255,18.538802012959803,0.0 73.92479018146255,18.53907150754504,0.0 73.92398169770685,18.53907150754504,0.0 73.92398169770685,18.539341002130275,0.0 73.91697483849072,18.539341002130275,0.0</coordinates>
                        </LinearRing>
                    </outerBoundaryIs>
                </Polygon>
            </Placemark>
            <Placemark id="1261">
                <name>Class 2 - 13</name>
                <styleUrl>#1266</styleUrl>
                <Polygon id="1260">
                    <outerBoundaryIs>
                        <LinearRing id="1264">
                            <coordinates>73.88086256406912,18.543652915494047,0.0 73.88086256406912,18.54338342090881,0.0 73.8800540803134,18.54338342090881,0.0 73.8800540803134,18.543113926323574,0.0 73.87816761821675,18.543113926323574,0.0 73.87816761821675,18.54284443173834,0.0 73.87735913446105,18.54284443173834,0.0 73.87735913446105,18.542574937153105,0.0 73.8770896398758,18.542574937153105,0.0 73.8770896398758,18.54230544256787,0.0 73.87520317777916,18.54230544256787,0.0 73.87520317777916,18.542035947982633,0.0 73.87493368319393,18.542035947982633,0.0 73.87493368319393,18.541766453397397,0.0 73.87466418860869,18.541766453397397,0.0 73.87466418860869,18.54149695881216,0.0 73.87412519943821,18.54149695881216,0.0 73.87412519943821,18.541227464226925,0.0 73.87304722109727,18.541227464226925,0.0 73.87304722109727,18.54095796964169,0.0 73.87277772651204,18.54095796964169,0.0 73.87277772651204,18.540688475056452,0.0 73.8716997481711,18.540688475056452,0.0 73.8716997481711,18.540418980471216,0.0 73.87089126441539,18.540418980471216,0.0 73.87089126441539,18.54014948588598,0.0 73.86981328607445,18.54014948588598,0.0 73.86981328607445,18.539879991300747,0.0 73.86900480231874,18.539879991300747,0.0 73.86900480231874,18.53961049671551,0.0 73.86765732939256,18.53961049671551,0.0 73.86765732939256,18.539341002130275,0.0 73.86738783480732,18.539341002130275,0.0 73.86738783480732,18.53907150754504,0.0 73.86657935105161,18.53907150754504,0.0 73.86657935105161,18.538802012959803,0.0 73.86630985646637,18.538802012959803,0.0 73.86630985646637,18.538532518374566,0.0 73.86604036188115,18.538532518374566,0.0 73.86604036188115,18.53826302378933,0.0 73.86577086729591,18.53826302378933,0.0 73.86577086729591,18.537993529204094,0.0 73.86550137271067,18.537993529204094,0.0 73.86550137271067,18.537724034618858,0.0 73.86469288895496,18.537724034618858,0.0 73.86469288895496,18.537185045448386,0.0 73.86415389978448,18.537185045448386,0.0 73.86415389978448,18.535568077936972,0.0 73.86442339436972,18.535568077936972,0.0 73.86442339436972,18.535837572522208,0.0 73.86469288895496,18.535837572522208,0.0 73.86469288895496,18.536646056277917,0.0 73.86523187812543,18.536646056277917,0.0 73.86523187812543,18.537185045448386,0.0 73.86577086729591,18.537185045448386,0.0 73.86577086729591,18.53745454003362,0.0 73.86604036188115,18.53745454003362,0.0 73.86604036188115,18.537724034618858,0.0 73.86630985646637,18.537724034618858,0.0 73.86630985646637,18.537993529204094,0.0 73.86657935105161,18.537993529204094,0.0 73.86657935105161,18.53826302378933,0.0 73.86684884563685,18.53826302378933,0.0 73.86684884563685,18.538532518374566,0.0 73.8679268239778,18.538532518374566,0.0 73.8679268239778,18.538802012959803,0.0 73.86819631856302,18.538802012959803,0.0 73.86819631856302,18.53907150754504,0.0 73.86927429690397,18.53907150754504,0.0 73.86927429690397,18.539341002130275,0.0 73.86981328607445,18.539341002130275,0.0 73.86981328607445,18.53961049671551,0.0 73.8716997481711,18.53961049671551,0.0 73.8716997481711,18.539879991300747,0.0 73.87223873734156,18.539879991300747,0.0 73.87223873734156,18.54014948588598,0.0 73.8725082319268,18.54014948588598,0.0 73.8725082319268,18.540418980471216,0.0 73.87277772651204,18.540418980471216,0.0 73.87277772651204,18.54014948588598,0.0 73.87304722109727,18.54014948588598,0.0 73.87304722109727,18.540418980471216,0.0 73.8733167156825,18.540418980471216,0.0 73.8733167156825,18.540688475056452,0.0 73.87466418860869,18.540688475056452,0.0 73.87466418860869,18.54095796964169,0.0 73.87520317777916,18.54095796964169,0.0 73.87520317777916,18.541227464226925,0.0 73.87682014529058,18.541227464226925,0.0 73.87682014529058,18.54149695881216,0.0 73.87735913446105,18.54149695881216,0.0 73.87735913446105,18.541766453397397,0.0 73.87816761821675,18.541766453397397,0.0 73.87816761821675,18.542035947982633,0.0 73.8800540803134,18.542035947982633,0.0 73.8800540803134,18.54230544256787,0.0 73.88194054241005,18.54230544256787,0.0 73.88194054241005,18.542574937153105,0.0 73.88328801533623,18.542574937153105,0.0 73.88328801533623,18.54338342090881,0.0 73.883018520751,18.54338342090881,0.0 73.883018520751,18.543652915494047,0.0 73.88086256406912,18.543652915494047,0.0</coordinates>
                        </LinearRing>
                    </outerBoundaryIs>
                </Polygon>
            </Placemark>
            <Placemark id="1270">
                <name>Class 2 - 14</name>
                <styleUrl>#1275</styleUrl>
                <Polygon id="1269">
                    <outerBoundaryIs>
                        <LinearRing id="1273">
                            <coordinates>73.86361491061402,18.535568077936972,0.0 73.86361491061402,18.535298583351736,0.0 73.86415389978448,18.535298583351736,0.0 73.86415389978448,18.535568077936972,0.0 73.86361491061402,18.535568077936972,0.0</coordinates>
                        </LinearRing>
                    </outerBoundaryIs>
                </Polygon>
            </Placemark>
            <Placemark id="1279">
                <name>Class 2 - 15</name>
                <styleUrl>#1284</styleUrl>
                <Polygon id="1278">
                    <outerBoundaryIs>
                        <LinearRing id="1282">
                            <coordinates>73.9431158132586,18.543922410079283,0.0 73.9431158132586,18.543113926323574,0.0 73.94257682408812,18.543113926323574,0.0 73.94257682408812,18.542574937153105,0.0 73.94230732950288,18.542574937153105,0.0 73.94230732950288,18.542035947982633,0.0 73.94203783491766,18.542035947982633,0.0 73.94203783491766,18.54149695881216,0.0 73.94176834033242,18.54149695881216,0.0 73.94176834033242,18.541227464226925,0.0 73.94149884574718,18.541227464226925,0.0 73.94149884574718,18.540418980471216,0.0 73.94122935116195,18.540418980471216,0.0 73.94122935116195,18.53961049671551,0.0 73.94095985657671,18.53961049671551,0.0 73.94095985657671,18.539341002130275,0.0 73.94069036199147,18.539341002130275,0.0 73.94069036199147,18.538532518374566,0.0 73.94042086740623,18.538532518374566,0.0 73.94042086740623,18.53826302378933,0.0 73.940151372821,18.53826302378933,0.0 73.940151372821,18.53745454003362,0.0 73.93961238365053,18.53745454003362,0.0 73.93961238365053,18.53691555086315,0.0 73.93880389989482,18.53691555086315,0.0 73.93880389989482,18.536646056277917,0.0 73.93826491072436,18.536646056277917,0.0 73.93826491072436,18.53637656169268,0.0 73.93556996487199,18.53637656169268,0.0 73.93556996487199,18.536646056277917,0.0 73.93449198653104,18.536646056277917,0.0 73.93449198653104,18.53637656169268,0.0 73.93395299736058,18.53637656169268,0.0 73.93395299736058,18.535837572522208,0.0 73.93449198653104,18.535837572522208,0.0 73.93449198653104,18.535568077936972,0.0 73.93476148111628,18.535568077936972,0.0 73.93476148111628,18.535298583351736,0.0 73.93556996487199,18.535298583351736,0.0 73.93556996487199,18.534759594181264,0.0 73.93610895404247,18.534759594181264,0.0 73.93610895404247,18.5350290887665,0.0 73.93745642696864,18.5350290887665,0.0 73.93745642696864,18.535298583351736,0.0 73.93772592155388,18.535298583351736,0.0 73.93772592155388,18.5350290887665,0.0 73.93799541613912,18.5350290887665,0.0 73.93799541613912,18.535298583351736,0.0 73.93907339448006,18.535298583351736,0.0 73.93907339448006,18.535568077936972,0.0 73.93961238365053,18.535568077936972,0.0 73.93961238365053,18.535837572522208,0.0 73.940151372821,18.535837572522208,0.0 73.940151372821,18.53637656169268,0.0 73.94042086740623,18.53637656169268,0.0 73.94042086740623,18.536646056277917,0.0 73.94069036199147,18.536646056277917,0.0 73.94069036199147,18.537185045448386,0.0 73.94095985657671,18.537185045448386,0.0 73.94095985657671,18.53745454003362,0.0 73.94122935116195,18.53745454003362,0.0 73.94122935116195,18.537993529204094,0.0 73.94149884574718,18.537993529204094,0.0 73.94149884574718,18.538532518374566,0.0 73.94176834033242,18.538532518374566,0.0 73.94176834033242,18.538802012959803,0.0 73.94203783491766,18.538802012959803,0.0 73.94203783491766,18.53961049671551,0.0 73.94230732950288,18.53961049671551,0.0 73.94230732950288,18.54014948588598,0.0 73.94257682408812,18.54014948588598,0.0 73.94257682408812,18.54095796964169,0.0 73.94284631867336,18.54095796964169,0.0 73.94284631867336,18.541227464226925,0.0 73.9431158132586,18.541227464226925,0.0 73.9431158132586,18.542035947982633,0.0 73.94338530784383,18.542035947982633,0.0 73.94338530784383,18.542574937153105,0.0 73.94365480242907,18.542574937153105,0.0 73.94365480242907,18.54284443173834,0.0 73.9439242970143,18.54284443173834,0.0 73.9439242970143,18.543922410079283,0.0 73.9431158132586,18.543922410079283,0.0</coordinates>
                        </LinearRing>
                    </outerBoundaryIs>
                </Polygon>
            </Placemark>
            <Placemark id="1288">
                <name>Class 2 - 16</name>
                <styleUrl>#1293</styleUrl>
                <Polygon id="1287">
                    <outerBoundaryIs>
                        <LinearRing id="1291">
                            <coordinates>73.85553007305694,18.533412121255086,0.0 73.85553007305694,18.53314262666985,0.0 73.85499108388647,18.53314262666985,0.0 73.85499108388647,18.532873132084614,0.0 73.8552605784717,18.532873132084614,0.0 73.8552605784717,18.532603637499378,0.0 73.85606906222742,18.532603637499378,0.0 73.85606906222742,18.53314262666985,0.0 73.85579956764218,18.53314262666985,0.0 73.85579956764218,18.533412121255086,0.0 73.85553007305694,18.533412121255086,0.0</coordinates>
                        </LinearRing>
                    </outerBoundaryIs>
                </Polygon>
            </Placemark>
            <Placemark id="1297">
                <name>Class 2 - 17</name>
                <styleUrl>#1302</styleUrl>
                <Polygon id="1296">
                    <outerBoundaryIs>
                        <LinearRing id="1300">
                            <coordinates>73.86334541602878,18.535298583351736,0.0 73.86334541602878,18.5350290887665,0.0 73.86307592144355,18.5350290887665,0.0 73.86307592144355,18.53422060501079,0.0 73.86253693227307,18.53422060501079,0.0 73.86253693227307,18.533951110425555,0.0 73.86226743768783,18.533951110425555,0.0 73.86226743768783,18.533412121255086,0.0 73.86199794310261,18.533412121255086,0.0 73.86199794310261,18.53314262666985,0.0 73.86172844851737,18.53314262666985,0.0 73.86172844851737,18.532873132084614,0.0 73.86145895393213,18.532873132084614,0.0 73.86145895393213,18.532603637499378,0.0 73.86118945934689,18.532603637499378,0.0 73.86118945934689,18.53233414291414,0.0 73.86038097559118,18.53233414291414,0.0 73.86038097559118,18.53179515374367,0.0 73.85741653515359,18.53179515374367,0.0 73.85741653515359,18.532064648328905,0.0 73.85660805139788,18.532064648328905,0.0 73.85660805139788,18.53233414291414,0.0 73.85606906222742,18.53233414291414,0.0 73.85606906222742,18.532064648328905,0.0 73.85633855681264,18.532064648328905,0.0 73.85633855681264,18.53179515374367,0.0 73.85660805139788,18.53179515374367,0.0 73.85660805139788,18.531525659158433,0.0 73.85714704056836,18.531525659158433,0.0 73.85714704056836,18.531256164573197,0.0 73.85741653515359,18.531256164573197,0.0 73.85741653515359,18.53098666998796,0.0 73.8582250189093,18.53098666998796,0.0 73.8582250189093,18.530717175402728,0.0 73.85876400807977,18.530717175402728,0.0 73.85876400807977,18.53098666998796,0.0 73.86038097559118,18.53098666998796,0.0 73.86038097559118,18.530447680817492,0.0 73.86065047017642,18.530447680817492,0.0 73.86065047017642,18.53098666998796,0.0 73.86118945934689,18.53098666998796,0.0 73.86118945934689,18.531525659158433,0.0 73.86145895393213,18.531525659158433,0.0 73.86145895393213,18.53179515374367,0.0 73.86172844851737,18.53179515374367,0.0 73.86172844851737,18.532064648328905,0.0 73.86199794310261,18.532064648328905,0.0 73.86199794310261,18.53233414291414,0.0 73.86226743768783,18.53233414291414,0.0 73.86226743768783,18.532873132084614,0.0 73.86280642685831,18.532873132084614,0.0 73.86280642685831,18.53314262666985,0.0 73.86307592144355,18.53314262666985,0.0 73.86307592144355,18.533412121255086,0.0 73.86334541602878,18.533412121255086,0.0 73.86334541602878,18.534759594181264,0.0 73.86361491061402,18.534759594181264,0.0 73.86361491061402,18.535298583351736,0.0 73.86334541602878,18.535298583351736,0.0</coordinates>
                        </LinearRing>
                    </outerBoundaryIs>
                </Polygon>
            </Placemark>
            <Placemark id="1306">
                <name>Class 2 - 18</name>
                <styleUrl>#1311</styleUrl>
                <Polygon id="1305">
                    <outerBoundaryIs>
                        <LinearRing id="1309">
                            <coordinates>73.95712953169087,18.547156345102113,0.0 73.95712953169087,18.546886850516877,0.0 73.95632104793515,18.546886850516877,0.0 73.95632104793515,18.54661735593164,0.0 73.95470408042374,18.54661735593164,0.0 73.95470408042374,18.546347861346405,0.0 73.95416509125327,18.546347861346405,0.0 73.95416509125327,18.54607836676117,0.0 73.95227862915661,18.54607836676117,0.0 73.95227862915661,18.545269883005464,0.0 73.95389559666803,18.545269883005464,0.0 73.95389559666803,18.5455393775907,0.0 73.9552430695942,18.5455393775907,0.0 73.9552430695942,18.545808872175936,0.0 73.95551256417944,18.545808872175936,0.0 73.95551256417944,18.54607836676117,0.0 73.95686003710563,18.54607836676117,0.0 73.95686003710563,18.546347861346405,0.0 73.95847700461704,18.546347861346405,0.0 73.95847700461704,18.54661735593164,0.0 73.95901599378752,18.54661735593164,0.0 73.95901599378752,18.546347861346405,0.0 73.95955498295798,18.546347861346405,0.0 73.95955498295798,18.54607836676117,0.0 73.96036346671369,18.54607836676117,0.0 73.96036346671369,18.545808872175936,0.0 73.96090245588417,18.545808872175936,0.0 73.96090245588417,18.5455393775907,0.0 73.96117195046939,18.5455393775907,0.0 73.96117195046939,18.545269883005464,0.0 73.96144144505463,18.545269883005464,0.0 73.96144144505463,18.545000388420227,0.0 73.96171093963987,18.545000388420227,0.0 73.96171093963987,18.54473089383499,0.0 73.96224992881034,18.54473089383499,0.0 73.96224992881034,18.544461399249755,0.0 73.96278891798082,18.544461399249755,0.0 73.96278891798082,18.54419190466452,0.0 73.96305841256606,18.54419190466452,0.0 73.96305841256606,18.543922410079283,0.0 73.96359740173652,18.543922410079283,0.0 73.96359740173652,18.543652915494047,0.0 73.96413639090699,18.543652915494047,0.0 73.96413639090699,18.54338342090881,0.0 73.9649448746627,18.54338342090881,0.0 73.9649448746627,18.543113926323574,0.0 73.96575335841841,18.543113926323574,0.0 73.96575335841841,18.54284443173834,0.0 73.96844830427077,18.54284443173834,0.0 73.96844830427077,18.542574937153105,0.0 73.96898729344124,18.542574937153105,0.0 73.96898729344124,18.54230544256787,0.0 73.97006527178218,18.54230544256787,0.0 73.97006527178218,18.542035947982633,0.0 73.97033476636742,18.542035947982633,0.0 73.97033476636742,18.541766453397397,0.0 73.97114325012312,18.541766453397397,0.0 73.97114325012312,18.54149695881216,0.0 73.9716822392936,18.54149695881216,0.0 73.9716822392936,18.541227464226925,0.0 73.9724907230493,18.541227464226925,0.0 73.9724907230493,18.540688475056452,0.0 73.97302971221977,18.540688475056452,0.0 73.97302971221977,18.540418980471216,0.0 73.97329920680501,18.540418980471216,0.0 73.97329920680501,18.539879991300747,0.0 73.97356870139025,18.539879991300747,0.0 73.97356870139025,18.539341002130275,0.0 73.97383819597549,18.539341002130275,0.0 73.97383819597549,18.538532518374566,0.0 73.97410769056071,18.538532518374566,0.0 73.97410769056071,18.53826302378933,0.0 73.97437718514595,18.53826302378933,0.0 73.97437718514595,18.537724034618858,0.0 73.9746466797312,18.537724034618858,0.0 73.9746466797312,18.536107067107444,0.0 73.97491617431643,18.536107067107444,0.0 73.97491617431643,18.535837572522208,0.0 73.97518566890166,18.535837572522208,0.0 73.97518566890166,18.534759594181264,0.0 73.9754551634869,18.534759594181264,0.0 73.9754551634869,18.534490099596027,0.0 73.97572465807214,18.534490099596027,0.0 73.97572465807214,18.53422060501079,0.0 73.97599415265736,18.53422060501079,0.0 73.97599415265736,18.53314262666985,0.0 73.9762636472426,18.53314262666985,0.0 73.9762636472426,18.532873132084614,0.0 73.97653314182784,18.532873132084614,0.0 73.97653314182784,18.532603637499378,0.0 73.97707213099831,18.532603637499378,0.0 73.97707213099831,18.53233414291414,0.0 73.97734162558355,18.53233414291414,0.0 73.97734162558355,18.532064648328905,0.0 73.97761112016879,18.532064648328905,0.0 73.97761112016879,18.531525659158433,0.0 73.97788061475403,18.531525659158433,0.0 73.97788061475403,18.531256164573197,0.0 73.97815010933925,18.531256164573197,0.0 73.97815010933925,18.53098666998796,0.0 73.9784196039245,18.53098666998796,0.0 73.9784196039245,18.530717175402728,0.0 73.97868909850973,18.530717175402728,0.0 73.97868909850973,18.530447680817492,0.0 73.97895859309496,18.530447680817492,0.0 73.97895859309496,18.530178186232256,0.0 73.9792280876802,18.530178186232256,0.0 73.9792280876802,18.52990869164702,0.0 73.97976707685068,18.52990869164702,0.0 73.97976707685068,18.529639197061783,0.0 73.9800365714359,18.529639197061783,0.0 73.9800365714359,18.529369702476547,0.0 73.98057556060638,18.529369702476547,0.0 73.98057556060638,18.52910020789131,0.0 73.98084505519162,18.52910020789131,0.0 73.98084505519162,18.528830713306075,0.0 73.98111454977685,18.528830713306075,0.0 73.98111454977685,18.52856121872084,0.0 73.98165353894733,18.52856121872084,0.0 73.98165353894733,18.528291724135602,0.0 73.98219252811779,18.528291724135602,0.0 73.98219252811779,18.528022229550366,0.0 73.98246202270303,18.528022229550366,0.0 73.98246202270303,18.527752734965134,0.0 73.9830010118735,18.527752734965134,0.0 73.9830010118735,18.527483240379897,0.0 73.98327050645874,18.527483240379897,0.0 73.98327050645874,18.52721374579466,0.0 73.98407899021444,18.52721374579466,0.0 73.98407899021444,18.526944251209425,0.0 73.98461797938492,18.526944251209425,0.0 73.98461797938492,18.52667475662419,0.0 73.98515696855539,18.52667475662419,0.0 73.98515696855539,18.526405262038953,0.0 73.98542646314063,18.526405262038953,0.0 73.98542646314063,18.526135767453717,0.0 73.98596545231109,18.526135767453717,0.0 73.98596545231109,18.52586627286848,0.0 73.98623494689633,18.52586627286848,0.0 73.98623494689633,18.525596778283244,0.0 73.98704343065204,18.525596778283244,0.0 73.98704343065204,18.525327283698008,0.0 73.98758241982252,18.525327283698008,0.0 73.98758241982252,18.525596778283244,0.0 73.98785191440774,18.525596778283244,0.0 73.98785191440774,18.526405262038953,0.0 73.98758241982252,18.526405262038953,0.0 73.98758241982252,18.52667475662419,0.0 73.98704343065204,18.52667475662419,0.0 73.98704343065204,18.526944251209425,0.0 73.98650444148157,18.526944251209425,0.0 73.98650444148157,18.52721374579466,0.0 73.98569595772587,18.52721374579466,0.0 73.98569595772587,18.527483240379897,0.0 73.98515696855539,18.527483240379897,0.0 73.98515696855539,18.527752734965134,0.0 73.98461797938492,18.527752734965134,0.0 73.98461797938492,18.528022229550366,0.0 73.98434848479968,18.528022229550366,0.0 73.98434848479968,18.528291724135602,0.0 73.98380949562922,18.528291724135602,0.0 73.98380949562922,18.52856121872084,0.0 73.98327050645874,18.52856121872084,0.0 73.98327050645874,18.528830713306075,0.0 73.98273151728827,18.528830713306075,0.0 73.98273151728827,18.52910020789131,0.0 73.98246202270303,18.52910020789131,0.0 73.98246202270303,18.529369702476547,0.0 73.98165353894733,18.529369702476547,0.0 73.98165353894733,18.52990869164702,0.0 73.98111454977685,18.52990869164702,0.0 73.98111454977685,18.530178186232256,0.0 73.98057556060638,18.530178186232256,0.0 73.98057556060638,18.530717175402728,0.0 73.9800365714359,18.530717175402728,0.0 73.9800365714359,18.53098666998796,0.0 73.9792280876802,18.53098666998796,0.0 73.9792280876802,18.531256164573197,0.0 73.97895859309496,18.531256164573197,0.0 73.97895859309496,18.531525659158433,0.0 73.97868909850973,18.531525659158433,0.0 73.97868909850973,18.53179515374367,0.0 73.9784196039245,18.53179515374367,0.0 73.9784196039245,18.532064648328905,0.0 73.97788061475403,18.532064648328905,0.0 73.97788061475403,18.53314262666985,0.0 73.97761112016879,18.53314262666985,0.0 73.97761112016879,18.533412121255086,0.0 73.97734162558355,18.533412121255086,0.0 73.97734162558355,18.533681615840322,0.0 73.97707213099831,18.533681615840322,0.0 73.97707213099831,18.53422060501079,0.0 73.97653314182784,18.53422060501079,0.0 73.97653314182784,18.5350290887665,0.0 73.9762636472426,18.5350290887665,0.0 73.9762636472426,18.535298583351736,0.0 73.97599415265736,18.535298583351736,0.0 73.97599415265736,18.535837572522208,0.0 73.97572465807214,18.535837572522208,0.0 73.97572465807214,18.53637656169268,0.0 73.9754551634869,18.53637656169268,0.0 73.9754551634869,18.537993529204094,0.0 73.97518566890166,18.537993529204094,0.0 73.97518566890166,18.538802012959803,0.0 73.97491617431643,18.538802012959803,0.0 73.97491617431643,18.53907150754504,0.0 73.9746466797312,18.53907150754504,0.0 73.9746466797312,18.53961049671551,0.0 73.97437718514595,18.53961049671551,0.0 73.97437718514595,18.539879991300747,0.0 73.97410769056071,18.539879991300747,0.0 73.97410769056071,18.54014948588598,0.0 73.97383819597549,18.54014948588598,0.0 73.97383819597549,18.540418980471216,0.0 73.97356870139025,18.540418980471216,0.0 73.97356870139025,18.540688475056452,0.0 73.97329920680501,18.540688475056452,0.0 73.97329920680501,18.541227464226925,0.0 73.97302971221977,18.541227464226925,0.0 73.97302971221977,18.541766453397397,0.0 73.9724907230493,18.541766453397397,0.0 73.9724907230493,18.542035947982633,0.0 73.97222122846406,18.542035947982633,0.0 73.97222122846406,18.54230544256787,0.0 73.9716822392936,18.54230544256787,0.0 73.9716822392936,18.542574937153105,0.0 73.97114325012312,18.542574937153105,0.0 73.97114325012312,18.54284443173834,0.0 73.97060426095265,18.54284443173834,0.0 73.97060426095265,18.543113926323574,0.0 73.97006527178218,18.543113926323574,0.0 73.97006527178218,18.54338342090881,0.0 73.9679093151003,18.54338342090881,0.0 73.9679093151003,18.543652915494047,0.0 73.96683133675936,18.543652915494047,0.0 73.96683133675936,18.543922410079283,0.0 73.96602285300365,18.543922410079283,0.0 73.96602285300365,18.54419190466452,0.0 73.96575335841841,18.54419190466452,0.0 73.96575335841841,18.544461399249755,0.0 73.96413639090699,18.544461399249755,0.0 73.96413639090699,18.54473089383499,0.0 73.96359740173652,18.54473089383499,0.0 73.96359740173652,18.545000388420227,0.0 73.96305841256606,18.545000388420227,0.0 73.96305841256606,18.545269883005464,0.0 73.96278891798082,18.545269883005464,0.0 73.96278891798082,18.5455393775907,0.0 73.96198043422511,18.5455393775907,0.0 73.96198043422511,18.545808872175936,0.0 73.96117195046939,18.545808872175936,0.0 73.96117195046939,18.54607836676117,0.0 73.96090245588417,18.54607836676117,0.0 73.96090245588417,18.54661735593164,0.0 73.96036346671369,18.54661735593164,0.0 73.96036346671369,18.546886850516877,0.0 73.95928548837274,18.546886850516877,0.0 73.95928548837274,18.547156345102113,0.0 73.95712953169087,18.547156345102113,0.0</coordinates>
                        </LinearRing>
                    </outerBoundaryIs>
                </Polygon>
            </Placemark>
            <Placemark id="1315">
                <name>Class 2 - 19</name>
                <styleUrl>#1320</styleUrl>
                <Polygon id="1314">
                    <outerBoundaryIs>
                        <LinearRing id="1318">
                            <coordinates>73.9897383765044,18.52478829452754,0.0 73.9897383765044,18.524518799942303,0.0 73.98946888191917,18.524518799942303,0.0 73.98946888191917,18.524249305357067,0.0 73.98919938733393,18.524249305357067,0.0 73.98919938733393,18.523710316186595,0.0 73.98946888191917,18.523710316186595,0.0 73.98946888191917,18.52344082160136,0.0 73.9897383765044,18.52344082160136,0.0 73.9897383765044,18.523171327016122,0.0 73.99000787108963,18.523171327016122,0.0 73.99000787108963,18.522901832430886,0.0 73.99027736567487,18.522901832430886,0.0 73.99027736567487,18.52263233784565,0.0 73.99054686026011,18.52263233784565,0.0 73.99054686026011,18.522362843260414,0.0 73.99081635484534,18.522362843260414,0.0 73.99081635484534,18.52182385408994,0.0 73.99108584943058,18.52182385408994,0.0 73.99108584943058,18.52155435950471,0.0 73.99135534401582,18.52155435950471,0.0 73.99135534401582,18.521015370334236,0.0 73.99162483860106,18.521015370334236,0.0 73.99162483860106,18.520745875749,0.0 73.992702816942,18.520745875749,0.0 73.992702816942,18.52182385408994,0.0 73.99243332235676,18.52182385408994,0.0 73.99243332235676,18.522093348675178,0.0 73.99216382777152,18.522093348675178,0.0 73.99216382777152,18.522362843260414,0.0 73.99189433318628,18.522362843260414,0.0 73.99189433318628,18.522901832430886,0.0 73.99162483860106,18.522901832430886,0.0 73.99162483860106,18.52344082160136,0.0 73.99108584943058,18.52344082160136,0.0 73.99108584943058,18.523710316186595,0.0 73.99081635484534,18.523710316186595,0.0 73.99081635484534,18.52397981077183,0.0 73.99054686026011,18.52397981077183,0.0 73.99054686026011,18.524249305357067,0.0 73.99027736567487,18.524249305357067,0.0 73.99027736567487,18.524518799942303,0.0 73.99000787108963,18.524518799942303,0.0 73.99000787108963,18.52478829452754,0.0 73.9897383765044,18.52478829452754,0.0</coordinates>
                        </LinearRing>
                    </outerBoundaryIs>
                </Polygon>
            </Placemark>
        </Folder>
    </Document>
</kml>
